{
"type": "FeatureCollection",
"name": "simplified_special_use",
"features": [
{ "type": "Feature", "properties": { "fid": 2, "ZoneCode": "001002", "AbrvFull": "NAVA", "NameFull": "Navajo Nation", "ZoneNum": 2, "AbrvPart": "NAVA", "NamePart": null, "ZoneType": "Special use", "StateAbrv": null, "StateName": null, "ProjAbrv": "LC1", "ProjType": "Lambert Conformal Conic, one parallel", "LatOrigin": "36°00'N", "LonOriginE": "250°30'E", "LonOriginW": "109°30'W", "Lat0_deg": 36.0, "Lon0_E_deg": 250.5, "Lon0_W_deg": -109.5, "ProjScale": 1.0002, "SkewAz_deg": -9999, "FalseN_m": 228600.0, "FalseE_m": 762000.0, "FalseN_ift": 750000.0, "FalseE_ift": 2500000.0, "DesignBy": "NGS", "Ref_frame": "NATRF2022" }, "geometry": { "type": "MultiPolygon", "coordinates": [ [ [ [ -108.34465, 34.71166 ], [ -108.36204, 34.71183 ], [ -108.3622, 34.69679 ], [ -108.3449, 34.69692 ], [ -108.34465, 34.71166 ] ] ], [ [ [ -108.39674, 34.75513 ], [ -108.39707, 34.74084 ], [ -108.3792, 34.74035 ], [ -108.37922, 34.755 ], [ -108.39674, 34.75513 ] ] ], [ [ [ -108.43193, 34.76954 ], [ -108.44983, 34.76948 ], [ -108.45005, 34.75516 ], [ -108.43227, 34.7552 ], [ -108.43193, 34.76954 ] ] ], [ [ [ -108.41408, 34.76961 ], [ -108.41444, 34.75519 ], [ -108.39674, 34.75513 ], [ -108.39668, 34.76966 ], [ -108.41408, 34.76961 ] ] ], [ [ [ -108.34465, 34.71166 ], [ -108.32783, 34.71176 ], [ -108.32788, 34.69687 ], [ -108.27326, 34.69721 ], [ -108.27349, 34.71208 ], [ -108.25622, 34.7118 ], [ -108.25699, 34.78461 ], [ -108.27402, 34.78453 ], [ -108.27368, 34.7993 ], [ -108.25532, 34.79938 ], [ -108.2562, 34.8723 ], [ -108.27288, 34.8721 ], [ -108.27362, 34.88676 ], [ -108.25616, 34.88681 ], [ -108.25594, 34.93446 ], [ -108.27433, 34.93463 ], [ -108.2738, 34.94559 ], [ -108.29242, 34.94513 ], [ -108.30152, 34.97464 ], [ -108.31083, 34.95932 ], [ -108.37959, 34.95929 ], [ -108.38032, 34.94418 ], [ -108.39809, 34.94415 ], [ -108.39756, 34.95921 ], [ -108.45084, 34.95916 ], [ -108.4506, 34.94426 ], [ -108.4686, 34.94412 ], [ -108.46925, 34.92924 ], [ -108.45104, 34.92922 ], [ -108.45114, 34.91478 ], [ -108.4688, 34.91465 ], [ -108.46896, 34.90025 ], [ -108.45065, 34.90038 ], [ -108.4505, 34.8859 ], [ -108.46974, 34.8859 ], [ -108.46958, 34.87152 ], [ -108.48506, 34.87159 ], [ -108.48524, 34.85751 ], [ -108.50262, 34.85783 ], [ -108.50258, 34.872 ], [ -108.555, 34.87239 ], [ -108.55491, 34.85713 ], [ -108.57271, 34.85705 ], [ -108.57173, 34.78452 ], [ -108.55532, 34.78502 ], [ -108.55536, 34.79867 ], [ -108.53766, 34.7991 ], [ -108.538, 34.78496 ], [ -108.4853, 34.78486 ], [ -108.48497, 34.79906 ], [ -108.46743, 34.79861 ], [ -108.46762, 34.78404 ], [ -108.45054, 34.78411 ], [ -108.45043, 34.79869 ], [ -108.43182, 34.79877 ], [ -108.42231, 34.78424 ], [ -108.43193, 34.76954 ], [ -108.41408, 34.76961 ], [ -108.41374, 34.7842 ], [ -108.37877, 34.78436 ], [ -108.37883, 34.79879 ], [ -108.36234, 34.79869 ], [ -108.36167, 34.72592 ], [ -108.34432, 34.72578 ], [ -108.34465, 34.71166 ] ] ], [ [ [ -108.5032, 34.92968 ], [ -108.50333, 34.93337 ], [ -108.51341, 34.92961 ], [ -108.5032, 34.92968 ] ] ], [ [ [ -108.51962, 34.92944 ], [ -108.51458, 34.94068 ], [ -108.51927, 34.94419 ], [ -108.51962, 34.92944 ] ] ], [ [ [ -108.43549, 34.98853 ], [ -108.43535, 34.97312 ], [ -108.41678, 34.98098 ], [ -108.43549, 34.98853 ] ] ], [ [ [ -108.39911, 34.98776 ], [ -108.39914, 34.98031 ], [ -108.38166, 34.9873 ], [ -108.39911, 34.98776 ] ] ], [ [ [ -108.3643, 34.97349 ], [ -108.3287, 34.97035 ], [ -108.32867, 35.00327 ], [ -108.34629, 35.0034 ], [ -108.34596, 34.98845 ], [ -108.364, 34.98816 ], [ -108.3643, 34.97349 ] ] ], [ [ [ -108.39921, 35.00247 ], [ -108.41725, 35.00255 ], [ -108.39911, 34.98776 ], [ -108.39921, 35.00247 ] ] ], [ [ [ -108.43549, 34.98853 ], [ -108.4349, 35.00267 ], [ -108.46991, 35.01034 ], [ -108.48724, 35.00234 ], [ -108.48858, 35.01793 ], [ -108.50612, 35.01884 ], [ -108.50545, 35.00334 ], [ -108.52347, 35.0042 ], [ -108.52377, 34.99053 ], [ -108.43549, 34.98853 ] ] ], [ [ [ -108.39921, 35.00247 ], [ -108.3816, 35.00147 ], [ -108.3815, 35.01711 ], [ -108.39887, 35.01773 ], [ -108.39921, 35.00247 ] ] ], [ [ [ -108.36402, 35.03183 ], [ -108.35931, 35.04245 ], [ -108.36402, 35.04245 ], [ -108.36402, 35.03183 ] ] ], [ [ [ -108.41673, 35.04633 ], [ -108.43438, 35.04599 ], [ -108.4348, 35.03554 ], [ -108.41673, 35.04633 ] ] ], [ [ [ -108.36366, 35.0752 ], [ -108.36377, 35.06069 ], [ -108.34624, 35.06075 ], [ -108.34641, 35.07522 ], [ -108.36366, 35.0752 ] ] ], [ [ [ -108.38191, 35.07549 ], [ -108.36366, 35.0752 ], [ -108.36371, 35.09054 ], [ -108.38242, 35.09062 ], [ -108.38191, 35.07549 ] ] ], [ [ [ -108.41673, 35.04633 ], [ -108.39923, 35.04627 ], [ -108.39899, 35.06067 ], [ -108.38151, 35.06065 ], [ -108.38191, 35.07549 ], [ -108.45193, 35.07546 ], [ -108.45184, 35.09004 ], [ -108.43412, 35.09005 ], [ -108.43448, 35.1117 ], [ -108.45213, 35.11884 ], [ -108.45198, 35.13325 ], [ -108.46968, 35.13323 ], [ -108.46964, 35.11905 ], [ -108.50419, 35.11882 ], [ -108.50376, 35.10454 ], [ -108.52157, 35.10435 ], [ -108.5224, 35.09015 ], [ -108.53999, 35.09036 ], [ -108.54162, 35.03322 ], [ -108.52345, 35.03338 ], [ -108.52267, 35.04716 ], [ -108.48816, 35.04637 ], [ -108.48779, 35.0606 ], [ -108.46979, 35.06084 ], [ -108.46986, 35.04647 ], [ -108.45226, 35.04624 ], [ -108.4524, 35.06099 ], [ -108.41682, 35.06007 ], [ -108.41673, 35.04633 ] ] ], [ [ [ -110.2695, 35.11247 ], [ -110.26948, 35.10595 ], [ -110.26226, 35.10598 ], [ -110.2695, 35.11247 ] ] ], [ [ [ -108.41711, 35.11901 ], [ -108.41682, 35.10429 ], [ -108.39911, 35.10462 ], [ -108.39945, 35.11912 ], [ -108.41711, 35.11901 ] ] ], [ [ [ -110.34122, 35.12173 ], [ -110.35834, 35.10776 ], [ -110.34116, 35.10777 ], [ -110.34122, 35.12173 ] ] ], [ [ [ -110.2695, 35.11247 ], [ -110.26966, 35.12692 ], [ -110.28733, 35.12688 ], [ -110.28726, 35.11239 ], [ -110.2695, 35.11247 ] ] ], [ [ [ -110.37567, 35.13691 ], [ -110.35825, 35.12223 ], [ -110.3583, 35.137 ], [ -110.37567, 35.13691 ] ] ], [ [ [ -108.52252, 35.14796 ], [ -108.52258, 35.14044 ], [ -108.51375, 35.14792 ], [ -108.52252, 35.14796 ] ] ], [ [ [ -110.26961, 35.15568 ], [ -110.28763, 35.15567 ], [ -110.28752, 35.14138 ], [ -110.26939, 35.14133 ], [ -110.26961, 35.15568 ] ] ], [ [ [ -108.52252, 35.14796 ], [ -108.52219, 35.16236 ], [ -108.5399, 35.16245 ], [ -108.53988, 35.14802 ], [ -108.52252, 35.14796 ] ] ], [ [ [ -111.25505, 35.17112 ], [ -111.2618, 35.16566 ], [ -111.25633, 35.16391 ], [ -111.25505, 35.17112 ] ] ], [ [ [ -108.4239, 35.52328 ], [ -108.4407, 35.52329 ], [ -108.44031, 35.50929 ], [ -108.42361, 35.50924 ], [ -108.4239, 35.52328 ] ] ], [ [ [ -111.37671, 35.62631 ], [ -111.39466, 35.61156 ], [ -111.37679, 35.61149 ], [ -111.37671, 35.62631 ] ] ], [ [ [ -111.41295, 35.64072 ], [ -111.39489, 35.62624 ], [ -111.3948, 35.64079 ], [ -111.41295, 35.64072 ] ] ], [ [ [ -112.60107, 36.10739 ], [ -112.76189, 36.10793 ], [ -112.7619, 36.16587 ], [ -112.77987, 36.1656 ], [ -112.77975, 36.151 ], [ -112.79764, 36.15099 ], [ -112.79771, 36.16546 ], [ -112.85153, 36.16539 ], [ -112.85136, 36.15103 ], [ -112.87645, 36.15818 ], [ -112.87732, 35.82001 ], [ -113.28119, 35.54445 ], [ -113.23018, 35.52998 ], [ -113.18309, 35.52999 ], [ -113.18311, 35.50702 ], [ -113.14299, 35.48168 ], [ -113.14238, 35.45873 ], [ -113.0937, 35.43936 ], [ -112.98054, 35.37504 ], [ -112.96581, 35.34692 ], [ -112.94415, 35.33751 ], [ -112.89471, 35.32955 ], [ -112.77365, 35.30191 ], [ -112.76159, 35.29199 ], [ -112.76183, 35.50085 ], [ -112.65227, 35.50001 ], [ -112.65232, 35.65301 ], [ -112.60911, 35.68851 ], [ -112.61535, 35.70332 ], [ -112.65269, 35.70305 ], [ -112.65344, 35.84649 ], [ -112.51206, 35.84647 ], [ -112.51216, 35.9046 ], [ -112.53014, 35.93361 ], [ -112.52094, 35.95521 ], [ -112.53021, 35.98075 ], [ -112.5255, 36.0206 ], [ -112.53061, 36.03471 ], [ -112.5473, 36.0348 ], [ -112.54726, 36.0497 ], [ -112.60104, 36.04961 ], [ -112.60107, 36.10739 ] ] ], [ [ [ -110.10965, 35.78866 ], [ -110.10087, 35.80932 ], [ -110.14619, 35.80963 ], [ -110.2362, 35.71973 ], [ -110.23082, 35.69728 ], [ -110.19945, 35.69242 ], [ -110.14575, 35.70865 ], [ -110.12782, 35.69599 ], [ -110.08214, 35.70101 ], [ -110.09244, 35.7353 ], [ -110.08434, 35.75004 ], [ -110.08341, 35.79277 ], [ -110.10965, 35.78866 ] ] ], [ [ [ -107.74986, 36.38666 ], [ -107.75883, 36.37962 ], [ -107.7953, 36.37989 ], [ -107.79542, 36.38758 ], [ -107.82564, 36.39041 ], [ -107.81217, 36.42344 ], [ -107.79646, 36.43017 ], [ -107.85239, 36.4307 ], [ -107.87457, 36.4375 ], [ -107.87494, 36.4013 ], [ -107.89319, 36.41554 ], [ -107.8938, 36.38644 ], [ -107.91123, 36.37937 ], [ -107.95449, 36.38612 ], [ -107.95458, 36.39354 ], [ -107.91924, 36.40022 ], [ -107.9193, 36.41626 ], [ -107.96452, 36.43376 ], [ -107.96451, 36.41458 ], [ -107.98233, 36.4148 ], [ -107.9823, 36.44381 ], [ -108.0098, 36.45099 ], [ -108.00986, 36.46584 ], [ -107.96377, 36.46601 ], [ -107.96356, 36.48116 ], [ -107.9822, 36.47379 ], [ -107.98335, 36.56027 ], [ -108.00399, 36.58193 ], [ -108.00338, 36.59731 ], [ -108.01838, 36.6035 ], [ -108.01846, 36.62154 ], [ -108.04014, 36.61774 ], [ -108.03622, 36.63979 ], [ -108.05499, 36.63706 ], [ -108.07197, 36.66228 ], [ -108.10799, 36.65474 ], [ -108.1046, 36.69043 ], [ -108.11269, 36.67613 ], [ -108.13459, 36.67636 ], [ -108.15664, 36.64753 ], [ -108.20293, 36.65099 ], [ -108.1925, 36.67609 ], [ -108.25297, 36.66993 ], [ -108.25212, 36.73557 ], [ -108.28281, 36.73155 ], [ -108.30565, 36.72051 ], [ -108.32782, 36.72049 ], [ -108.34911, 36.73002 ], [ -108.38592, 36.72543 ], [ -108.41437, 36.75053 ], [ -108.43829, 36.74132 ], [ -108.45982, 36.74207 ], [ -108.49183, 36.75525 ], [ -108.53762, 36.74625 ], [ -108.53689, 36.79282 ], [ -108.5211, 36.79282 ], [ -108.5211, 36.80739 ], [ -108.53683, 36.80739 ], [ -108.53683, 36.82168 ], [ -108.48877, 36.82166 ], [ -108.46746, 36.83436 ], [ -108.46283, 36.85005 ], [ -108.53629, 36.85031 ], [ -108.5364, 36.99934 ], [ -109.04516, 36.99897 ], [ -109.04563, 37.35972 ], [ -109.07736, 37.35981 ], [ -109.07735, 37.34545 ], [ -109.09589, 37.34544 ], [ -109.09578, 37.35986 ], [ -109.11434, 37.35991 ], [ -109.11459, 37.34519 ], [ -109.13216, 37.34569 ], [ -109.13211, 37.37462 ], [ -109.22236, 37.37471 ], [ -109.22186, 37.38911 ], [ -109.205, 37.38893 ], [ -109.20491, 37.40354 ], [ -109.18667, 37.40347 ], [ -109.19224, 37.43225 ], [ -109.2411, 37.43222 ], [ -109.24121, 37.44694 ], [ -109.27728, 37.44698 ], [ -109.27721, 37.46136 ], [ -109.30462, 37.46129 ], [ -109.30442, 37.44704 ], [ -109.34926, 37.44685 ], [ -109.34917, 37.46148 ], [ -109.36699, 37.46169 ], [ -109.36688, 37.44711 ], [ -109.40365, 37.447 ], [ -109.42189, 37.41083 ], [ -109.42191, 37.38902 ], [ -109.45202, 37.36825 ], [ -109.45295, 37.36002 ], [ -109.39391, 37.36009 ], [ -109.4034, 37.32787 ], [ -109.38059, 37.32063 ], [ -109.37586, 37.33125 ], [ -109.35314, 37.3314 ], [ -109.34928, 37.31656 ], [ -109.33093, 37.31667 ], [ -109.33894, 37.2802 ], [ -109.33152, 37.26818 ], [ -109.35833, 37.26261 ], [ -109.41337, 37.28334 ], [ -109.45093, 37.27477 ], [ -109.46913, 37.28316 ], [ -109.52038, 37.27489 ], [ -109.53998, 37.27662 ], [ -109.59079, 37.25998 ], [ -109.62105, 37.25489 ], [ -109.6189, 37.24036 ], [ -109.66437, 37.23539 ], [ -109.67243, 37.22357 ], [ -109.71304, 37.21018 ], [ -109.7255, 37.19109 ], [ -109.74778, 37.21517 ], [ -109.77099, 37.18991 ], [ -109.76598, 37.1818 ], [ -109.8062, 37.19016 ], [ -109.83354, 37.17964 ], [ -109.85189, 37.19452 ], [ -109.85307, 37.18307 ], [ -109.82956, 37.16525 ], [ -109.83792, 37.14891 ], [ -109.86014, 37.14451 ], [ -109.89605, 37.15921 ], [ -109.88596, 37.16459 ], [ -109.8951, 37.18192 ], [ -109.91418, 37.17674 ], [ -109.91896, 37.16026 ], [ -109.93501, 37.15408 ], [ -109.96395, 37.18215 ], [ -109.95898, 37.19157 ], [ -109.98049, 37.20841 ], [ -110.02107, 37.22598 ], [ -110.03578, 37.21855 ], [ -110.05001, 37.24673 ], [ -110.06295, 37.24022 ], [ -110.09287, 37.25753 ], [ -110.11444, 37.29025 ], [ -110.154, 37.30371 ], [ -110.14852, 37.31598 ], [ -110.20795, 37.31784 ], [ -110.23207, 37.29431 ], [ -110.26018, 37.29725 ], [ -110.29308, 37.28498 ], [ -110.31166, 37.30406 ], [ -110.34204, 37.29535 ], [ -110.35064, 37.28336 ], [ -110.40335, 37.29224 ], [ -110.41026, 37.28893 ], [ -110.41264, 37.25852 ], [ -110.42434, 37.24834 ], [ -110.45004, 37.25152 ], [ -110.45771, 37.26233 ], [ -110.47783, 37.25367 ], [ -110.50127, 37.25547 ], [ -110.51244, 37.23995 ], [ -110.51266, 37.20814 ], [ -110.52124, 37.21637 ], [ -110.55688, 37.21808 ], [ -110.56387, 37.20907 ], [ -110.60459, 37.20185 ], [ -110.6127, 37.21939 ], [ -110.65368, 37.24135 ], [ -110.65625, 37.2559 ], [ -110.67259, 37.25068 ], [ -110.70046, 37.26684 ], [ -110.70515, 37.24952 ], [ -110.6588, 37.23631 ], [ -110.64677, 37.19939 ], [ -110.65752, 37.18335 ], [ -110.67538, 37.17872 ], [ -110.67825, 37.16639 ], [ -110.72059, 37.18047 ], [ -110.75601, 37.16893 ], [ -110.78775, 37.16823 ], [ -110.82787, 37.15952 ], [ -110.83628, 37.17678 ], [ -110.84822, 37.16885 ], [ -110.87471, 37.16845 ], [ -110.91644, 37.17542 ], [ -110.93765, 37.14309 ], [ -110.93916, 37.12252 ], [ -110.97453, 37.11061 ], [ -111.01591, 37.11131 ], [ -111.06533, 37.09602 ], [ -111.11817, 37.10027 ], [ -111.10194, 37.08263 ], [ -111.12158, 37.08907 ], [ -111.13747, 37.07941 ], [ -111.14987, 37.08777 ], [ -111.15004, 37.07003 ], [ -111.16457, 37.09601 ], [ -111.19923, 37.06931 ], [ -111.18723, 37.07027 ], [ -111.20793, 37.03881 ], [ -111.16465, 37.01891 ], [ -111.21728, 37.03819 ], [ -111.23012, 37.01784 ], [ -111.25004, 37.01973 ], [ -111.24621, 37.00613 ], [ -111.22614, 36.99206 ], [ -111.26732, 37.00418 ], [ -111.26596, 37.03025 ], [ -111.28212, 37.03473 ], [ -111.3036, 37.01035 ], [ -111.29749, 36.99854 ], [ -111.31577, 37.00028 ], [ -111.32556, 37.01318 ], [ -111.37131, 36.99981 ], [ -111.40612, 37.00149 ], [ -111.39355, 36.98148 ], [ -111.36951, 36.98118 ], [ -111.35716, 36.96269 ], [ -111.33261, 36.95704 ], [ -111.31324, 36.93773 ], [ -111.30313, 36.90985 ], [ -111.32224, 36.92684 ], [ -111.3295, 36.9501 ], [ -111.35982, 36.96025 ], [ -111.37436, 36.97984 ], [ -111.385, 36.96036 ], [ -111.41254, 36.9523 ], [ -111.44317, 36.96428 ], [ -111.42096, 36.92692 ], [ -111.42505, 36.87438 ], [ -111.56426, 36.87466 ], [ -111.54332, 36.84964 ], [ -111.56924, 36.84293 ], [ -111.58447, 36.86534 ], [ -111.61619, 36.84887 ], [ -111.61791, 36.83468 ], [ -111.64329, 36.80366 ], [ -111.6478, 36.78115 ], [ -111.6648, 36.75567 ], [ -111.69337, 36.73964 ], [ -111.70788, 36.72064 ], [ -111.71186, 36.69948 ], [ -111.73933, 36.68087 ], [ -111.74486, 36.65581 ], [ -111.76068, 36.64821 ], [ -111.7576, 36.61652 ], [ -111.76591, 36.60119 ], [ -111.80492, 36.57309 ], [ -111.82649, 36.53781 ], [ -111.84598, 36.521 ], [ -111.85844, 36.49906 ], [ -111.8405, 36.49239 ], [ -111.84771, 36.48108 ], [ -111.83567, 36.45438 ], [ -111.85255, 36.43497 ], [ -111.87023, 36.431 ], [ -111.86835, 36.41444 ], [ -111.88342, 36.40054 ], [ -111.85344, 36.38522 ], [ -111.89219, 36.3712 ], [ -111.86063, 36.33693 ], [ -111.86467, 36.31115 ], [ -111.8582, 36.29619 ], [ -111.82467, 36.25972 ], [ -111.82385, 36.23793 ], [ -111.79966, 36.20157 ], [ -111.7838, 36.18978 ], [ -111.76282, 36.19851 ], [ -111.76041, 36.00731 ], [ -111.74458, 36.00718 ], [ -111.7451, 35.99195 ], [ -111.72625, 35.99201 ], [ -111.71726, 35.97748 ], [ -111.7174, 35.94844 ], [ -111.72634, 35.94857 ], [ -111.72622, 35.84702 ], [ -111.71117, 35.84714 ], [ -111.70921, 35.82532 ], [ -111.69354, 35.82519 ], [ -111.69319, 35.74613 ], [ -111.74663, 35.74625 ], [ -111.74649, 35.67207 ], [ -111.66623, 35.67541 ], [ -111.63413, 35.67416 ], [ -111.63418, 35.64344 ], [ -111.55458, 35.64094 ], [ -111.55434, 35.69886 ], [ -111.53682, 35.69879 ], [ -111.53689, 35.72821 ], [ -111.51923, 35.72817 ], [ -111.51947, 35.74273 ], [ -111.50166, 35.7574 ], [ -111.32052, 35.75709 ], [ -111.32203, 35.73423 ], [ -111.30524, 35.70539 ], [ -111.32422, 35.69937 ], [ -111.32271, 35.67136 ], [ -111.32996, 35.65235 ], [ -111.31469, 35.63584 ], [ -111.31841, 35.62061 ], [ -111.3065, 35.60514 ], [ -111.30411, 35.585 ], [ -111.28236, 35.57807 ], [ -111.26676, 35.55672 ], [ -111.25677, 35.51478 ], [ -111.24289, 35.48875 ], [ -111.24321, 35.33904 ], [ -111.24188, 35.30125 ], [ -111.2434, 35.17846 ], [ -111.25505, 35.17112 ], [ -111.2436, 35.1563 ], [ -110.90801, 35.15635 ], [ -110.90788, 35.16941 ], [ -110.80188, 35.17012 ], [ -110.80181, 35.05775 ], [ -110.75068, 35.04278 ], [ -110.73779, 35.06075 ], [ -110.7246, 35.05337 ], [ -110.68053, 35.05345 ], [ -110.68049, 35.02432 ], [ -110.66333, 35.02423 ], [ -110.66235, 34.99501 ], [ -110.64006, 34.99508 ], [ -110.62642, 34.98067 ], [ -110.55543, 34.98084 ], [ -110.55534, 34.96612 ], [ -110.53766, 34.96621 ], [ -110.53753, 34.95159 ], [ -110.5019, 34.95159 ], [ -110.50182, 34.93696 ], [ -110.48396, 34.93698 ], [ -110.48408, 34.95159 ], [ -110.37713, 34.95201 ], [ -110.37791, 35.08299 ], [ -110.3758, 35.17009 ], [ -110.36787, 35.17056 ], [ -109.77754, 35.17076 ], [ -109.68608, 35.17011 ], [ -109.68577, 35.12801 ], [ -109.73427, 35.12818 ], [ -109.73639, 35.07557 ], [ -109.71973, 35.08046 ], [ -109.71511, 35.06719 ], [ -109.66004, 35.0666 ], [ -109.65185, 35.07993 ], [ -109.63223, 35.07966 ], [ -109.63012, 35.16892 ], [ -109.52416, 35.16763 ], [ -109.52426, 35.15355 ], [ -109.5067, 35.15129 ], [ -109.52484, 35.1395 ], [ -109.56279, 35.13965 ], [ -109.56257, 35.11227 ], [ -109.54533, 35.11906 ], [ -109.5267, 35.11093 ], [ -109.52649, 34.90448 ], [ -109.5084, 34.90454 ], [ -109.50418, 34.94896 ], [ -109.41651, 34.94904 ], [ -109.40012, 34.9778 ], [ -109.36293, 34.99116 ], [ -109.35388, 34.98531 ], [ -109.31422, 35.00044 ], [ -109.31434, 34.9079 ], [ -109.22655, 34.90747 ], [ -109.22636, 34.92206 ], [ -109.20992, 34.92209 ], [ -109.20998, 34.90727 ], [ -109.0461, 34.90497 ], [ -109.04601, 35.1901 ], [ -109.03594, 35.20638 ], [ -109.01803, 35.20637 ], [ -109.01809, 35.19005 ], [ -108.99995, 35.19051 ], [ -108.99998, 35.20635 ], [ -108.98242, 35.20631 ], [ -108.98242, 35.19104 ], [ -108.96478, 35.19092 ], [ -108.96478, 35.2075 ], [ -108.94666, 35.20745 ], [ -108.94676, 35.19119 ], [ -108.92878, 35.19906 ], [ -108.89209, 35.19153 ], [ -108.89186, 35.17658 ], [ -108.85743, 35.17676 ], [ -108.8573, 35.19117 ], [ -108.83939, 35.191 ], [ -108.83917, 35.17691 ], [ -108.80364, 35.18393 ], [ -108.80394, 35.16221 ], [ -108.78509, 35.16233 ], [ -108.78658, 35.20613 ], [ -108.76975, 35.20547 ], [ -108.76892, 35.21924 ], [ -108.6816, 35.21879 ], [ -108.68092, 35.27834 ], [ -108.69784, 35.29256 ], [ -108.68076, 35.2926 ], [ -108.68061, 35.30713 ], [ -108.70607, 35.30668 ], [ -108.70595, 35.32087 ], [ -108.67072, 35.32129 ], [ -108.67015, 35.30709 ], [ -108.63515, 35.30667 ], [ -108.63501, 35.32034 ], [ -108.61698, 35.32076 ], [ -108.61711, 35.30682 ], [ -108.59926, 35.30684 ], [ -108.59931, 35.32123 ], [ -108.58176, 35.32142 ], [ -108.58243, 35.33575 ], [ -108.59962, 35.33563 ], [ -108.5998, 35.34796 ], [ -108.63549, 35.34475 ], [ -108.68093, 35.35014 ], [ -108.68067, 35.36472 ], [ -108.64993, 35.36472 ], [ -108.62917, 35.39264 ], [ -108.62574, 35.53365 ], [ -108.60666, 35.53282 ], [ -108.51558, 35.50461 ], [ -108.4811, 35.49807 ], [ -108.44951, 35.50033 ], [ -108.44992, 35.53882 ], [ -108.42404, 35.53844 ], [ -108.4239, 35.52328 ], [ -108.40464, 35.52332 ], [ -108.40466, 35.50912 ], [ -108.38752, 35.50915 ], [ -108.38722, 35.52347 ], [ -108.37034, 35.52341 ], [ -108.37001, 35.48066 ], [ -108.35231, 35.48027 ], [ -108.35232, 35.45222 ], [ -108.31758, 35.45208 ], [ -108.31788, 35.43854 ], [ -108.2995, 35.43831 ], [ -108.29951, 35.42373 ], [ -108.24746, 35.42374 ], [ -108.24793, 35.40911 ], [ -108.14018, 35.40955 ], [ -108.13992, 35.4238 ], [ -108.15805, 35.42398 ], [ -108.15793, 35.43654 ], [ -108.14075, 35.43648 ], [ -108.14088, 35.45109 ], [ -108.15769, 35.45144 ], [ -108.15799, 35.46515 ], [ -108.13994, 35.4654 ], [ -108.1399, 35.47925 ], [ -108.12224, 35.4796 ], [ -108.1222, 35.46558 ], [ -108.10528, 35.46574 ], [ -108.10444, 35.47942 ], [ -108.01657, 35.47883 ], [ -108.01448, 35.53762 ], [ -107.9983, 35.53757 ], [ -107.99837, 35.50752 ], [ -107.94579, 35.50759 ], [ -107.94547, 35.5214 ], [ -107.90973, 35.52252 ], [ -107.90996, 35.54283 ], [ -107.89135, 35.54297 ], [ -107.89159, 35.56547 ], [ -107.94592, 35.56555 ], [ -107.9456, 35.57999 ], [ -107.92673, 35.58 ], [ -107.92702, 35.59404 ], [ -107.90919, 35.59402 ], [ -107.90919, 35.60834 ], [ -107.9272, 35.6082 ], [ -107.94569, 35.63796 ], [ -107.92802, 35.63792 ], [ -107.9274, 35.65303 ], [ -107.96315, 35.65285 ], [ -107.96314, 35.6383 ], [ -107.98066, 35.63838 ], [ -107.96779, 35.66699 ], [ -107.94945, 35.66691 ], [ -107.94966, 35.73954 ], [ -108.07434, 35.73997 ], [ -108.07437, 35.76884 ], [ -108.11075, 35.76893 ], [ -108.11101, 35.78328 ], [ -108.07457, 35.78362 ], [ -108.09249, 35.79055 ], [ -108.09218, 35.82691 ], [ -108.07481, 35.82687 ], [ -108.07475, 35.84131 ], [ -108.05559, 35.84136 ], [ -108.05543, 35.87108 ], [ -108.06486, 35.89144 ], [ -108.05577, 35.89978 ], [ -108.09158, 35.89833 ], [ -108.09287, 35.91438 ], [ -108.07513, 35.91413 ], [ -108.0749, 35.92885 ], [ -108.05654, 35.92903 ], [ -108.05634, 35.98739 ], [ -108.02195, 35.98779 ], [ -108.02207, 36.0023 ], [ -108.07569, 36.00253 ], [ -108.07549, 36.01727 ], [ -108.05778, 36.01692 ], [ -108.05804, 36.04603 ], [ -108.03995, 36.0461 ], [ -108.04007, 36.07578 ], [ -108.00196, 36.08182 ], [ -107.98563, 36.09614 ], [ -107.98525, 36.11044 ], [ -107.94854, 36.11012 ], [ -107.93005, 36.10284 ], [ -107.93007, 36.11834 ], [ -107.91257, 36.12454 ], [ -107.91282, 36.10285 ], [ -107.87694, 36.10988 ], [ -107.8769, 36.08155 ], [ -107.85919, 36.08841 ], [ -107.83159, 36.07973 ], [ -107.81248, 36.0552 ], [ -107.77227, 36.0767 ], [ -107.73143, 36.07988 ], [ -107.75026, 36.08886 ], [ -107.75007, 36.10371 ], [ -107.71382, 36.0961 ], [ -107.68645, 36.10302 ], [ -107.68676, 36.1321 ], [ -107.66105, 36.12518 ], [ -107.64279, 36.13294 ], [ -107.59832, 36.13244 ], [ -107.58935, 36.14666 ], [ -107.57138, 36.14661 ], [ -107.57219, 36.11079 ], [ -107.58107, 36.10338 ], [ -107.54487, 36.10336 ], [ -107.5455, 36.04425 ], [ -107.52848, 36.03696 ], [ -107.5287, 36.0214 ], [ -107.58149, 36.02241 ], [ -107.58991, 36.03726 ], [ -107.61747, 36.03764 ], [ -107.62637, 36.03041 ], [ -107.62662, 35.95632 ], [ -107.64555, 35.95649 ], [ -107.64471, 36.00038 ], [ -107.68132, 35.98588 ], [ -107.68146, 36.00059 ], [ -107.69983, 36.00073 ], [ -107.69989, 35.95685 ], [ -107.68116, 35.95687 ], [ -107.68159, 35.93596 ], [ -107.6631, 35.92859 ], [ -107.7004, 35.92864 ], [ -107.70049, 35.91318 ], [ -107.67265, 35.91396 ], [ -107.66354, 35.90016 ], [ -107.68286, 35.90024 ], [ -107.68284, 35.88574 ], [ -107.73599, 35.88585 ], [ -107.73601, 35.90002 ], [ -107.78843, 35.90062 ], [ -107.78823, 35.88561 ], [ -107.77038, 35.87128 ], [ -107.78797, 35.87167 ], [ -107.78935, 35.79649 ], [ -107.77139, 35.79693 ], [ -107.77169, 35.78284 ], [ -107.78886, 35.78287 ], [ -107.78881, 35.76814 ], [ -107.77212, 35.76796 ], [ -107.77203, 35.754 ], [ -107.75211, 35.75364 ], [ -107.75204, 35.76787 ], [ -107.73492, 35.76777 ], [ -107.73481, 35.78278 ], [ -107.75206, 35.78279 ], [ -107.75273, 35.79699 ], [ -107.66392, 35.79702 ], [ -107.66391, 35.81221 ], [ -107.64527, 35.8121 ], [ -107.64658, 35.79745 ], [ -107.62738, 35.79756 ], [ -107.62748, 35.78393 ], [ -107.53919, 35.78321 ], [ -107.53942, 35.79074 ], [ -107.4698, 35.79045 ], [ -107.46998, 35.77541 ], [ -107.48674, 35.77539 ], [ -107.48673, 35.76827 ], [ -107.45085, 35.76836 ], [ -107.451, 35.75506 ], [ -107.42431, 35.75514 ], [ -107.43284, 35.76875 ], [ -107.44996, 35.76885 ], [ -107.45039, 35.78272 ], [ -107.43295, 35.79025 ], [ -107.39947, 35.79125 ], [ -107.38988, 35.80438 ], [ -107.36249, 35.80461 ], [ -107.36259, 35.79678 ], [ -107.3086, 35.79619 ], [ -107.30861, 35.78408 ], [ -107.2735, 35.7476 ], [ -107.29125, 35.74774 ], [ -107.29138, 35.73305 ], [ -107.26493, 35.74044 ], [ -107.26481, 35.7547 ], [ -107.23791, 35.74718 ], [ -107.23752, 35.72579 ], [ -107.25528, 35.73176 ], [ -107.25486, 35.69693 ], [ -107.23733, 35.69693 ], [ -107.2375, 35.71862 ], [ -107.22019, 35.72581 ], [ -107.22935, 35.74026 ], [ -107.21212, 35.74039 ], [ -107.21223, 35.75457 ], [ -107.18404, 35.75507 ], [ -107.17475, 35.77642 ], [ -107.15754, 35.7765 ], [ -107.16604, 35.79847 ], [ -107.14765, 35.79863 ], [ -107.14812, 35.81274 ], [ -107.18418, 35.8198 ], [ -107.18453, 35.89632 ], [ -107.21101, 35.90646 ], [ -107.20249, 35.885 ], [ -107.30861, 35.88539 ], [ -107.30863, 35.91275 ], [ -107.29055, 35.92116 ], [ -107.2554, 35.91985 ], [ -107.25559, 35.94182 ], [ -107.23757, 35.94162 ], [ -107.22862, 35.95577 ], [ -107.23771, 35.97732 ], [ -107.28222, 35.97712 ], [ -107.29076, 35.98291 ], [ -107.29899, 36.01295 ], [ -107.31532, 35.9986 ], [ -107.34499, 35.99881 ], [ -107.39523, 36.01322 ], [ -107.38657, 36.05033 ], [ -107.41282, 36.0715 ], [ -107.41263, 36.10135 ], [ -107.4305, 36.12399 ], [ -107.42148, 36.13131 ], [ -107.45661, 36.13849 ], [ -107.45649, 36.16073 ], [ -107.47403, 36.16005 ], [ -107.50987, 36.17536 ], [ -107.53812, 36.17521 ], [ -107.53574, 36.19009 ], [ -107.55371, 36.18227 ], [ -107.5538, 36.16848 ], [ -107.5981, 36.16859 ], [ -107.62456, 36.16149 ], [ -107.62432, 36.19812 ], [ -107.63316, 36.20528 ], [ -107.67796, 36.20518 ], [ -107.67845, 36.21991 ], [ -107.69566, 36.21984 ], [ -107.70421, 36.23433 ], [ -107.7043, 36.25833 ], [ -107.64244, 36.25633 ], [ -107.58872, 36.23496 ], [ -107.58865, 36.24918 ], [ -107.60698, 36.24924 ], [ -107.6151, 36.26406 ], [ -107.64236, 36.25633 ], [ -107.6424, 36.28474 ], [ -107.68677, 36.29998 ], [ -107.7142, 36.29934 ], [ -107.72182, 36.32842 ], [ -107.74969, 36.32113 ], [ -107.75866, 36.33554 ], [ -107.73152, 36.33561 ], [ -107.76764, 36.35041 ], [ -107.76785, 36.36469 ], [ -107.75002, 36.37267 ], [ -107.74986, 36.38666 ] ], [ [ -111.51947, 35.74273 ], [ -111.53661, 35.75253 ], [ -111.51957, 35.75746 ], [ -111.51947, 35.74273 ] ], [ [ -110.31306, 36.43056 ], [ -110.30797, 36.42048 ], [ -110.33215, 36.37495 ], [ -110.3605, 36.36058 ], [ -110.37693, 36.33289 ], [ -110.38369, 36.29908 ], [ -110.41457, 36.28592 ], [ -110.42861, 36.24999 ], [ -110.43131, 36.20552 ], [ -110.44432, 36.16386 ], [ -110.46985, 36.13424 ], [ -110.49864, 36.15689 ], [ -110.51883, 36.15649 ], [ -110.56923, 36.14259 ], [ -110.61661, 36.09958 ], [ -110.61673, 36.04144 ], [ -110.54535, 36.04147 ], [ -110.5454, 36.01386 ], [ -110.5006, 36.01574 ], [ -110.50068, 36.07051 ], [ -110.47031, 36.07024 ], [ -110.46497, 36.09936 ], [ -110.42502, 36.09915 ], [ -110.42545, 36.06993 ], [ -110.40303, 36.07054 ], [ -110.40283, 36.04307 ], [ -110.29347, 36.0433 ], [ -110.28625, 36.03488 ], [ -110.2987, 36.0142 ], [ -110.31757, 36.0 ], [ -110.25075, 35.99962 ], [ -110.16056, 35.96521 ], [ -110.14059, 35.99116 ], [ -110.12413, 35.99373 ], [ -110.12462, 35.92712 ], [ -110.11908, 35.91178 ], [ -110.07561, 35.9133 ], [ -110.08584, 35.92759 ], [ -110.0642, 35.9313 ], [ -110.04655, 35.91109 ], [ -110.04212, 35.92362 ], [ -110.01994, 35.92511 ], [ -110.02516, 35.90881 ], [ -110.05441, 35.86622 ], [ -110.05482, 35.84377 ], [ -110.00066, 35.84426 ], [ -110.00067, 35.64836 ], [ -110.14641, 35.64903 ], [ -110.14701, 35.60539 ], [ -110.12409, 35.60537 ], [ -110.12488, 35.57771 ], [ -110.18246, 35.57913 ], [ -110.18297, 35.59064 ], [ -110.27789, 35.59031 ], [ -110.27772, 35.53955 ], [ -110.25067, 35.53327 ], [ -110.25053, 35.51865 ], [ -110.72306, 35.51988 ], [ -110.72305, 35.5 ], [ -110.88621, 35.50009 ], [ -110.83872, 35.54838 ], [ -110.80335, 35.54861 ], [ -110.80354, 35.5784 ], [ -110.83916, 35.57817 ], [ -110.83909, 35.56287 ], [ -110.85607, 35.56285 ], [ -110.85598, 35.54858 ], [ -111.0007, 35.54888 ], [ -111.00102, 35.99084 ], [ -111.00703, 36.00689 ], [ -111.00076, 36.03489 ], [ -111.00068, 36.25218 ], [ -110.9989, 36.28036 ], [ -110.95302, 36.28159 ], [ -110.94084, 36.30197 ], [ -110.92318, 36.30297 ], [ -110.91876, 36.28124 ], [ -110.87567, 36.27782 ], [ -110.87429, 36.31002 ], [ -110.85528, 36.32626 ], [ -110.86134, 36.33351 ], [ -110.83287, 36.35708 ], [ -110.85203, 36.36588 ], [ -110.8335, 36.38461 ], [ -110.75068, 36.40994 ], [ -110.74265, 36.39344 ], [ -110.72196, 36.39348 ], [ -110.72173, 36.37573 ], [ -110.57728, 36.37499 ], [ -110.55292, 36.3965 ], [ -110.52052, 36.40327 ], [ -110.50289, 36.38813 ], [ -110.45635, 36.4141 ], [ -110.4165, 36.4 ], [ -110.38871, 36.40524 ], [ -110.36486, 36.42427 ], [ -110.31306, 36.43056 ] ], [ [ -111.139, 35.96554 ], [ -111.24774, 35.96542 ], [ -111.2498, 36.00906 ], [ -111.27309, 36.03273 ], [ -111.27867, 36.05006 ], [ -111.29522, 36.05266 ], [ -111.29418, 36.07711 ], [ -111.27037, 36.1016 ], [ -111.23418, 36.10349 ], [ -111.22472, 36.12127 ], [ -111.15766, 36.12309 ], [ -111.15768, 36.10849 ], [ -111.12668, 36.11566 ], [ -111.12123, 36.12657 ], [ -111.08271, 36.14454 ], [ -111.08253, 36.05707 ], [ -111.11513, 36.02574 ], [ -111.139, 36.02327 ], [ -111.139, 35.96554 ] ] ], [ [ [ -109.8415, 37.16062 ], [ -109.84682, 37.15682 ], [ -109.84157, 37.15678 ], [ -109.8415, 37.16062 ] ] ], [ [ [ -108.2738, 34.94559 ], [ -108.25641, 34.94536 ], [ -108.25637, 34.95929 ], [ -108.27357, 34.95979 ], [ -108.2738, 34.94559 ] ] ], [ [ [ -108.08329, 35.26269 ], [ -108.06506, 35.26268 ], [ -108.08332, 35.27015 ], [ -108.08329, 35.26269 ] ] ], [ [ [ -108.1001, 35.29169 ], [ -108.11783, 35.27788 ], [ -108.10017, 35.2777 ], [ -108.1001, 35.29169 ] ] ], [ [ [ -108.1001, 35.29169 ], [ -108.08336, 35.29165 ], [ -108.07393, 35.27725 ], [ -108.06536, 35.29161 ], [ -108.04732, 35.29153 ], [ -108.04746, 35.3058 ], [ -108.07016, 35.30606 ], [ -108.07009, 35.3217 ], [ -108.05258, 35.32175 ], [ -108.05234, 35.33462 ], [ -108.07015, 35.33457 ], [ -108.06956, 35.34922 ], [ -108.12381, 35.35021 ], [ -108.12375, 35.33563 ], [ -108.10459, 35.33506 ], [ -108.10517, 35.32136 ], [ -108.12368, 35.32159 ], [ -108.12353, 35.30617 ], [ -108.0995, 35.30603 ], [ -108.1001, 35.29169 ] ] ], [ [ [ -108.06956, 35.34922 ], [ -108.05223, 35.3491 ], [ -108.05214, 35.35699 ], [ -108.06956, 35.34922 ] ] ], [ [ [ -107.89595, 35.39211 ], [ -107.96526, 35.39166 ], [ -107.96535, 35.37702 ], [ -108.00033, 35.37701 ], [ -108.00037, 35.36249 ], [ -107.98278, 35.36251 ], [ -107.98288, 35.34791 ], [ -107.95773, 35.3545 ], [ -107.94798, 35.3269 ], [ -107.91352, 35.33398 ], [ -107.91331, 35.31949 ], [ -107.89171, 35.31975 ], [ -107.89267, 35.34129 ], [ -107.86569, 35.34809 ], [ -107.8778, 35.3768 ], [ -107.89645, 35.37676 ], [ -107.89595, 35.39211 ] ] ], [ [ [ -108.13896, 35.36285 ], [ -108.15739, 35.36285 ], [ -108.15739, 35.35053 ], [ -108.13911, 35.3505 ], [ -108.13896, 35.36285 ] ] ], [ [ [ -108.07036, 35.36411 ], [ -108.05265, 35.36413 ], [ -108.07037, 35.37199 ], [ -108.07036, 35.36411 ] ] ], [ [ [ -108.0879, 35.37847 ], [ -108.12409, 35.38653 ], [ -108.12427, 35.3631 ], [ -108.08796, 35.36322 ], [ -108.0879, 35.37847 ] ] ], [ [ [ -108.14007, 35.37974 ], [ -108.13938, 35.39554 ], [ -108.1579, 35.39554 ], [ -108.15731, 35.37981 ], [ -108.14007, 35.37974 ] ] ], [ [ [ -108.00002, 35.39117 ], [ -107.98211, 35.38817 ], [ -107.98231, 35.40602 ], [ -108.00015, 35.40588 ], [ -108.00002, 35.39117 ] ] ], [ [ [ -107.89611, 35.40587 ], [ -107.89595, 35.39211 ], [ -107.8782, 35.39229 ], [ -107.87784, 35.40611 ], [ -107.89611, 35.40587 ] ] ], [ [ [ -107.89611, 35.40587 ], [ -107.89628, 35.4198 ], [ -107.91342, 35.41979 ], [ -107.91345, 35.40613 ], [ -107.89611, 35.40587 ] ] ], [ [ [ -107.94837, 35.41353 ], [ -107.93156, 35.40589 ], [ -107.93107, 35.41993 ], [ -107.94837, 35.41353 ] ] ], [ [ [ -108.13992, 35.4238 ], [ -108.12235, 35.42384 ], [ -108.12255, 35.43055 ], [ -108.13992, 35.4238 ] ] ], [ [ [ -107.93048, 35.4269 ], [ -107.91338, 35.43432 ], [ -107.93047, 35.43441 ], [ -107.93048, 35.4269 ] ] ], [ [ [ -107.99071, 35.43622 ], [ -108.00058, 35.4281 ], [ -107.99037, 35.42804 ], [ -107.99071, 35.43622 ] ] ], [ [ [ -108.14088, 35.45109 ], [ -108.13137, 35.45121 ], [ -108.14113, 35.4581 ], [ -108.14088, 35.45109 ] ] ], [ [ [ -107.91229, 35.46351 ], [ -107.93053, 35.44892 ], [ -107.91221, 35.4493 ], [ -107.91229, 35.46351 ] ] ], [ [ [ -107.89457, 35.46358 ], [ -107.8946, 35.4565 ], [ -107.88527, 35.45654 ], [ -107.89457, 35.46358 ] ] ], [ [ [ -107.91229, 35.46351 ], [ -107.89457, 35.46358 ], [ -107.90732, 35.47856 ], [ -107.91229, 35.46351 ] ] ], [ [ [ -107.91063, 35.49348 ], [ -107.9469, 35.50088 ], [ -107.94692, 35.47838 ], [ -107.91045, 35.47822 ], [ -107.91063, 35.49348 ] ] ], [ [ [ -107.87461, 35.50758 ], [ -107.87487, 35.49954 ], [ -107.86531, 35.49964 ], [ -107.87461, 35.50758 ] ] ], [ [ [ -107.87461, 35.50758 ], [ -107.86588, 35.52909 ], [ -107.88268, 35.53626 ], [ -107.88281, 35.52251 ], [ -107.90973, 35.52252 ], [ -107.90992, 35.50721 ], [ -107.87461, 35.50758 ] ] ], [ [ [ -107.92802, 35.63792 ], [ -107.928, 35.62279 ], [ -107.90935, 35.62278 ], [ -107.90951, 35.63761 ], [ -107.92802, 35.63792 ] ] ], [ [ [ -107.9315, 35.78357 ], [ -107.93181, 35.7689 ], [ -107.91382, 35.76866 ], [ -107.91359, 35.7835 ], [ -107.9315, 35.78357 ] ] ], [ [ [ -107.94861, 35.78327 ], [ -107.93064, 35.79039 ], [ -107.94847, 35.79803 ], [ -107.94861, 35.78327 ] ] ], [ [ [ -108.01379, 36.00227 ], [ -108.01379, 35.99452 ], [ -108.00366, 35.99454 ], [ -108.01379, 36.00227 ] ] ], [ [ [ -107.8952, 36.01612 ], [ -107.89517, 36.00899 ], [ -107.88179, 36.00914 ], [ -107.8952, 36.01612 ] ] ], [ [ [ -107.9384, 36.43023 ], [ -107.9292, 36.4377 ], [ -107.93851, 36.43784 ], [ -107.9384, 36.43023 ] ] ], [ [ [ -107.94652, 36.47345 ], [ -107.95497, 36.48019 ], [ -107.95492, 36.47332 ], [ -107.94652, 36.47345 ] ] ], [ [ [ -107.96422, 36.48807 ], [ -107.95529, 36.48811 ], [ -107.95553, 36.49513 ], [ -107.96422, 36.48807 ] ] ], [ [ [ -108.21369, 36.69007 ], [ -108.20873, 36.69006 ], [ -108.2087, 36.69486 ], [ -108.21369, 36.69007 ] ] ], [ [ [ -108.23387, 36.7075 ], [ -108.24329, 36.71149 ], [ -108.24351, 36.70751 ], [ -108.23387, 36.7075 ] ] ], [ [ [ -107.57238, 34.39085 ], [ -107.56404, 34.37624 ], [ -107.56369, 34.39091 ], [ -107.57238, 34.39085 ] ] ], [ [ [ -107.55014, 34.43415 ], [ -107.5576, 34.44896 ], [ -107.56784, 34.43445 ], [ -107.55014, 34.43415 ] ] ], [ [ [ -107.58549, 34.46349 ], [ -107.57503, 34.44713 ], [ -107.56759, 34.46346 ], [ -107.58549, 34.46349 ] ] ], [ [ [ -107.62033, 34.44934 ], [ -107.60294, 34.46386 ], [ -107.62025, 34.46376 ], [ -107.62033, 34.44934 ] ] ], [ [ [ -107.60296, 34.50713 ], [ -107.60301, 34.49265 ], [ -107.59479, 34.50688 ], [ -107.60296, 34.50713 ] ] ], [ [ [ -107.56796, 34.52154 ], [ -107.58542, 34.52152 ], [ -107.56803, 34.50688 ], [ -107.56796, 34.52154 ] ] ], [ [ [ -107.56794, 34.53623 ], [ -107.56795, 34.55061 ], [ -107.58541, 34.55077 ], [ -107.58551, 34.5361 ], [ -107.56794, 34.53623 ] ] ], [ [ [ -107.85899, 35.33368 ], [ -107.87555, 35.33371 ], [ -107.87535, 35.31972 ], [ -107.8587, 35.31973 ], [ -107.85899, 35.33368 ] ] ], [ [ [ -107.84052, 35.37762 ], [ -107.85783, 35.37731 ], [ -107.85807, 35.36291 ], [ -107.84052, 35.37762 ] ] ], [ [ [ -107.84052, 35.37762 ], [ -107.82227, 35.37742 ], [ -107.82257, 35.39182 ], [ -107.84039, 35.39163 ], [ -107.84052, 35.37762 ] ] ], [ [ [ -107.86531, 35.49964 ], [ -107.85693, 35.49317 ], [ -107.85691, 35.49971 ], [ -107.86531, 35.49964 ] ] ], [ [ [ -107.8615, 35.5076 ], [ -107.86425, 35.50753 ], [ -107.86322, 35.50715 ], [ -107.8615, 35.5076 ] ] ], [ [ [ -107.86588, 35.52909 ], [ -107.85701, 35.5215 ], [ -107.85712, 35.52916 ], [ -107.86588, 35.52909 ] ] ], [ [ [ -107.79605, 35.64579 ], [ -107.79588, 35.63788 ], [ -107.78693, 35.64574 ], [ -107.79605, 35.64579 ] ] ], [ [ [ -107.64706, 35.66746 ], [ -107.66418, 35.67428 ], [ -107.66418, 35.66746 ], [ -107.64706, 35.66746 ] ] ], [ [ [ -107.6818, 35.69652 ], [ -107.70812, 35.69642 ], [ -107.70015, 35.72553 ], [ -107.71795, 35.72504 ], [ -107.71822, 35.71121 ], [ -107.73521, 35.7107 ], [ -107.73628, 35.6518 ], [ -107.70118, 35.65184 ], [ -107.70137, 35.66701 ], [ -107.71739, 35.66691 ], [ -107.71796, 35.68198 ], [ -107.6818, 35.69652 ] ] ], [ [ [ -107.6818, 35.69652 ], [ -107.66416, 35.69651 ], [ -107.66414, 35.70992 ], [ -107.68178, 35.70994 ], [ -107.6818, 35.69652 ] ] ], [ [ [ -107.64684, 35.70992 ], [ -107.64684, 35.69666 ], [ -107.6293, 35.69666 ], [ -107.6293, 35.70992 ], [ -107.64684, 35.70992 ] ] ], [ [ [ -107.66414, 35.70992 ], [ -107.64684, 35.70992 ], [ -107.64684, 35.72534 ], [ -107.66414, 35.72534 ], [ -107.66414, 35.70992 ] ] ], [ [ [ -107.66408, 35.73326 ], [ -107.67395, 35.73998 ], [ -107.67395, 35.73326 ], [ -107.66408, 35.73326 ] ] ], [ [ [ -107.77203, 35.754 ], [ -107.78005, 35.75413 ], [ -107.78016, 35.7467 ], [ -107.77203, 35.754 ] ] ], [ [ [ -107.82191, 35.98653 ], [ -107.82192, 35.97181 ], [ -107.80445, 35.97183 ], [ -107.8056, 35.98617 ], [ -107.82191, 35.98653 ] ] ], [ [ [ -107.8056, 35.98617 ], [ -107.78626, 35.98617 ], [ -107.78628, 36.00116 ], [ -107.8056, 36.00125 ], [ -107.8056, 35.98617 ] ] ], [ [ [ -107.82191, 35.98653 ], [ -107.82191, 36.00134 ], [ -107.83886, 36.00144 ], [ -107.83886, 35.98653 ], [ -107.82191, 35.98653 ] ] ], [ [ [ -107.66152, 36.03084 ], [ -107.68, 36.03787 ], [ -107.67954, 36.01525 ], [ -107.65307, 36.01537 ], [ -107.66152, 36.03084 ] ] ], [ [ [ -107.61685, 36.05194 ], [ -107.60795, 36.04456 ], [ -107.6076, 36.05187 ], [ -107.61685, 36.05194 ] ] ], [ [ [ -107.62627, 36.05911 ], [ -107.61682, 36.08843 ], [ -107.64358, 36.08832 ], [ -107.64398, 36.06653 ], [ -107.671, 36.06641 ], [ -107.68011, 36.04506 ], [ -107.644, 36.04554 ], [ -107.62627, 36.05911 ] ] ], [ [ [ -107.69674, 36.09592 ], [ -107.70516, 36.08894 ], [ -107.69664, 36.08888 ], [ -107.69674, 36.09592 ] ] ], [ [ [ -107.61573, 36.27175 ], [ -107.61182, 36.28613 ], [ -107.63351, 36.28477 ], [ -107.61573, 36.27175 ] ] ], [ [ [ -107.74986, 36.38666 ], [ -107.72265, 36.39355 ], [ -107.7229, 36.42939 ], [ -107.70525, 36.42948 ], [ -107.70498, 36.41485 ], [ -107.68654, 36.41492 ], [ -107.69673, 36.4371 ], [ -107.73186, 36.43716 ], [ -107.73182, 36.40814 ], [ -107.74961, 36.4084 ], [ -107.74986, 36.38666 ] ] ], [ [ [ -107.72308, 36.44431 ], [ -107.72315, 36.50943 ], [ -107.73212, 36.50959 ], [ -107.73239, 36.44411 ], [ -107.72308, 36.44431 ] ] ], [ [ [ -107.72555, 36.5121 ], [ -107.72577, 36.5121 ], [ -107.72562, 36.51195 ], [ -107.72555, 36.5121 ] ] ], [ [ [ -107.73049, 36.56782 ], [ -107.73077, 36.6392 ], [ -107.73954, 36.63935 ], [ -107.73988, 36.59698 ], [ -107.78509, 36.58945 ], [ -107.77639, 36.57491 ], [ -107.74903, 36.58198 ], [ -107.74952, 36.53868 ], [ -107.73174, 36.54649 ], [ -107.7319, 36.51665 ], [ -107.72284, 36.51661 ], [ -107.72247, 36.56762 ], [ -107.73049, 36.56782 ] ] ], [ [ [ -107.73096, 36.64725 ], [ -107.7392, 36.65409 ], [ -107.73962, 36.6471 ], [ -107.73096, 36.64725 ] ] ], [ [ [ -107.51537, 34.31846 ], [ -107.53298, 34.31832 ], [ -107.53293, 34.30383 ], [ -107.51514, 34.304 ], [ -107.51537, 34.31846 ] ] ], [ [ [ -107.51537, 34.31846 ], [ -107.49779, 34.31808 ], [ -107.49789, 34.30326 ], [ -107.43877, 34.30418 ], [ -107.43856, 34.31781 ], [ -107.41106, 34.31816 ], [ -107.41128, 34.36179 ], [ -107.39409, 34.36183 ], [ -107.39426, 34.40499 ], [ -107.37663, 34.40529 ], [ -107.39417, 34.41929 ], [ -107.39406, 34.43442 ], [ -107.42854, 34.43466 ], [ -107.42845, 34.44898 ], [ -107.41112, 34.44901 ], [ -107.411, 34.49225 ], [ -107.4632, 34.49078 ], [ -107.46308, 34.47792 ], [ -107.4805, 34.47723 ], [ -107.48069, 34.49203 ], [ -107.49845, 34.49232 ], [ -107.49834, 34.50704 ], [ -107.51549, 34.50716 ], [ -107.51564, 34.52165 ], [ -107.53277, 34.52165 ], [ -107.53779, 34.47789 ], [ -107.56304, 34.47792 ], [ -107.55035, 34.44875 ], [ -107.5329, 34.44882 ], [ -107.53279, 34.43489 ], [ -107.51576, 34.43569 ], [ -107.51557, 34.41993 ], [ -107.53273, 34.42004 ], [ -107.53124, 34.40563 ], [ -107.55055, 34.40563 ], [ -107.55066, 34.39102 ], [ -107.53312, 34.39093 ], [ -107.53305, 34.37648 ], [ -107.51554, 34.3768 ], [ -107.51561, 34.34732 ], [ -107.5329, 34.34738 ], [ -107.53308, 34.33261 ], [ -107.51555, 34.33287 ], [ -107.51537, 34.31846 ] ] ], [ [ [ -107.56794, 34.53623 ], [ -107.56796, 34.52154 ], [ -107.55887, 34.53624 ], [ -107.56794, 34.53623 ] ] ], [ [ [ -106.97242, 35.02963 ], [ -106.97299, 35.05824 ], [ -106.9515, 35.05844 ], [ -106.94299, 35.10331 ], [ -106.95624, 35.13091 ], [ -107.00094, 35.1316 ], [ -107.00129, 35.15602 ], [ -107.03939, 35.15605 ], [ -107.03958, 35.18955 ], [ -107.12809, 35.18922 ], [ -107.12155, 35.20223 ], [ -107.1317, 35.21299 ], [ -107.13255, 35.2338 ], [ -107.16461, 35.24195 ], [ -107.16396, 35.21942 ], [ -107.18428, 35.19374 ], [ -107.18449, 35.1548 ], [ -107.19409, 35.14397 ], [ -107.16359, 35.13219 ], [ -107.16369, 35.10888 ], [ -107.17941, 35.09552 ], [ -107.20335, 35.08886 ], [ -107.20372, 35.02669 ], [ -107.18604, 35.0403 ], [ -107.16286, 35.02032 ], [ -107.15993, 35.04371 ], [ -107.09714, 35.04506 ], [ -107.09688, 35.05841 ], [ -106.99202, 35.05918 ], [ -106.99179, 35.03002 ], [ -106.97242, 35.02963 ] ] ], [ [ [ -107.29056, 35.675 ], [ -107.3084, 35.67491 ], [ -107.3084, 35.66042 ], [ -107.2907, 35.66029 ], [ -107.29056, 35.675 ] ] ], [ [ [ -107.34434, 35.66882 ], [ -107.33511, 35.68952 ], [ -107.34438, 35.68955 ], [ -107.34434, 35.66882 ] ] ], [ [ [ -107.29056, 35.675 ], [ -107.27318, 35.67509 ], [ -107.27312, 35.70433 ], [ -107.29938, 35.70441 ], [ -107.29056, 35.675 ] ] ], [ [ [ -107.46906, 35.70445 ], [ -107.48693, 35.68352 ], [ -107.48731, 35.72632 ], [ -107.50544, 35.72659 ], [ -107.50513, 35.71195 ], [ -107.52333, 35.71203 ], [ -107.52322, 35.67541 ], [ -107.50452, 35.68289 ], [ -107.50452, 35.66793 ], [ -107.52367, 35.6606 ], [ -107.43296, 35.66035 ], [ -107.43295, 35.68349 ], [ -107.45087, 35.6835 ], [ -107.45081, 35.69641 ], [ -107.43283, 35.68979 ], [ -107.43297, 35.70439 ], [ -107.45063, 35.70461 ], [ -107.4409, 35.7257 ], [ -107.46929, 35.72604 ], [ -107.46906, 35.70445 ] ] ], [ [ [ -107.30841, 35.68283 ], [ -107.3176, 35.69715 ], [ -107.32666, 35.68286 ], [ -107.30841, 35.68283 ] ] ], [ [ [ -107.18847, 35.69693 ], [ -107.1888, 35.71175 ], [ -107.21093, 35.71141 ], [ -107.20202, 35.69665 ], [ -107.18847, 35.69693 ] ] ], [ [ [ -107.29976, 35.71916 ], [ -107.29081, 35.71155 ], [ -107.29083, 35.71924 ], [ -107.29976, 35.71916 ] ] ], [ [ [ -107.40673, 35.73254 ], [ -107.41611, 35.73255 ], [ -107.41611, 35.72447 ], [ -107.40673, 35.73254 ] ] ], [ [ [ -107.30869, 35.73999 ], [ -107.32606, 35.74745 ], [ -107.36308, 35.74742 ], [ -107.37132, 35.72613 ], [ -107.35045, 35.72635 ], [ -107.36202, 35.74047 ], [ -107.32692, 35.72608 ], [ -107.32776, 35.71184 ], [ -107.30861, 35.72598 ], [ -107.30869, 35.73999 ] ] ], [ [ [ -107.40673, 35.73254 ], [ -107.39774, 35.73265 ], [ -107.40671, 35.7389 ], [ -107.40673, 35.73254 ] ] ], [ [ [ -107.54002, 35.76881 ], [ -107.53063, 35.76878 ], [ -107.53064, 35.7768 ], [ -107.54002, 35.76881 ] ] ], [ [ [ -107.50447, 35.7827 ], [ -107.51416, 35.7827 ], [ -107.51416, 35.77572 ], [ -107.50447, 35.7827 ] ] ], [ [ [ -107.48674, 35.77539 ], [ -107.48657, 35.78326 ], [ -107.49602, 35.78341 ], [ -107.48674, 35.77539 ] ] ], [ [ [ -107.37056, 35.77544 ], [ -107.38025, 35.78344 ], [ -107.38037, 35.77543 ], [ -107.37056, 35.77544 ] ] ], [ [ [ -107.3442, 35.79066 ], [ -107.35391, 35.79081 ], [ -107.35399, 35.77531 ], [ -107.3442, 35.79066 ] ] ], [ [ [ -107.16662, 35.82654 ], [ -107.16648, 35.81966 ], [ -107.15795, 35.82644 ], [ -107.16662, 35.82654 ] ] ], [ [ [ -107.26438, 35.90586 ], [ -107.27299, 35.90583 ], [ -107.26476, 35.89911 ], [ -107.26438, 35.90586 ] ] ], [ [ [ -107.26438, 35.90586 ], [ -107.25541, 35.90578 ], [ -107.25522, 35.91291 ], [ -107.26438, 35.90586 ] ] ], [ [ [ -107.24609, 35.92731 ], [ -107.24635, 35.91902 ], [ -107.23785, 35.91926 ], [ -107.24609, 35.92731 ] ] ], [ [ [ -107.32456, 36.02021 ], [ -107.32444, 36.0275 ], [ -107.33332, 36.02034 ], [ -107.32456, 36.02021 ] ] ], [ [ [ -107.55456, 36.03666 ], [ -107.56317, 36.02946 ], [ -107.55437, 36.0294 ], [ -107.55456, 36.03666 ] ] ], [ [ [ -107.35967, 36.02909 ], [ -107.35967, 36.05731 ], [ -107.36832, 36.05737 ], [ -107.36816, 36.02917 ], [ -107.35967, 36.02909 ] ] ], [ [ [ -107.56294, 36.07362 ], [ -107.55389, 36.06449 ], [ -107.55398, 36.07372 ], [ -107.56294, 36.07362 ] ] ], [ [ [ -107.35056, 36.0782 ], [ -107.3237, 36.07105 ], [ -107.32346, 36.08517 ], [ -107.37722, 36.08518 ], [ -107.37727, 36.07123 ], [ -107.35056, 36.0782 ] ] ], [ [ [ -107.40438, 36.07872 ], [ -107.38679, 36.07858 ], [ -107.40414, 36.0857 ], [ -107.40438, 36.07872 ] ] ], [ [ [ -107.55402, 36.08841 ], [ -107.56303, 36.09575 ], [ -107.56301, 36.08834 ], [ -107.55402, 36.08841 ] ] ], [ [ [ -107.49284, 36.19651 ], [ -107.4763, 36.20763 ], [ -107.49285, 36.20766 ], [ -107.49284, 36.19651 ] ] ], [ [ [ -107.49862, 36.21177 ], [ -107.47588, 36.21761 ], [ -107.49861, 36.21798 ], [ -107.49862, 36.21177 ] ] ], [ [ [ -107.56131, 36.23423 ], [ -107.56903, 36.23423 ], [ -107.56131, 36.22745 ], [ -107.56131, 36.23423 ] ] ] ] } },
{ "type": "Feature", "properties": { "fid": 3, "ZoneCode": "001003", "AbrvFull": "KANC", "NameFull": "Kansas City", "ZoneNum": 3, "AbrvPart": "KANC", "NamePart": null, "ZoneType": "Special use", "StateAbrv": null, "StateName": null, "ProjAbrv": "LC1", "ProjType": "Lambert Conformal Conic, one parallel", "LatOrigin": "39°09'N", "LonOriginE": "265°15'E", "LonOriginW": "94°45'W", "Lat0_deg": 39.15, "Lon0_E_deg": 265.25, "Lon0_W_deg": -94.75, "ProjScale": 1.000031, "SkewAz_deg": -9999, "FalseN_m": 342900.0, "FalseE_m": 152400.0, "FalseN_ift": 1125000.0, "FalseE_ift": 500000.0, "DesignBy": "NGS", "Ref_frame": "NATRF2022" }, "geometry": { "type": "Polygon", "coordinates": [ [ [ -95.1014, 39.53325 ], [ -95.05054, 39.49751 ], [ -95.04466, 39.47125 ], [ -95.0334, 39.46087 ], [ -94.99016, 39.44619 ], [ -94.97153, 39.4188 ], [ -95.22696, 39.41903 ], [ -95.46004, 39.42091 ], [ -95.58928, 39.41908 ], [ -95.58946, 39.21607 ], [ -96.03556, 39.21651 ], [ -96.03589, 39.12978 ], [ -96.01699, 39.12032 ], [ -96.00378, 39.13199 ], [ -95.99128, 39.12723 ], [ -96.00898, 39.11581 ], [ -95.9726, 39.11156 ], [ -95.94674, 39.09868 ], [ -95.94658, 38.86997 ], [ -95.79749, 38.86891 ], [ -95.68716, 38.87005 ], [ -95.50071, 38.86981 ], [ -95.50073, 38.7388 ], [ -94.60907, 38.73809 ], [ -94.60802, 38.8472 ], [ -94.51011, 38.84246 ], [ -94.28758, 38.83508 ], [ -94.11871, 38.8333 ], [ -94.11362, 38.91696 ], [ -94.11018, 38.9176 ], [ -93.83631, 38.9087 ], [ -93.83471, 38.9379 ], [ -93.49779, 38.92829 ], [ -93.47722, 39.29279 ], [ -93.49201, 39.28293 ], [ -93.49621, 39.26488 ], [ -93.48788, 39.22887 ], [ -93.51605, 39.21528 ], [ -93.55953, 39.21879 ], [ -93.58494, 39.24042 ], [ -93.65052, 39.24821 ], [ -93.68159, 39.23123 ], [ -93.70012, 39.20968 ], [ -93.75845, 39.20701 ], [ -93.75909, 39.52426 ], [ -93.80855, 39.52567 ], [ -94.00327, 39.52456 ], [ -94.20841, 39.52719 ], [ -94.21063, 39.45468 ], [ -94.3242, 39.45562 ], [ -94.60081, 39.45615 ], [ -94.60121, 39.53016 ], [ -95.01085, 39.53322 ], [ -95.1014, 39.53325 ] ] ] } },
{ "type": "Feature", "properties": { "fid": 4, "ZoneCode": "002101", "AbrvFull": "GLA", "NameFull": "Gulf Louisiana Shelf", "ZoneNum": 1, "AbrvPart": "GLA", "NamePart": "Louisiana Shelf", "ZoneType": "Special use", "StateAbrv": null, "StateName": null, "ProjAbrv": "LC1", "ProjType": "Lambert Conformal Conic, one parallel", "LatOrigin": "30°00'N", "LonOriginE": "268°40'E", "LonOriginW": "91°20'W", "Lat0_deg": 30.0, "Lon0_E_deg": 268.66666666700002, "Lon0_W_deg": -91.333333333300004, "ProjScale": 0.9999165, "SkewAz_deg": -9999, "FalseN_m": 147761.325, "FalseE_m": 609610.287, "FalseN_ift": 484781.25, "FalseE_ift": 2000033.75, "DesignBy": "NGS", "Ref_frame": "NATRF2022" }, "geometry": { "type": "MultiPolygon", "coordinates": [ [ [ [ -93.81218, 29.59665 ], [ -93.81184, 29.59543 ], [ -93.76922, 29.44304 ], [ -93.77982, 29.44284 ], [ -93.64938, 28.87694 ], [ -93.52038, 28.31096 ], [ -93.41093, 27.82583 ], [ -93.26072, 27.82816 ], [ -93.26149, 27.86872 ], [ -93.1702, 27.87006 ], [ -93.17093, 27.91062 ], [ -92.98828, 27.91309 ], [ -92.98809, 27.90134 ], [ -92.89677, 27.90248 ], [ -92.89739, 27.94305 ], [ -92.61912, 27.94612 ], [ -92.61912, 27.95122 ], [ -92.42503, 27.95301 ], [ -92.4246, 27.91244 ], [ -92.33326, 27.91318 ], [ -92.33366, 27.95375 ], [ -92.19661, 27.95474 ], [ -92.19626, 27.91417 ], [ -92.1607, 27.9144 ], [ -92.1607, 27.92088 ], [ -91.85316, 27.92249 ], [ -91.7983, 27.9192 ], [ -91.79837, 27.93322 ], [ -91.70538, 27.93352 ], [ -91.70553, 27.97337 ], [ -91.65901, 27.9735 ], [ -91.65914, 28.01335 ], [ -91.61261, 28.01346 ], [ -91.61272, 28.05332 ], [ -91.56617, 28.05341 ], [ -91.56608, 28.01356 ], [ -91.47301, 28.01369 ], [ -91.47296, 27.97383 ], [ -91.37993, 27.9739 ], [ -91.37997, 28.05361 ], [ -91.33342, 28.05362 ], [ -91.33342, 28.01967 ], [ -91.23677, 28.01964 ], [ -91.2368, 27.98126 ], [ -91.04358, 27.98097 ], [ -91.04347, 28.01935 ], [ -90.89849, 28.01894 ], [ -90.89833, 28.05732 ], [ -90.51394, 28.05546 ], [ -90.51357, 28.10038 ], [ -90.43331, 28.09985 ], [ -90.43295, 28.14042 ], [ -90.38718, 28.14009 ], [ -90.3868, 28.18066 ], [ -90.24944, 28.17959 ], [ -90.24987, 28.13901 ], [ -90.2041, 28.13862 ], [ -90.20365, 28.17919 ], [ -90.13819, 28.17861 ], [ -90.13797, 28.19766 ], [ -90.09639, 28.19727 ], [ -90.09589, 28.23784 ], [ -90.00427, 28.23693 ], [ -90.00374, 28.2775 ], [ -89.95791, 28.27703 ], [ -89.95736, 28.3176 ], [ -89.93264, 28.31733 ], [ -89.91151, 28.3171 ], [ -89.91094, 28.35768 ], [ -89.93375, 28.35792 ], [ -89.95681, 28.35817 ], [ -89.95571, 28.43932 ], [ -90.00161, 28.4398 ], [ -89.99948, 28.6021 ], [ -90.09143, 28.60301 ], [ -90.09087, 28.64359 ], [ -90.04494, 28.64314 ], [ -90.04442, 28.68372 ], [ -89.94277, 28.68267 ], [ -89.86037, 28.68176 ], [ -89.86061, 28.66482 ], [ -89.72186, 28.66317 ], [ -89.72315, 28.58202 ], [ -89.58525, 28.58024 ], [ -89.58455, 28.62081 ], [ -89.4466, 28.61888 ], [ -89.44705, 28.59503 ], [ -89.36853, 28.59387 ], [ -89.36774, 28.63444 ], [ -89.32175, 28.63373 ], [ -89.32094, 28.67431 ], [ -89.27494, 28.67359 ], [ -89.27329, 28.75473 ], [ -89.22725, 28.75399 ], [ -89.22555, 28.83514 ], [ -89.04125, 28.83202 ], [ -89.0394, 28.91317 ], [ -88.99329, 28.91235 ], [ -88.99235, 28.95292 ], [ -88.94622, 28.95208 ], [ -88.94526, 28.99266 ], [ -88.89911, 28.9918 ], [ -88.89813, 29.03237 ], [ -88.8058, 29.03062 ], [ -88.80478, 29.07119 ], [ -88.71241, 29.06936 ], [ -88.71135, 29.10994 ], [ -88.61895, 29.10805 ], [ -88.61786, 29.14862 ], [ -88.57164, 29.14765 ], [ -88.57053, 29.18822 ], [ -88.47806, 29.18623 ], [ -88.4769, 29.2268 ], [ -88.21848, 29.22089 ], [ -88.21687, 29.27273 ], [ -88.09131, 29.26968 ], [ -88.09, 29.31022 ], [ -87.81245, 29.30304 ], [ -87.81103, 29.34359 ], [ -87.76476, 29.34233 ], [ -87.76332, 29.38287 ], [ -87.8559, 29.38537 ], [ -87.85449, 29.42591 ], [ -87.90081, 29.42713 ], [ -87.89942, 29.46768 ], [ -87.99208, 29.47007 ], [ -87.99073, 29.51062 ], [ -88.03708, 29.51179 ], [ -88.03575, 29.55234 ], [ -88.1285, 29.55464 ], [ -88.1272, 29.59518 ], [ -88.17359, 29.59631 ], [ -88.17231, 29.63686 ], [ -88.21872, 29.63797 ], [ -88.21746, 29.67851 ], [ -88.31002, 29.68068 ], [ -88.3088, 29.72125 ], [ -88.40176, 29.72335 ], [ -88.40057, 29.76393 ], [ -88.44707, 29.76495 ], [ -88.44589, 29.80553 ], [ -88.58546, 29.80852 ], [ -88.58434, 29.84909 ], [ -88.63088, 29.85006 ], [ -88.62978, 29.89063 ], [ -88.67634, 29.89158 ], [ -88.67526, 29.93215 ], [ -88.72185, 29.93308 ], [ -88.72078, 29.97366 ], [ -88.7652, 29.97453 ], [ -88.75838, 29.91827 ], [ -88.76725, 29.84077 ], [ -88.80181, 29.75019 ], [ -88.82342, 29.71499 ], [ -88.86993, 29.65709 ], [ -88.91265, 29.61177 ], [ -88.9602, 29.5771 ], [ -89.03887, 29.49222 ], [ -89.07229, 29.47083 ], [ -89.11944, 29.45806 ], [ -89.14207, 29.42946 ], [ -89.1376, 29.38142 ], [ -89.12161, 29.36649 ], [ -89.11215, 29.33967 ], [ -89.09452, 29.32893 ], [ -89.06942, 29.29429 ], [ -89.02261, 29.27446 ], [ -89.00004, 29.27148 ], [ -88.94205, 29.25374 ], [ -88.9183, 29.23627 ], [ -88.90914, 29.20016 ], [ -88.91764, 29.17943 ], [ -88.91324, 29.15457 ], [ -88.9278, 29.11727 ], [ -88.96743, 29.09507 ], [ -88.99689, 29.0853 ], [ -89.00099, 29.057 ], [ -89.01268, 29.02767 ], [ -89.04563, 29.00694 ], [ -89.08882, 28.96114 ], [ -89.09605, 28.94249 ], [ -89.13328, 28.91972 ], [ -89.16906, 28.92257 ], [ -89.19653, 28.93996 ], [ -89.20957, 28.97019 ], [ -89.2349, 28.98715 ], [ -89.2796, 28.97778 ], [ -89.30514, 28.95609 ], [ -89.32066, 28.93439 ], [ -89.38472, 28.8715 ], [ -89.42569, 28.85512 ], [ -89.45652, 28.8606 ], [ -89.48763, 28.88737 ], [ -89.49184, 28.9194 ], [ -89.4694, 28.95617 ], [ -89.46573, 28.97443 ], [ -89.46342, 29.08281 ], [ -89.46867, 29.10746 ], [ -89.50231, 29.15837 ], [ -89.52046, 29.17218 ], [ -89.55364, 29.18597 ], [ -89.61042, 29.19863 ], [ -90.03232, 29.13504 ], [ -90.05556, 29.12196 ], [ -90.09259, 29.09198 ], [ -90.15124, 29.05634 ], [ -90.20069, 29.03618 ], [ -90.23905, 29.0331 ], [ -90.34431, 29.00317 ], [ -90.3684, 29.00342 ], [ -90.40937, 28.99533 ], [ -90.47984, 29.00861 ], [ -90.55254, 29.0368 ], [ -90.72076, 28.99262 ], [ -90.74685, 28.98859 ], [ -90.82264, 28.98591 ], [ -90.86455, 28.99159 ], [ -90.90707, 28.99113 ], [ -90.97028, 29.00502 ], [ -91.00875, 29.0269 ], [ -91.02075, 29.04606 ], [ -91.02302, 29.06739 ], [ -91.00089, 29.10048 ], [ -90.96036, 29.11106 ], [ -90.97492, 29.1215 ], [ -91.00605, 29.11999 ], [ -91.07232, 29.13152 ], [ -91.11838, 29.14276 ], [ -91.14935, 29.16508 ], [ -91.20784, 29.17115 ], [ -91.29267, 29.19617 ], [ -91.31869, 29.20835 ], [ -91.3769, 29.26258 ], [ -91.39164, 29.28187 ], [ -91.42112, 29.30282 ], [ -91.52973, 29.34445 ], [ -91.56831, 29.34806 ], [ -91.59425, 29.3603 ], [ -91.61323, 29.36062 ], [ -91.64404, 29.37555 ], [ -91.66252, 29.37458 ], [ -91.69999, 29.36008 ], [ -91.7234, 29.36341 ], [ -91.77748, 29.39608 ], [ -91.79318, 29.38254 ], [ -91.84093, 29.36018 ], [ -91.87502, 29.36199 ], [ -91.89764, 29.37521 ], [ -91.913, 29.40568 ], [ -91.9132, 29.4202 ], [ -91.96482, 29.43939 ], [ -91.98386, 29.46071 ], [ -92.0073, 29.46337 ], [ -92.02984, 29.47596 ], [ -92.04561, 29.5058 ], [ -92.07804, 29.53148 ], [ -92.11413, 29.53514 ], [ -92.14666, 29.53203 ], [ -92.18332, 29.51833 ], [ -92.22345, 29.49471 ], [ -92.26397, 29.48414 ], [ -92.29366, 29.48149 ], [ -92.35365, 29.48871 ], [ -92.40501, 29.50028 ], [ -92.55981, 29.51817 ], [ -92.63253, 29.52971 ], [ -92.66578, 29.53787 ], [ -92.7507, 29.56488 ], [ -92.80675, 29.58638 ], [ -92.97699, 29.65958 ], [ -93.0291, 29.67785 ], [ -93.12514, 29.7062 ], [ -93.22316, 29.72639 ], [ -93.28735, 29.72433 ], [ -93.30362, 29.7061 ], [ -93.34944, 29.6954 ], [ -93.38724, 29.71377 ], [ -93.43275, 29.71852 ], [ -93.48775, 29.71781 ], [ -93.64478, 29.70026 ], [ -93.72266, 29.68786 ], [ -93.77014, 29.67082 ], [ -93.77035, 29.62392 ], [ -93.78592, 29.60594 ], [ -93.81218, 29.59665 ] ], [ [ -93.81184, 29.59543 ], [ -93.81144, 29.59546 ], [ -93.81171, 29.5954 ], [ -93.81184, 29.59543 ] ] ], [ [ [ -88.7672, 29.98181 ], [ -88.76634, 30.01515 ], [ -88.7788, 30.01539 ], [ -88.7672, 29.98181 ] ] ] ] } },
{ "type": "Feature", "properties": { "fid": 5, "ZoneCode": "002102", "AbrvFull": "GTXN", "NameFull": "Gulf Texas Shelf North", "ZoneNum": 2, "AbrvPart": "GTXN", "NamePart": "Texas Shelf North", "ZoneType": "Special use", "StateAbrv": null, "StateName": null, "ProjAbrv": "LC1", "ProjType": "Lambert Conformal Conic, one parallel", "LatOrigin": "29°19'57\"N", "LonOriginE": "261°00'E", "LonOriginW": "99°00'W", "Lat0_deg": 29.3325, "Lon0_E_deg": 261.0, "Lon0_W_deg": -99.0, "ProjScale": 0.9998499, "SkewAz_deg": -9999, "FalseN_m": 166114.095, "FalseE_m": 609633.909, "FalseN_ift": 544993.75, "FalseE_ift": 2000111.25, "DesignBy": "NGS", "Ref_frame": "NATRF2022" }, "geometry": { "type": "MultiPolygon", "coordinates": [ [ [ [ -93.41093, 27.82583 ], [ -93.52038, 28.31096 ], [ -93.64938, 28.87694 ], [ -93.77982, 29.44284 ], [ -93.76922, 29.44304 ], [ -93.81184, 29.59543 ], [ -93.81218, 29.59665 ], [ -93.84858, 29.60026 ], [ -93.875, 29.62142 ], [ -93.90603, 29.625 ], [ -94.03356, 29.625 ], [ -94.12517, 29.59555 ], [ -94.37034, 29.50023 ], [ -94.37586, 29.49977 ], [ -94.49944, 29.45233 ], [ -94.62518, 29.39766 ], [ -94.6503, 29.38282 ], [ -94.63604, 29.37063 ], [ -94.62389, 29.34314 ], [ -94.64241, 29.30013 ], [ -94.66621, 29.28104 ], [ -94.6923, 29.27705 ], [ -94.7133, 29.28252 ], [ -94.77268, 29.23171 ], [ -94.84014, 29.19834 ], [ -94.91212, 29.15931 ], [ -95.00019, 29.10445 ], [ -95.08639, 29.06824 ], [ -95.09433, 29.03224 ], [ -95.10544, 29.01604 ], [ -95.13946, 28.99169 ], [ -95.1805, 28.94924 ], [ -95.22722, 28.91037 ], [ -95.30811, 28.85883 ], [ -95.3221, 28.83444 ], [ -95.35346, 28.81786 ], [ -95.40169, 28.80591 ], [ -95.42006, 28.80562 ], [ -95.49388, 28.76534 ], [ -95.53201, 28.75025 ], [ -95.75023, 28.63841 ], [ -95.87523, 28.58278 ], [ -96.07832, 28.5 ], [ -96.18223, 28.45203 ], [ -96.25818, 28.40787 ], [ -96.27176, 28.38293 ], [ -96.29417, 28.3683 ], [ -96.32075, 28.36286 ], [ -96.34128, 28.34069 ], [ -96.35268, 28.31292 ], [ -96.37524, 28.29076 ], [ -96.53099, 28.22116 ], [ -96.61878, 28.16952 ], [ -96.74624, 28.07962 ], [ -96.84419, 28.00029 ], [ -96.87525, 27.96992 ], [ -96.95949, 27.8753 ], [ -96.97227, 27.83841 ], [ -96.88483, 27.83841 ], [ -96.44367, 27.83057 ], [ -95.85615, 27.81783 ], [ -95.36595, 27.80519 ], [ -95.26853, 27.80246 ], [ -95.26697, 27.84599 ], [ -95.12003, 27.84174 ], [ -95.11841, 27.88528 ], [ -94.53054, 27.86661 ], [ -94.52866, 27.91014 ], [ -94.43066, 27.90677 ], [ -94.43258, 27.86324 ], [ -93.89393, 27.84343 ], [ -93.89607, 27.79991 ], [ -93.84714, 27.798 ], [ -93.84498, 27.84152 ], [ -93.74707, 27.83764 ], [ -93.74927, 27.79412 ], [ -93.65141, 27.79018 ], [ -93.64917, 27.83369 ], [ -93.60022, 27.83169 ], [ -93.59796, 27.8752 ], [ -93.45106, 27.86909 ], [ -93.45339, 27.82558 ], [ -93.41093, 27.82583 ] ] ], [ [ [ -93.81184, 29.59543 ], [ -93.81171, 29.5954 ], [ -93.81144, 29.59546 ], [ -93.81184, 29.59543 ] ] ] ] } },
{ "type": "Feature", "properties": { "fid": 6, "ZoneCode": "002103", "AbrvFull": "GTXS", "NameFull": "Gulf Texas Shelf South", "ZoneNum": 3, "AbrvPart": "GTXS", "NamePart": "Texas Shelf South", "ZoneType": "Special use", "StateAbrv": null, "StateName": null, "ProjAbrv": "LC1", "ProjType": "Lambert Conformal Conic, one parallel", "LatOrigin": "27°00'N", "LonOriginE": "261°30'E", "LonOriginW": "98°30'W", "Lat0_deg": 27.0, "Lon0_E_deg": 261.5, "Lon0_W_deg": -98.5, "ProjScale": 0.9998844, "SkewAz_deg": -9999, "FalseN_m": 147679.41, "FalseE_m": 609630.48, "FalseN_ift": 484512.5, "FalseE_ift": 2000100.0, "DesignBy": "NGS", "Ref_frame": "NATRF2022" }, "geometry": { "type": "Polygon", "coordinates": [ [ [ -95.91365, 27.60689 ], [ -95.90864, 27.65038 ], [ -95.8108, 27.64856 ], [ -95.80976, 27.69212 ], [ -95.76082, 27.69118 ], [ -95.75976, 27.73474 ], [ -95.51499, 27.72979 ], [ -95.51384, 27.77335 ], [ -95.36693, 27.77018 ], [ -95.36595, 27.80519 ], [ -95.85615, 27.81783 ], [ -96.44367, 27.83057 ], [ -96.88483, 27.83841 ], [ -96.97227, 27.83841 ], [ -96.98427, 27.80378 ], [ -97.02185, 27.78336 ], [ -97.05021, 27.7503 ], [ -97.12526, 27.64059 ], [ -97.19981, 27.50031 ], [ -97.25025, 27.3923 ], [ -97.29656, 27.25032 ], [ -97.30935, 27.1961 ], [ -97.31981, 27.11002 ], [ -97.32321, 27.01025 ], [ -97.31594, 26.92928 ], [ -97.30041, 26.83461 ], [ -97.28272, 26.76342 ], [ -97.2517, 26.66186 ], [ -97.21405, 26.57676 ], [ -97.21254, 26.56165 ], [ -97.18456, 26.47585 ], [ -97.15649, 26.37534 ], [ -97.12611, 26.25035 ], [ -97.11014, 26.14058 ], [ -97.10829, 26.10451 ], [ -97.08998, 26.07534 ], [ -97.09785, 26.03862 ], [ -97.09488, 26.01016 ], [ -96.81185, 26.00794 ], [ -96.80828, 26.00896 ], [ -96.33177, 26.00995 ], [ -96.33028, 26.08845 ], [ -96.37853, 26.08919 ], [ -96.3761, 26.21991 ], [ -96.32779, 26.21916 ], [ -96.32363, 26.43703 ], [ -96.37203, 26.43777 ], [ -96.36958, 26.56849 ], [ -96.41804, 26.56922 ], [ -96.41644, 26.65637 ], [ -96.46493, 26.65708 ], [ -96.46259, 26.7878 ], [ -96.51114, 26.7885 ], [ -96.50884, 26.91922 ], [ -96.46023, 26.91852 ], [ -96.45709, 27.09281 ], [ -96.40841, 27.0921 ], [ -96.40679, 27.17924 ], [ -96.35807, 27.17851 ], [ -96.35642, 27.26565 ], [ -96.30766, 27.2649 ], [ -96.30682, 27.30847 ], [ -96.25804, 27.3077 ], [ -96.25718, 27.35127 ], [ -96.20839, 27.35049 ], [ -96.20661, 27.43762 ], [ -96.15778, 27.43682 ], [ -96.15688, 27.48039 ], [ -96.10803, 27.47957 ], [ -96.10711, 27.52313 ], [ -96.05824, 27.5223 ], [ -96.05729, 27.56586 ], [ -95.95953, 27.56414 ], [ -95.95854, 27.6077 ], [ -95.91365, 27.60689 ] ] ] } },
{ "type": "Feature", "properties": { "fid": 7, "ZoneCode": "002104", "AbrvFull": "GW", "NameFull": "Gulf West", "ZoneNum": 4, "AbrvPart": "GW", "NamePart": "West", "ZoneType": "Special use", "StateAbrv": null, "StateName": null, "ProjAbrv": "TM", "ProjType": "Transverse Mercator", "LatOrigin": "0°00'N", "LonOriginE": "261°00'E", "LonOriginW": "99°00'W", "Lat0_deg": 0.0, "Lon0_E_deg": 261.0, "Lon0_W_deg": -99.0, "ProjScale": 0.999584, "SkewAz_deg": -9999, "FalseN_m": -161.163, "FalseE_m": 500032.02, "FalseN_ift": -528.75, "FalseE_ift": 1640525.0, "DesignBy": "NGS", "Ref_frame": "NATRF2022" }, "geometry": { "type": "MultiPolygon", "coordinates": [ [ [ [ -96.81185, 26.00794 ], [ -97.09488, 26.01016 ], [ -97.08989, 25.9609 ], [ -96.9245, 25.97551 ], [ -96.81185, 26.00794 ] ] ], [ [ [ -95.87304, 26.00942 ], [ -95.88765, 26.59935 ], [ -95.91365, 27.60689 ], [ -95.95854, 27.6077 ], [ -95.95953, 27.56414 ], [ -96.05729, 27.56586 ], [ -96.05824, 27.5223 ], [ -96.10711, 27.52313 ], [ -96.10803, 27.47957 ], [ -96.15688, 27.48039 ], [ -96.15778, 27.43682 ], [ -96.20661, 27.43762 ], [ -96.20839, 27.35049 ], [ -96.25718, 27.35127 ], [ -96.25804, 27.3077 ], [ -96.30682, 27.30847 ], [ -96.30766, 27.2649 ], [ -96.35642, 27.26565 ], [ -96.35807, 27.17851 ], [ -96.40679, 27.17924 ], [ -96.40841, 27.0921 ], [ -96.45709, 27.09281 ], [ -96.46023, 26.91852 ], [ -96.50884, 26.91922 ], [ -96.51114, 26.7885 ], [ -96.46259, 26.7878 ], [ -96.46493, 26.65708 ], [ -96.41644, 26.65637 ], [ -96.41804, 26.56922 ], [ -96.36958, 26.56849 ], [ -96.37203, 26.43777 ], [ -96.32363, 26.43703 ], [ -96.32779, 26.21916 ], [ -96.3761, 26.21991 ], [ -96.37853, 26.08919 ], [ -96.33028, 26.08845 ], [ -96.33177, 26.00995 ], [ -95.87304, 26.00942 ] ] ] ] } },
{ "type": "Feature", "properties": { "fid": 8, "ZoneCode": "002105", "AbrvFull": "GWC", "NameFull": "Gulf West Central", "ZoneNum": 5, "AbrvPart": "GWC", "NamePart": "West Central", "ZoneType": "Special use", "StateAbrv": null, "StateName": null, "ProjAbrv": "TM", "ProjType": "Transverse Mercator", "LatOrigin": "0°00'N", "LonOriginE": "267°00'E", "LonOriginW": "93°00'W", "Lat0_deg": 0.0, "Lon0_E_deg": 267.0, "Lon0_W_deg": -93.0, "ProjScale": 0.9995867, "SkewAz_deg": -9999, "FalseN_m": -167.259, "FalseE_m": 500012.589, "FalseN_ift": -548.75, "FalseE_ift": 1640461.25, "DesignBy": "NGS", "Ref_frame": "NATRF2022" }, "geometry": { "type": "MultiPolygon", "coordinates": [ [ [ [ -89.86678, 25.7602 ], [ -89.88622, 26.55098 ], [ -89.91204, 27.55327 ], [ -89.93264, 28.31733 ], [ -89.95736, 28.3176 ], [ -89.95791, 28.27703 ], [ -90.00374, 28.2775 ], [ -90.00427, 28.23693 ], [ -90.09589, 28.23784 ], [ -90.09639, 28.19727 ], [ -90.13797, 28.19766 ], [ -90.13819, 28.17861 ], [ -90.20365, 28.17919 ], [ -90.2041, 28.13862 ], [ -90.24987, 28.13901 ], [ -90.24944, 28.17959 ], [ -90.3868, 28.18066 ], [ -90.38718, 28.14009 ], [ -90.43295, 28.14042 ], [ -90.43331, 28.09985 ], [ -90.51357, 28.10038 ], [ -90.51394, 28.05546 ], [ -90.89833, 28.05732 ], [ -90.89849, 28.01894 ], [ -91.04347, 28.01935 ], [ -91.04358, 27.98097 ], [ -91.2368, 27.98126 ], [ -91.23677, 28.01964 ], [ -91.33342, 28.01967 ], [ -91.33342, 28.05362 ], [ -91.37997, 28.05361 ], [ -91.37993, 27.9739 ], [ -91.47296, 27.97383 ], [ -91.47301, 28.01369 ], [ -91.56608, 28.01356 ], [ -91.56617, 28.05341 ], [ -91.61272, 28.05332 ], [ -91.61261, 28.01346 ], [ -91.65914, 28.01335 ], [ -91.65901, 27.9735 ], [ -91.70553, 27.97337 ], [ -91.70538, 27.93352 ], [ -91.79837, 27.93322 ], [ -91.7983, 27.9192 ], [ -91.85316, 27.92249 ], [ -92.1607, 27.92088 ], [ -92.1607, 27.9144 ], [ -92.19626, 27.91417 ], [ -92.19661, 27.95474 ], [ -92.33366, 27.95375 ], [ -92.33326, 27.91318 ], [ -92.4246, 27.91244 ], [ -92.42503, 27.95301 ], [ -92.61912, 27.95122 ], [ -92.61912, 27.94612 ], [ -92.89739, 27.94305 ], [ -92.89677, 27.90248 ], [ -92.98809, 27.90134 ], [ -92.98828, 27.91309 ], [ -93.17093, 27.91062 ], [ -93.1702, 27.87006 ], [ -93.26149, 27.86872 ], [ -93.26072, 27.82816 ], [ -93.41093, 27.82583 ], [ -93.45339, 27.82558 ], [ -93.45106, 27.86909 ], [ -93.59796, 27.8752 ], [ -93.60022, 27.83169 ], [ -93.64917, 27.83369 ], [ -93.65141, 27.79018 ], [ -93.74927, 27.79412 ], [ -93.74707, 27.83764 ], [ -93.84498, 27.84152 ], [ -93.84714, 27.798 ], [ -93.89607, 27.79991 ], [ -93.89393, 27.84343 ], [ -94.43258, 27.86324 ], [ -94.43066, 27.90677 ], [ -94.52866, 27.91014 ], [ -94.53054, 27.86661 ], [ -95.11841, 27.88528 ], [ -95.12003, 27.84174 ], [ -95.26697, 27.84599 ], [ -95.26853, 27.80246 ], [ -95.36595, 27.80519 ], [ -95.36693, 27.77018 ], [ -95.51384, 27.77335 ], [ -95.51499, 27.72979 ], [ -95.75976, 27.73474 ], [ -95.76082, 27.69118 ], [ -95.80976, 27.69212 ], [ -95.8108, 27.64856 ], [ -95.90864, 27.65038 ], [ -95.91365, 27.60689 ], [ -95.88765, 26.59935 ], [ -95.87304, 26.00942 ], [ -95.6574, 26.00867 ], [ -95.23191, 26.00906 ], [ -94.84342, 26.00832 ], [ -94.28845, 26.00546 ], [ -93.93698, 26.00254 ], [ -93.44514, 25.99706 ], [ -93.25274, 25.90761 ], [ -92.99485, 25.77608 ], [ -92.93221, 25.67425 ], [ -92.52788, 25.65619 ], [ -92.13313, 25.63705 ], [ -91.65816, 25.61283 ], [ -91.34199, 25.66197 ], [ -91.09024, 25.70393 ], [ -90.4947, 25.78142 ], [ -90.12568, 25.76928 ], [ -89.86678, 25.7602 ] ] ], [ [ [ -89.94277, 28.68267 ], [ -90.04442, 28.68372 ], [ -90.04494, 28.64314 ], [ -90.09087, 28.64359 ], [ -90.09143, 28.60301 ], [ -89.99948, 28.6021 ], [ -90.00161, 28.4398 ], [ -89.95571, 28.43932 ], [ -89.95681, 28.35817 ], [ -89.93375, 28.35792 ], [ -89.94277, 28.68267 ] ] ] ] } },
{ "type": "Feature", "properties": { "fid": 9, "ZoneCode": "002106", "AbrvFull": "GEC", "NameFull": "Gulf East Central", "ZoneNum": 6, "AbrvPart": "GEC", "NamePart": "East Central", "ZoneType": "Special use", "StateAbrv": null, "StateName": null, "ProjAbrv": "TM", "ProjType": "Transverse Mercator", "LatOrigin": "0°00'N", "LonOriginE": "273°00'E", "LonOriginW": "87°00'W", "Lat0_deg": 0.0, "Lon0_E_deg": 273.0, "Lon0_W_deg": -87.0, "ProjScale": 0.9995904, "SkewAz_deg": -9999, "FalseN_m": -178.308, "FalseE_m": 499995.063, "FalseN_ift": -585.0, "FalseE_ift": 1640403.75, "DesignBy": "NGS", "Ref_frame": "NATRF2022" }, "geometry": { "type": "Polygon", "coordinates": [ [ [ -84.07881, 29.937 ], [ -84.1258, 29.92458 ], [ -84.16079, 29.92126 ], [ -84.1689, 29.87549 ], [ -84.18198, 29.84435 ], [ -84.2023, 29.81314 ], [ -84.22292, 29.79221 ], [ -84.25286, 29.77157 ], [ -84.31487, 29.74945 ], [ -84.36341, 29.7435 ], [ -84.41994, 29.74695 ], [ -84.46015, 29.69843 ], [ -84.48055, 29.68388 ], [ -84.54846, 29.65323 ], [ -84.58867, 29.64073 ], [ -84.64377, 29.59273 ], [ -84.68934, 29.56263 ], [ -84.72688, 29.54492 ], [ -84.78749, 29.52589 ], [ -84.86754, 29.48361 ], [ -84.89635, 29.4712 ], [ -84.985, 29.44554 ], [ -85.0363, 29.43649 ], [ -85.07042, 29.43697 ], [ -85.11266, 29.4464 ], [ -85.14362, 29.46058 ], [ -85.17711, 29.48515 ], [ -85.20405, 29.49392 ], [ -85.25966, 29.5248 ], [ -85.285, 29.51505 ], [ -85.33542, 29.50549 ], [ -85.37284, 29.507 ], [ -85.43133, 29.52506 ], [ -85.47087, 29.5514 ], [ -85.50454, 29.5878 ], [ -85.53198, 29.62822 ], [ -85.55731, 29.68434 ], [ -85.57023, 29.72101 ], [ -85.58647, 29.7909 ], [ -85.58961, 29.83755 ], [ -85.63172, 29.86457 ], [ -85.70978, 29.93583 ], [ -85.74151, 29.9478 ], [ -85.80355, 29.97815 ], [ -85.85019, 30.00919 ], [ -85.87285, 30.03078 ], [ -85.93113, 30.06695 ], [ -86.00549, 30.10605 ], [ -86.07406, 30.13518 ], [ -86.14979, 30.1629 ], [ -86.30637, 30.20939 ], [ -86.385, 30.22521 ], [ -86.44559, 30.2323 ], [ -86.5195, 30.23133 ], [ -86.59129, 30.24281 ], [ -86.64057, 30.2463 ], [ -86.71347, 30.24362 ], [ -86.85559, 30.22791 ], [ -87.01233, 30.20105 ], [ -87.12003, 30.18058 ], [ -87.18001, 30.17243 ], [ -87.25828, 30.16541 ], [ -87.3028, 30.16829 ], [ -87.38011, 30.15097 ], [ -87.51836, 30.12552 ], [ -87.51834, 30.2295 ], [ -87.64782, 30.19921 ], [ -87.718, 30.19175 ], [ -87.80715, 30.17737 ], [ -87.92575, 30.17956 ], [ -88.00361, 30.17341 ], [ -88.02803, 30.15038 ], [ -88.0461, 30.14468 ], [ -88.07486, 30.14714 ], [ -88.10341, 30.16637 ], [ -88.1316, 30.17362 ], [ -88.16202, 30.20009 ], [ -88.27793, 30.18007 ], [ -88.3103, 30.17781 ], [ -88.34771, 30.19008 ], [ -88.38516, 30.15814 ], [ -88.43351, 30.14721 ], [ -88.46128, 30.14668 ], [ -88.50978, 30.15794 ], [ -88.54585, 30.17665 ], [ -88.56787, 30.17045 ], [ -88.60387, 30.1706 ], [ -88.66724, 30.17832 ], [ -88.71738, 30.19087 ], [ -88.75389, 30.1882 ], [ -88.80063, 30.20238 ], [ -88.82138, 30.21736 ], [ -88.85038, 30.19228 ], [ -88.90032, 30.16997 ], [ -88.88902, 30.13984 ], [ -88.85491, 30.13553 ], [ -88.83434, 30.0907 ], [ -88.80296, 30.05782 ], [ -88.7788, 30.01539 ], [ -88.76634, 30.01515 ], [ -88.7672, 29.98181 ], [ -88.7652, 29.97453 ], [ -88.72078, 29.97366 ], [ -88.72185, 29.93308 ], [ -88.67526, 29.93215 ], [ -88.67634, 29.89158 ], [ -88.62978, 29.89063 ], [ -88.63088, 29.85006 ], [ -88.58434, 29.84909 ], [ -88.58546, 29.80852 ], [ -88.44589, 29.80553 ], [ -88.44707, 29.76495 ], [ -88.40057, 29.76393 ], [ -88.40176, 29.72335 ], [ -88.3088, 29.72125 ], [ -88.31002, 29.68068 ], [ -88.21746, 29.67851 ], [ -88.21872, 29.63797 ], [ -88.17231, 29.63686 ], [ -88.17359, 29.59631 ], [ -88.1272, 29.59518 ], [ -88.1285, 29.55464 ], [ -88.03575, 29.55234 ], [ -88.03708, 29.51179 ], [ -87.99073, 29.51062 ], [ -87.99208, 29.47007 ], [ -87.89942, 29.46768 ], [ -87.90081, 29.42713 ], [ -87.85449, 29.42591 ], [ -87.8559, 29.38537 ], [ -87.76332, 29.38287 ], [ -87.76476, 29.34233 ], [ -87.81103, 29.34359 ], [ -87.81245, 29.30304 ], [ -88.09, 29.31022 ], [ -88.09131, 29.26968 ], [ -88.21687, 29.27273 ], [ -88.21848, 29.22089 ], [ -88.4769, 29.2268 ], [ -88.47806, 29.18623 ], [ -88.57053, 29.18822 ], [ -88.57164, 29.14765 ], [ -88.61786, 29.14862 ], [ -88.61895, 29.10805 ], [ -88.71135, 29.10994 ], [ -88.71241, 29.06936 ], [ -88.80478, 29.07119 ], [ -88.8058, 29.03062 ], [ -88.89813, 29.03237 ], [ -88.89911, 28.9918 ], [ -88.94526, 28.99266 ], [ -88.94622, 28.95208 ], [ -88.99235, 28.95292 ], [ -88.99329, 28.91235 ], [ -89.0394, 28.91317 ], [ -89.04125, 28.83202 ], [ -89.22555, 28.83514 ], [ -89.22725, 28.75399 ], [ -89.27329, 28.75473 ], [ -89.27494, 28.67359 ], [ -89.32094, 28.67431 ], [ -89.32175, 28.63373 ], [ -89.36774, 28.63444 ], [ -89.36853, 28.59387 ], [ -89.44705, 28.59503 ], [ -89.4466, 28.61888 ], [ -89.58455, 28.62081 ], [ -89.58525, 28.58024 ], [ -89.72315, 28.58202 ], [ -89.72186, 28.66317 ], [ -89.86061, 28.66482 ], [ -89.86037, 28.68176 ], [ -89.94277, 28.68267 ], [ -89.93375, 28.35792 ], [ -89.91094, 28.35768 ], [ -89.91151, 28.3171 ], [ -89.93264, 28.31733 ], [ -89.91204, 27.55327 ], [ -89.88622, 26.55098 ], [ -89.86678, 25.7602 ], [ -89.48008, 25.74578 ], [ -89.0191, 25.72725 ], [ -88.36113, 25.6986 ], [ -88.27792, 25.69191 ], [ -87.94094, 25.66793 ], [ -87.45974, 25.63232 ], [ -87.04489, 25.60033 ], [ -87.0096, 25.50033 ], [ -86.55265, 25.20699 ], [ -86.33367, 25.08541 ], [ -85.99985, 24.89898 ], [ -85.71984, 24.73787 ], [ -85.53178, 24.64899 ], [ -85.10539, 24.44345 ], [ -84.76871, 24.2779 ], [ -84.64427, 24.22207 ], [ -84.49093, 24.16013 ], [ -83.99981, 23.97709 ], [ -83.92017, 23.95789 ], [ -83.94192, 24.89698 ], [ -83.9653, 25.85724 ], [ -83.98984, 26.81502 ], [ -84.00847, 27.51186 ], [ -84.03644, 28.51253 ], [ -84.06336, 29.42922 ], [ -84.07881, 29.937 ] ] ] } },
{ "type": "Feature", "properties": { "fid": 10, "ZoneCode": "002107", "AbrvFull": "GE", "NameFull": "Gulf East", "ZoneNum": 7, "AbrvPart": "GE", "NamePart": "East", "ZoneType": "Special use", "StateAbrv": null, "StateName": null, "ProjAbrv": "TM", "ProjType": "Transverse Mercator", "LatOrigin": "0°00'N", "LonOriginE": "279°00'E", "LonOriginW": "81°00'W", "Lat0_deg": 0.0, "Lon0_E_deg": 279.0, "Lon0_W_deg": -81.0, "ProjScale": 0.9995987, "SkewAz_deg": -9999, "FalseN_m": -206.121, "FalseE_m": 499980.204, "FalseN_ift": -676.25, "FalseE_ift": 1640355.0, "DesignBy": "NGS", "Ref_frame": "NATRF2022" }, "geometry": { "type": "Polygon", "coordinates": [ [ [ -84.07881, 29.937 ], [ -84.06336, 29.42922 ], [ -84.03644, 28.51253 ], [ -84.00847, 27.51186 ], [ -83.98984, 26.81502 ], [ -83.9653, 25.85724 ], [ -83.94192, 24.89698 ], [ -83.92017, 23.95789 ], [ -83.80314, 23.92959 ], [ -83.69314, 23.90098 ], [ -83.55036, 23.87404 ], [ -83.43036, 23.85599 ], [ -83.24981, 23.83099 ], [ -82.9998, 23.82322 ], [ -82.99984, 24.47696 ], [ -83.05248, 24.50519 ], [ -83.08256, 24.53687 ], [ -83.10352, 24.57996 ], [ -83.10891, 24.61108 ], [ -83.10352, 24.65798 ], [ -83.08845, 24.69205 ], [ -83.05238, 24.73273 ], [ -83.00476, 24.7645 ], [ -82.94545, 24.78496 ], [ -82.86888, 24.79808 ], [ -82.78992, 24.7999 ], [ -82.75609, 24.79384 ], [ -82.72189, 24.7802 ], [ -82.67997, 24.74851 ], [ -82.65508, 24.71331 ], [ -82.63991, 24.65491 ], [ -82.64149, 24.62871 ], [ -82.65665, 24.58376 ], [ -82.32649, 24.58376 ], [ -82.30809, 24.63704 ], [ -82.28734, 24.67006 ], [ -82.26277, 24.6989 ], [ -82.23771, 24.72005 ], [ -82.20073, 24.73817 ], [ -82.13034, 24.74802 ], [ -82.07325, 24.74137 ], [ -82.02695, 24.72572 ], [ -81.97769, 24.74965 ], [ -81.9468, 24.75755 ], [ -81.89429, 24.76365 ], [ -81.81421, 24.80639 ], [ -81.77824, 24.81538 ], [ -81.76188, 24.82875 ], [ -81.69158, 24.86293 ], [ -81.64807, 24.88957 ], [ -81.62159, 24.89722 ], [ -81.58131, 24.92376 ], [ -81.50763, 24.95977 ], [ -81.48849, 24.96635 ], [ -81.41348, 24.97813 ], [ -81.35038, 24.97048 ], [ -81.26575, 24.98642 ], [ -81.21196, 24.98033 ], [ -81.17035, 24.96214 ], [ -81.18858, 24.9948 ], [ -81.21427, 25.01918 ], [ -81.24358, 25.0355 ], [ -81.27806, 25.0687 ], [ -81.29293, 25.09322 ], [ -81.3048, 25.13242 ], [ -81.32854, 25.17641 ], [ -81.34155, 25.21881 ], [ -81.34243, 25.24942 ], [ -81.31491, 25.35155 ], [ -81.3252, 25.39062 ], [ -81.36051, 25.43182 ], [ -81.38477, 25.49701 ], [ -81.42541, 25.5516 ], [ -81.46788, 25.57396 ], [ -81.5066, 25.61939 ], [ -81.51902, 25.65694 ], [ -81.57623, 25.68604 ], [ -81.63007, 25.67268 ], [ -81.67673, 25.67239 ], [ -81.72389, 25.6806 ], [ -81.75138, 25.69161 ], [ -81.78767, 25.71578 ], [ -81.81737, 25.74999 ], [ -81.84202, 25.7945 ], [ -81.8707, 25.82947 ], [ -81.90773, 25.90039 ], [ -81.91843, 25.95272 ], [ -81.95756, 26.03477 ], [ -81.96802, 26.06958 ], [ -81.97343, 26.12674 ], [ -81.98011, 26.15234 ], [ -81.98529, 26.21317 ], [ -82.00546, 26.28442 ], [ -82.03337, 26.27624 ], [ -82.07617, 26.27178 ], [ -82.11233, 26.27387 ], [ -82.16932, 26.28845 ], [ -82.2185, 26.31084 ], [ -82.28055, 26.35412 ], [ -82.30375, 26.37523 ], [ -82.33457, 26.41986 ], [ -82.34706, 26.44946 ], [ -82.35964, 26.50272 ], [ -82.37746, 26.53218 ], [ -82.3903, 26.57524 ], [ -82.41514, 26.61326 ], [ -82.42798, 26.64507 ], [ -82.43317, 26.68682 ], [ -82.43157, 26.73614 ], [ -82.44505, 26.76462 ], [ -82.49877, 26.83572 ], [ -82.54881, 26.91528 ], [ -82.60031, 27.00139 ], [ -82.62842, 27.06374 ], [ -82.6353, 27.08772 ], [ -82.67053, 27.15443 ], [ -82.71089, 27.19484 ], [ -82.73464, 27.24681 ], [ -82.78628, 27.31065 ], [ -82.81015, 27.33071 ], [ -82.83624, 27.36158 ], [ -82.86161, 27.42372 ], [ -82.88981, 27.45701 ], [ -82.92473, 27.53209 ], [ -82.93347, 27.56634 ], [ -82.93283, 27.61652 ], [ -82.91738, 27.66281 ], [ -82.91521, 27.68412 ], [ -82.96549, 27.7339 ], [ -82.99388, 27.77766 ], [ -83.01043, 27.81563 ], [ -83.01794, 27.84835 ], [ -83.01997, 27.8934 ], [ -83.01407, 27.93343 ], [ -82.99844, 27.99025 ], [ -82.99923, 28.02686 ], [ -83.00681, 28.05403 ], [ -83.0125, 28.13373 ], [ -83.0214, 28.19223 ], [ -83.01941, 28.23636 ], [ -83.00915, 28.26806 ], [ -82.9838, 28.30608 ], [ -82.95377, 28.33169 ], [ -82.89735, 28.357 ], [ -82.8776, 28.41267 ], [ -82.87093, 28.44525 ], [ -82.85542, 28.4772 ], [ -82.85822, 28.50755 ], [ -82.85318, 28.54199 ], [ -82.83913, 28.57457 ], [ -82.8679, 28.61502 ], [ -82.87755, 28.64181 ], [ -82.89041, 28.69999 ], [ -82.92049, 28.75714 ], [ -82.92717, 28.81357 ], [ -82.91579, 28.85649 ], [ -82.92886, 28.8762 ], [ -82.94426, 28.91583 ], [ -82.94556, 28.96374 ], [ -82.97844, 28.9518 ], [ -83.02166, 28.94535 ], [ -83.08217, 28.94618 ], [ -83.11743, 28.95194 ], [ -83.16026, 28.96887 ], [ -83.19209, 28.98984 ], [ -83.21862, 29.01691 ], [ -83.25701, 29.08488 ], [ -83.26469, 29.12748 ], [ -83.26207, 29.15571 ], [ -83.29872, 29.17802 ], [ -83.3331, 29.21593 ], [ -83.34678, 29.24348 ], [ -83.35502, 29.28827 ], [ -83.4025, 29.31691 ], [ -83.43565, 29.34969 ], [ -83.50492, 29.38422 ], [ -83.53342, 29.40845 ], [ -83.55089, 29.43114 ], [ -83.56544, 29.46204 ], [ -83.58206, 29.56331 ], [ -83.61439, 29.58841 ], [ -83.64353, 29.59968 ], [ -83.68732, 29.62608 ], [ -83.71006, 29.64918 ], [ -83.74889, 29.7146 ], [ -83.75746, 29.7532 ], [ -83.78089, 29.79003 ], [ -83.83028, 29.81971 ], [ -83.87523, 29.82535 ], [ -83.90865, 29.83689 ], [ -83.93783, 29.85345 ], [ -83.97263, 29.88641 ], [ -84.03828, 29.91817 ], [ -84.06491, 29.94007 ], [ -84.07881, 29.937 ] ] ] } }
]
}
