{
"type": "FeatureCollection",
"name": "simplified_special_use_gulf",
"features": [
{ "type": "Feature", "properties": { "fid": 1, "ZoneCode": "001001", "AbrvFull": "GULF", "NameFull": "Gulf", "ZoneNum": 1, "AbrvPart": "GULF", "NamePart": null, "ZoneType": "Special use", "StateAbrv": null, "StateName": null, "ProjAbrv": "LC1", "ProjType": "Lambert Conformal Conic, one parallel", "LatOrigin": "28°00'N", "LonOriginE": "270°00'E", "LonOriginW": "90°00'W", "Lat0_deg": 28.0, "Lon0_E_deg": 270.0, "Lon0_W_deg": -90.0, "ProjScale": 0.9996, "SkewAz_deg": -9999, "FalseN_m": 533400.0, "FalseE_m": 1600200.0, "FalseN_ift": 1750000.0, "FalseE_ift": 5250000.0, "DesignBy": "NGS", "Ref_frame": "NATRF2022" }, "geometry": { "type": "Polygon", "coordinates": [ [ [ -86.44559, 30.2323 ], [ -86.5195, 30.23133 ], [ -86.59129, 30.24281 ], [ -86.64057, 30.2463 ], [ -86.71347, 30.24362 ], [ -86.85559, 30.22791 ], [ -87.01233, 30.20105 ], [ -87.12003, 30.18058 ], [ -87.18001, 30.17243 ], [ -87.25828, 30.16541 ], [ -87.3028, 30.16829 ], [ -87.38011, 30.15097 ], [ -87.51836, 30.12552 ], [ -87.51834, 30.2295 ], [ -87.64782, 30.19921 ], [ -87.718, 30.19175 ], [ -87.80715, 30.17737 ], [ -87.92575, 30.17956 ], [ -88.00361, 30.17341 ], [ -88.02803, 30.15038 ], [ -88.0461, 30.14468 ], [ -88.07486, 30.14714 ], [ -88.10341, 30.16637 ], [ -88.1316, 30.17362 ], [ -88.16202, 30.20009 ], [ -88.27793, 30.18007 ], [ -88.3103, 30.17781 ], [ -88.34771, 30.19008 ], [ -88.38516, 30.15814 ], [ -88.43351, 30.14721 ], [ -88.46128, 30.14668 ], [ -88.50978, 30.15794 ], [ -88.54585, 30.17665 ], [ -88.56787, 30.17045 ], [ -88.60387, 30.1706 ], [ -88.66724, 30.17832 ], [ -88.71738, 30.19087 ], [ -88.75389, 30.1882 ], [ -88.80063, 30.20238 ], [ -88.82138, 30.21736 ], [ -88.85038, 30.19228 ], [ -88.90032, 30.16997 ], [ -88.88902, 30.13984 ], [ -88.85491, 30.13553 ], [ -88.83434, 30.0907 ], [ -88.80296, 30.05782 ], [ -88.78366, 30.02668 ], [ -88.76449, 29.97194 ], [ -88.75838, 29.91827 ], [ -88.76725, 29.84077 ], [ -88.80181, 29.75019 ], [ -88.82342, 29.71499 ], [ -88.86993, 29.65709 ], [ -88.91265, 29.61177 ], [ -88.9602, 29.5771 ], [ -89.03887, 29.49222 ], [ -89.07229, 29.47083 ], [ -89.11944, 29.45806 ], [ -89.14207, 29.42946 ], [ -89.1376, 29.38142 ], [ -89.12161, 29.36649 ], [ -89.11215, 29.33967 ], [ -89.09452, 29.32893 ], [ -89.06942, 29.29429 ], [ -89.02261, 29.27446 ], [ -89.00004, 29.27148 ], [ -88.94205, 29.25374 ], [ -88.9183, 29.23627 ], [ -88.90914, 29.20016 ], [ -88.91764, 29.17943 ], [ -88.91324, 29.15457 ], [ -88.9278, 29.11727 ], [ -88.96743, 29.09507 ], [ -88.99689, 29.0853 ], [ -89.00099, 29.057 ], [ -89.01268, 29.02767 ], [ -89.04563, 29.00694 ], [ -89.08882, 28.96114 ], [ -89.09605, 28.94249 ], [ -89.13328, 28.91972 ], [ -89.16906, 28.92257 ], [ -89.19653, 28.93996 ], [ -89.20957, 28.97019 ], [ -89.2349, 28.98715 ], [ -89.2796, 28.97778 ], [ -89.30514, 28.95609 ], [ -89.32066, 28.93439 ], [ -89.38472, 28.8715 ], [ -89.42569, 28.85512 ], [ -89.45652, 28.8606 ], [ -89.48763, 28.88737 ], [ -89.49184, 28.9194 ], [ -89.4694, 28.95617 ], [ -89.46573, 28.97443 ], [ -89.46342, 29.08281 ], [ -89.46867, 29.10746 ], [ -89.50231, 29.15837 ], [ -89.52046, 29.17218 ], [ -89.55364, 29.18597 ], [ -89.61042, 29.19863 ], [ -90.03232, 29.13504 ], [ -90.05556, 29.12196 ], [ -90.09259, 29.09198 ], [ -90.15124, 29.05634 ], [ -90.20069, 29.03618 ], [ -90.23905, 29.0331 ], [ -90.34431, 29.00317 ], [ -90.3684, 29.00342 ], [ -90.40937, 28.99533 ], [ -90.47984, 29.00861 ], [ -90.55254, 29.0368 ], [ -90.72076, 28.99262 ], [ -90.74685, 28.98859 ], [ -90.82264, 28.98591 ], [ -90.86455, 28.99159 ], [ -90.90707, 28.99113 ], [ -90.97028, 29.00502 ], [ -91.00875, 29.0269 ], [ -91.02075, 29.04606 ], [ -91.02302, 29.06739 ], [ -91.00089, 29.10048 ], [ -90.96036, 29.11106 ], [ -90.97492, 29.1215 ], [ -91.00605, 29.11999 ], [ -91.07232, 29.13152 ], [ -91.11838, 29.14276 ], [ -91.14935, 29.16508 ], [ -91.20784, 29.17115 ], [ -91.29267, 29.19617 ], [ -91.31869, 29.20835 ], [ -91.3769, 29.26258 ], [ -91.39164, 29.28187 ], [ -91.42112, 29.30282 ], [ -91.52973, 29.34445 ], [ -91.56831, 29.34806 ], [ -91.59425, 29.3603 ], [ -91.61323, 29.36062 ], [ -91.64404, 29.37555 ], [ -91.66252, 29.37458 ], [ -91.69999, 29.36008 ], [ -91.7234, 29.36341 ], [ -91.77748, 29.39608 ], [ -91.79318, 29.38254 ], [ -91.84093, 29.36018 ], [ -91.87502, 29.36199 ], [ -91.89764, 29.37521 ], [ -91.913, 29.40568 ], [ -91.9132, 29.4202 ], [ -91.96482, 29.43939 ], [ -91.98386, 29.46071 ], [ -92.0073, 29.46337 ], [ -92.02984, 29.47596 ], [ -92.04561, 29.5058 ], [ -92.07804, 29.53148 ], [ -92.11413, 29.53514 ], [ -92.14666, 29.53203 ], [ -92.18332, 29.51833 ], [ -92.22345, 29.49471 ], [ -92.26397, 29.48414 ], [ -92.29366, 29.48149 ], [ -92.35365, 29.48871 ], [ -92.40501, 29.50028 ], [ -92.55981, 29.51817 ], [ -92.63253, 29.52971 ], [ -92.66578, 29.53787 ], [ -92.7507, 29.56488 ], [ -92.80675, 29.58638 ], [ -92.97699, 29.65958 ], [ -93.0291, 29.67785 ], [ -93.12514, 29.7062 ], [ -93.22316, 29.72639 ], [ -93.28735, 29.72433 ], [ -93.30362, 29.7061 ], [ -93.34944, 29.6954 ], [ -93.38724, 29.71377 ], [ -93.43275, 29.71852 ], [ -93.48775, 29.71781 ], [ -93.64478, 29.70026 ], [ -93.72266, 29.68786 ], [ -93.77014, 29.67082 ], [ -93.76651, 29.6343 ], [ -93.77931, 29.61168 ], [ -93.80661, 29.59685 ], [ -93.84858, 29.60026 ], [ -93.875, 29.62142 ], [ -93.90603, 29.625 ], [ -94.03356, 29.625 ], [ -94.12517, 29.59555 ], [ -94.37034, 29.50023 ], [ -94.37586, 29.49977 ], [ -94.49944, 29.45233 ], [ -94.62518, 29.39766 ], [ -94.6503, 29.38282 ], [ -94.63604, 29.37063 ], [ -94.62389, 29.34314 ], [ -94.64241, 29.30013 ], [ -94.66621, 29.28104 ], [ -94.6923, 29.27705 ], [ -94.7133, 29.28252 ], [ -94.77268, 29.23171 ], [ -94.84014, 29.19834 ], [ -94.91212, 29.15931 ], [ -95.00019, 29.10445 ], [ -95.08639, 29.06824 ], [ -95.09433, 29.03224 ], [ -95.10544, 29.01604 ], [ -95.13946, 28.99169 ], [ -95.1805, 28.94924 ], [ -95.22722, 28.91037 ], [ -95.30811, 28.85883 ], [ -95.3221, 28.83444 ], [ -95.35346, 28.81786 ], [ -95.40169, 28.80591 ], [ -95.42006, 28.80562 ], [ -95.49388, 28.76534 ], [ -95.53201, 28.75025 ], [ -95.75023, 28.63841 ], [ -95.87523, 28.58278 ], [ -96.07832, 28.5 ], [ -96.18223, 28.45203 ], [ -96.25818, 28.40787 ], [ -96.27176, 28.38293 ], [ -96.29417, 28.3683 ], [ -96.32075, 28.36286 ], [ -96.34128, 28.34069 ], [ -96.35268, 28.31292 ], [ -96.37524, 28.29076 ], [ -96.53099, 28.22116 ], [ -96.61878, 28.16952 ], [ -96.74624, 28.07962 ], [ -96.84419, 28.00029 ], [ -96.87525, 27.96992 ], [ -96.95949, 27.8753 ], [ -96.98427, 27.80378 ], [ -97.02185, 27.78336 ], [ -97.05021, 27.7503 ], [ -97.12526, 27.64059 ], [ -97.19981, 27.50031 ], [ -97.25025, 27.3923 ], [ -97.29656, 27.25032 ], [ -97.30935, 27.1961 ], [ -97.31981, 27.11002 ], [ -97.32321, 27.01025 ], [ -97.31594, 26.92928 ], [ -97.30041, 26.83461 ], [ -97.28272, 26.76342 ], [ -97.2517, 26.66186 ], [ -97.21405, 26.57676 ], [ -97.21254, 26.56165 ], [ -97.18456, 26.47585 ], [ -97.15649, 26.37534 ], [ -97.12611, 26.25035 ], [ -97.11014, 26.14058 ], [ -97.10829, 26.10451 ], [ -97.08998, 26.07534 ], [ -97.09785, 26.03862 ], [ -97.08989, 25.9609 ], [ -96.9245, 25.97551 ], [ -96.80828, 26.00896 ], [ -96.38279, 26.00992 ], [ -96.06829, 26.00983 ], [ -95.6574, 26.00867 ], [ -95.23191, 26.00906 ], [ -94.84342, 26.00832 ], [ -94.28845, 26.00546 ], [ -93.93698, 26.00254 ], [ -93.44514, 25.99706 ], [ -93.25274, 25.90761 ], [ -92.99485, 25.77608 ], [ -92.93221, 25.67425 ], [ -92.52788, 25.65619 ], [ -92.13313, 25.63705 ], [ -91.65816, 25.61283 ], [ -91.34199, 25.66197 ], [ -91.09024, 25.70393 ], [ -90.4947, 25.78142 ], [ -90.12568, 25.76928 ], [ -89.60918, 25.75071 ], [ -89.0191, 25.72725 ], [ -88.36113, 25.6986 ], [ -88.27792, 25.69191 ], [ -87.94094, 25.66793 ], [ -87.45974, 25.63232 ], [ -87.04489, 25.60033 ], [ -87.0096, 25.50033 ], [ -86.55265, 25.20699 ], [ -86.33367, 25.08541 ], [ -85.99985, 24.89898 ], [ -85.71984, 24.73787 ], [ -85.53178, 24.64899 ], [ -85.10539, 24.44345 ], [ -84.76871, 24.2779 ], [ -84.64427, 24.22207 ], [ -84.49093, 24.16013 ], [ -83.99981, 23.97709 ], [ -83.80314, 23.92959 ], [ -83.69314, 23.90098 ], [ -83.55036, 23.87404 ], [ -83.43036, 23.85599 ], [ -83.24981, 23.83099 ], [ -82.9998, 23.82322 ], [ -82.99984, 24.47696 ], [ -83.05248, 24.50519 ], [ -83.08256, 24.53687 ], [ -83.10352, 24.57996 ], [ -83.10891, 24.61108 ], [ -83.10352, 24.65798 ], [ -83.08845, 24.69205 ], [ -83.05238, 24.73273 ], [ -83.00476, 24.7645 ], [ -82.94545, 24.78496 ], [ -82.86888, 24.79808 ], [ -82.78992, 24.7999 ], [ -82.75609, 24.79384 ], [ -82.72189, 24.7802 ], [ -82.67997, 24.74851 ], [ -82.65508, 24.71331 ], [ -82.63991, 24.65491 ], [ -82.64149, 24.62871 ], [ -82.65665, 24.58376 ], [ -82.32649, 24.58376 ], [ -82.30809, 24.63704 ], [ -82.28734, 24.67006 ], [ -82.26277, 24.6989 ], [ -82.23771, 24.72005 ], [ -82.20073, 24.73817 ], [ -82.13034, 24.74802 ], [ -82.07325, 24.74137 ], [ -82.02695, 24.72572 ], [ -81.97769, 24.74965 ], [ -81.9468, 24.75755 ], [ -81.89429, 24.76365 ], [ -81.81421, 24.80639 ], [ -81.77824, 24.81538 ], [ -81.76188, 24.82875 ], [ -81.69158, 24.86293 ], [ -81.64807, 24.88957 ], [ -81.62159, 24.89722 ], [ -81.58131, 24.92376 ], [ -81.50763, 24.95977 ], [ -81.48849, 24.96635 ], [ -81.41348, 24.97813 ], [ -81.35038, 24.97048 ], [ -81.26575, 24.98642 ], [ -81.21196, 24.98033 ], [ -81.17035, 24.96214 ], [ -81.18858, 24.9948 ], [ -81.21427, 25.01918 ], [ -81.24358, 25.0355 ], [ -81.27806, 25.0687 ], [ -81.29293, 25.09322 ], [ -81.3048, 25.13242 ], [ -81.32854, 25.17641 ], [ -81.34155, 25.21881 ], [ -81.34243, 25.24942 ], [ -81.31491, 25.35155 ], [ -81.3252, 25.39062 ], [ -81.36051, 25.43182 ], [ -81.38477, 25.49701 ], [ -81.42541, 25.5516 ], [ -81.46788, 25.57396 ], [ -81.5066, 25.61939 ], [ -81.51902, 25.65694 ], [ -81.57623, 25.68604 ], [ -81.63007, 25.67268 ], [ -81.67673, 25.67239 ], [ -81.72389, 25.6806 ], [ -81.75138, 25.69161 ], [ -81.78767, 25.71578 ], [ -81.81737, 25.74999 ], [ -81.84202, 25.7945 ], [ -81.8707, 25.82947 ], [ -81.90773, 25.90039 ], [ -81.91843, 25.95272 ], [ -81.95756, 26.03477 ], [ -81.96802, 26.06958 ], [ -81.97343, 26.12674 ], [ -81.98011, 26.15234 ], [ -81.98529, 26.21317 ], [ -82.00546, 26.28442 ], [ -82.03337, 26.27624 ], [ -82.07617, 26.27178 ], [ -82.11233, 26.27387 ], [ -82.16932, 26.28845 ], [ -82.2185, 26.31084 ], [ -82.28055, 26.35412 ], [ -82.30375, 26.37523 ], [ -82.33457, 26.41986 ], [ -82.34706, 26.44946 ], [ -82.35964, 26.50272 ], [ -82.37746, 26.53218 ], [ -82.3903, 26.57524 ], [ -82.41514, 26.61326 ], [ -82.42798, 26.64507 ], [ -82.43317, 26.68682 ], [ -82.43157, 26.73614 ], [ -82.44505, 26.76462 ], [ -82.49877, 26.83572 ], [ -82.54881, 26.91528 ], [ -82.60031, 27.00139 ], [ -82.62842, 27.06374 ], [ -82.6353, 27.08772 ], [ -82.67053, 27.15443 ], [ -82.71089, 27.19484 ], [ -82.73464, 27.24681 ], [ -82.78628, 27.31065 ], [ -82.81015, 27.33071 ], [ -82.83624, 27.36158 ], [ -82.86161, 27.42372 ], [ -82.88981, 27.45701 ], [ -82.92473, 27.53209 ], [ -82.93347, 27.56634 ], [ -82.93283, 27.61652 ], [ -82.91738, 27.66281 ], [ -82.91521, 27.68412 ], [ -82.96549, 27.7339 ], [ -82.99388, 27.77766 ], [ -83.01043, 27.81563 ], [ -83.01794, 27.84835 ], [ -83.01997, 27.8934 ], [ -83.01407, 27.93343 ], [ -82.99844, 27.99025 ], [ -82.99923, 28.02686 ], [ -83.00681, 28.05403 ], [ -83.0125, 28.13373 ], [ -83.0214, 28.19223 ], [ -83.01941, 28.23636 ], [ -83.00915, 28.26806 ], [ -82.9838, 28.30608 ], [ -82.95377, 28.33169 ], [ -82.89735, 28.357 ], [ -82.8776, 28.41267 ], [ -82.87093, 28.44525 ], [ -82.85542, 28.4772 ], [ -82.85822, 28.50755 ], [ -82.85318, 28.54199 ], [ -82.83913, 28.57457 ], [ -82.8679, 28.61502 ], [ -82.87755, 28.64181 ], [ -82.89041, 28.69999 ], [ -82.92049, 28.75714 ], [ -82.92717, 28.81357 ], [ -82.91579, 28.85649 ], [ -82.92886, 28.8762 ], [ -82.94426, 28.91583 ], [ -82.94556, 28.96374 ], [ -82.97844, 28.9518 ], [ -83.02166, 28.94535 ], [ -83.08217, 28.94618 ], [ -83.11743, 28.95194 ], [ -83.16026, 28.96887 ], [ -83.19209, 28.98984 ], [ -83.21862, 29.01691 ], [ -83.25701, 29.08488 ], [ -83.26469, 29.12748 ], [ -83.26207, 29.15571 ], [ -83.29872, 29.17802 ], [ -83.3331, 29.21593 ], [ -83.34678, 29.24348 ], [ -83.35502, 29.28827 ], [ -83.4025, 29.31691 ], [ -83.43565, 29.34969 ], [ -83.50492, 29.38422 ], [ -83.53342, 29.40845 ], [ -83.55089, 29.43114 ], [ -83.56544, 29.46204 ], [ -83.58206, 29.56331 ], [ -83.61439, 29.58841 ], [ -83.64353, 29.59968 ], [ -83.68732, 29.62608 ], [ -83.71006, 29.64918 ], [ -83.74889, 29.7146 ], [ -83.75746, 29.7532 ], [ -83.78089, 29.79003 ], [ -83.83028, 29.81971 ], [ -83.87523, 29.82535 ], [ -83.90865, 29.83689 ], [ -83.93783, 29.85345 ], [ -83.97263, 29.88641 ], [ -84.03828, 29.91817 ], [ -84.06491, 29.94007 ], [ -84.1258, 29.92458 ], [ -84.16079, 29.92126 ], [ -84.1689, 29.87549 ], [ -84.18198, 29.84435 ], [ -84.2023, 29.81314 ], [ -84.22292, 29.79221 ], [ -84.25286, 29.77157 ], [ -84.31487, 29.74945 ], [ -84.36341, 29.7435 ], [ -84.41994, 29.74695 ], [ -84.46015, 29.69843 ], [ -84.48055, 29.68388 ], [ -84.54846, 29.65323 ], [ -84.58867, 29.64073 ], [ -84.64377, 29.59273 ], [ -84.68934, 29.56263 ], [ -84.72688, 29.54492 ], [ -84.78749, 29.52589 ], [ -84.86754, 29.48361 ], [ -84.89635, 29.4712 ], [ -84.985, 29.44554 ], [ -85.0363, 29.43649 ], [ -85.07042, 29.43697 ], [ -85.11266, 29.4464 ], [ -85.14362, 29.46058 ], [ -85.17711, 29.48515 ], [ -85.20405, 29.49392 ], [ -85.25966, 29.5248 ], [ -85.285, 29.51505 ], [ -85.33542, 29.50549 ], [ -85.37284, 29.507 ], [ -85.43133, 29.52506 ], [ -85.47087, 29.5514 ], [ -85.50454, 29.5878 ], [ -85.53198, 29.62822 ], [ -85.55731, 29.68434 ], [ -85.57023, 29.72101 ], [ -85.58647, 29.7909 ], [ -85.58961, 29.83755 ], [ -85.63172, 29.86457 ], [ -85.70978, 29.93583 ], [ -85.74151, 29.9478 ], [ -85.80355, 29.97815 ], [ -85.85019, 30.00919 ], [ -85.87285, 30.03078 ], [ -85.93113, 30.06695 ], [ -86.00549, 30.10605 ], [ -86.07406, 30.13518 ], [ -86.14979, 30.1629 ], [ -86.30637, 30.20939 ], [ -86.385, 30.22521 ], [ -86.44559, 30.2323 ] ] ] } }
]
}
