{
"type": "FeatureCollection",
"name": "Special use - Rest",
"features": [
{ "type": "Feature", "properties": { "fid": 1, "ZoneCode": "001002", "AbrvFull": "NAVA", "NameFull": "Navajo Nation", "ZoneNum": 2, "AbrvPart": "NAVA", "NamePart": null, "ZoneType": "Special use", "StateAbrv": null, "StateName": null, "ProjAbrv": "LC1", "ProjType": "Lambert Conformal Conic, one parallel", "LatOrigin": "36°00'N", "LonOriginE": "250°30'E", "LonOriginW": "109°30'W", "Lat0_deg": 36.0, "Lon0_E_deg": 250.5, "Lon0_W_deg": -109.5, "ProjScale": 1.0002, "SkewAz_deg": -9999, "FalseN_m": 228600.0, "FalseE_m": 762000.0, "FalseN_ift": 750000.0, "FalseE_ift": 2500000.0, "DesignBy": "NGS", "Ref_frame": "NATRF2022" }, "geometry": { "type": "MultiPolygon", "coordinates": [ [ [ [ -107.20336, 35.08887 ], [ -107.20373, 35.0267 ], [ -107.18605, 35.0403 ], [ -107.16287, 35.02033 ], [ -107.15994, 35.04371 ], [ -107.09716, 35.04507 ], [ -107.0969, 35.05841 ], [ -106.99203, 35.05918 ], [ -106.9918, 35.03002 ], [ -106.97243, 35.02964 ], [ -106.97301, 35.05825 ], [ -106.95152, 35.05845 ], [ -106.943, 35.10331 ], [ -106.95626, 35.13092 ], [ -107.00095, 35.1316 ], [ -107.00131, 35.15602 ], [ -107.0394, 35.15606 ], [ -107.03959, 35.18955 ], [ -107.10939, 35.18929 ], [ -107.13171, 35.213 ], [ -107.13256, 35.23381 ], [ -107.16462, 35.24196 ], [ -107.16397, 35.21943 ], [ -107.1843, 35.19374 ], [ -107.1845, 35.15481 ], [ -107.1941, 35.14397 ], [ -107.1614, 35.13134 ], [ -107.16292, 35.10012 ], [ -107.20336, 35.08887 ] ] ], [ [ [ -111.90278, 36.38268 ], [ -111.86064, 36.33693 ], [ -111.86468, 36.31116 ], [ -111.85821, 36.2962 ], [ -111.82468, 36.25972 ], [ -111.82386, 36.23793 ], [ -111.79967, 36.20157 ], [ -111.76252, 36.17395 ], [ -111.76043, 36.00732 ], [ -111.7446, 36.00719 ], [ -111.74511, 35.99196 ], [ -111.72642, 35.99202 ], [ -111.72623, 35.84703 ], [ -111.71118, 35.84714 ], [ -111.70211, 35.74616 ], [ -111.74665, 35.74626 ], [ -111.74651, 35.67207 ], [ -111.63415, 35.67676 ], [ -111.63419, 35.64344 ], [ -111.5546, 35.64095 ], [ -111.55435, 35.69886 ], [ -111.53683, 35.6988 ], [ -111.5369, 35.72821 ], [ -111.51925, 35.72817 ], [ -111.51973, 35.75743 ], [ -111.32737, 35.75711 ], [ -111.32269, 35.67074 ], [ -111.35894, 35.64094 ], [ -111.41296, 35.64073 ], [ -111.38574, 35.6189 ], [ -111.39467, 35.61156 ], [ -111.37799, 35.61149 ], [ -111.37649, 35.61149 ], [ -111.30723, 35.61122 ], [ -111.30413, 35.58501 ], [ -111.28237, 35.57808 ], [ -111.26677, 35.55672 ], [ -111.25679, 35.51478 ], [ -111.2429, 35.48875 ], [ -111.24323, 35.33905 ], [ -111.24189, 35.30125 ], [ -111.24341, 35.17846 ], [ -111.25506, 35.17113 ], [ -111.26182, 35.16566 ], [ -111.24725, 35.16103 ], [ -111.24361, 35.15631 ], [ -110.90802, 35.15636 ], [ -110.90789, 35.16942 ], [ -110.80189, 35.17013 ], [ -110.80182, 35.05776 ], [ -110.75069, 35.04279 ], [ -110.74312, 35.05335 ], [ -110.68054, 35.05346 ], [ -110.68051, 35.02433 ], [ -110.66334, 35.02424 ], [ -110.66236, 34.99501 ], [ -110.64007, 34.99508 ], [ -110.62643, 34.98067 ], [ -110.55544, 34.98085 ], [ -110.55535, 34.96613 ], [ -110.53768, 34.96621 ], [ -110.53754, 34.95159 ], [ -110.50191, 34.95159 ], [ -110.50183, 34.93697 ], [ -110.48397, 34.93699 ], [ -110.48409, 34.9516 ], [ -110.37714, 34.95202 ], [ -110.37817, 35.12201 ], [ -110.36521, 35.12809 ], [ -110.34112, 35.10778 ], [ -110.2695, 35.10786 ], [ -110.2695, 35.10596 ], [ -110.26227, 35.10598 ], [ -110.26893, 35.11195 ], [ -110.26987, 35.1706 ], [ -109.77755, 35.17077 ], [ -109.73258, 35.17045 ], [ -109.7364, 35.07558 ], [ -109.71974, 35.08047 ], [ -109.71512, 35.06719 ], [ -109.66005, 35.06661 ], [ -109.65186, 35.07993 ], [ -109.63224, 35.07967 ], [ -109.63212, 35.08489 ], [ -109.52673, 35.1264 ], [ -109.5265, 34.90449 ], [ -109.50841, 34.90455 ], [ -109.50419, 34.94896 ], [ -109.41653, 34.94904 ], [ -109.40013, 34.9778 ], [ -109.36294, 34.99116 ], [ -109.35389, 34.98532 ], [ -109.31423, 35.00044 ], [ -109.31435, 34.90791 ], [ -109.22176, 34.90745 ], [ -109.04611, 34.90497 ], [ -109.04602, 35.18874 ], [ -108.99744, 35.19057 ], [ -108.94678, 35.19183 ], [ -108.94678, 35.1912 ], [ -108.92879, 35.19907 ], [ -108.8921, 35.19154 ], [ -108.88397, 35.17642 ], [ -108.83918, 35.17701 ], [ -108.83918, 35.17691 ], [ -108.80365, 35.18393 ], [ -108.80395, 35.16221 ], [ -108.7851, 35.16233 ], [ -108.78659, 35.20614 ], [ -108.76976, 35.20547 ], [ -108.76893, 35.21925 ], [ -108.68161, 35.21879 ], [ -108.6808, 35.29001 ], [ -108.68062, 35.30679 ], [ -108.63598, 35.30682 ], [ -108.63516, 35.30667 ], [ -108.63516, 35.30682 ], [ -108.59927, 35.30684 ], [ -108.59932, 35.32123 ], [ -108.58177, 35.32143 ], [ -108.58244, 35.33575 ], [ -108.59963, 35.33564 ], [ -108.59981, 35.34797 ], [ -108.6305, 35.3452 ], [ -108.62513, 35.53854 ], [ -108.5156, 35.50462 ], [ -108.48111, 35.49808 ], [ -108.37022, 35.50598 ], [ -108.37002, 35.48067 ], [ -108.35232, 35.48028 ], [ -108.35233, 35.45222 ], [ -108.31759, 35.45209 ], [ -108.31789, 35.43854 ], [ -108.29951, 35.43831 ], [ -108.29952, 35.42374 ], [ -108.24747, 35.42375 ], [ -108.24794, 35.40912 ], [ -108.1574, 35.40948 ], [ -108.1574, 35.35053 ], [ -108.12433, 35.35048 ], [ -108.12346, 35.29734 ], [ -108.12328, 35.27794 ], [ -108.08338, 35.27753 ], [ -108.0833, 35.26269 ], [ -108.08262, 35.26269 ], [ -108.06441, 35.26269 ], [ -108.04705, 35.26269 ], [ -108.04772, 35.33093 ], [ -107.98524, 35.3473 ], [ -107.94714, 35.33306 ], [ -107.93067, 35.3269 ], [ -107.91333, 35.32043 ], [ -107.91332, 35.31967 ], [ -107.85871, 35.31974 ], [ -107.85914, 35.34023 ], [ -107.86682, 35.34942 ], [ -107.8221, 35.36869 ], [ -107.82229, 35.37795 ], [ -107.82229, 35.37795 ], [ -107.82258, 35.39182 ], [ -107.86482, 35.39137 ], [ -107.85161, 35.43107 ], [ -107.85577, 35.43421 ], [ -107.8566, 35.49221 ], [ -107.86593, 35.50017 ], [ -107.8644, 35.50685 ], [ -107.86151, 35.5076 ], [ -107.87475, 35.50726 ], [ -107.86589, 35.5291 ], [ -107.89121, 35.52893 ], [ -107.8916, 35.56548 ], [ -107.90874, 35.56566 ], [ -107.9092, 35.60795 ], [ -107.9092, 35.60834 ], [ -107.9092, 35.60834 ], [ -107.90952, 35.63761 ], [ -107.92803, 35.63792 ], [ -107.92742, 35.65304 ], [ -107.94942, 35.65292 ], [ -107.94967, 35.73954 ], [ -108.04187, 35.73987 ], [ -108.03659, 35.76896 ], [ -108.05595, 35.77644 ], [ -108.05544, 35.87109 ], [ -108.06487, 35.89144 ], [ -108.05578, 35.89979 ], [ -108.05667, 35.89975 ], [ -108.05635, 35.98739 ], [ -108.02196, 35.9878 ], [ -108.02202, 35.9945 ], [ -108.00367, 35.99455 ], [ -108.01379, 36.00227 ], [ -108.02356, 36.00232 ], [ -108.02136, 36.12581 ], [ -107.97312, 36.13474 ], [ -107.95136, 36.08087 ], [ -107.89564, 36.09096 ], [ -107.89555, 36.07435 ], [ -107.86905, 36.0846 ], [ -107.84149, 36.09022 ], [ -107.78632, 36.02362 ], [ -107.78639, 36.07562 ], [ -107.69971, 36.08234 ], [ -107.69977, 36.04481 ], [ -107.69984, 35.99887 ], [ -107.69996, 35.92864 ], [ -107.70041, 35.92864 ], [ -107.70058, 35.89962 ], [ -107.78844, 35.90063 ], [ -107.78765, 35.8414 ], [ -107.78891, 35.84146 ], [ -107.78936, 35.79649 ], [ -107.78892, 35.7965 ], [ -107.78882, 35.76815 ], [ -107.77985, 35.76805 ], [ -107.78017, 35.74671 ], [ -107.75027, 35.77356 ], [ -107.73431, 35.76627 ], [ -107.73629, 35.65181 ], [ -107.70119, 35.65184 ], [ -107.70139, 35.66746 ], [ -107.62931, 35.66746 ], [ -107.62931, 35.70954 ], [ -107.66823, 35.73608 ], [ -107.65802, 35.76906 ], [ -107.52349, 35.76877 ], [ -107.5232, 35.66078 ], [ -107.52368, 35.6606 ], [ -107.5232, 35.6606 ], [ -107.46867, 35.66048 ], [ -107.43297, 35.64568 ], [ -107.43297, 35.68985 ], [ -107.43284, 35.6898 ], [ -107.43318, 35.72545 ], [ -107.34449, 35.72643 ], [ -107.34433, 35.66066 ], [ -107.29072, 35.6603 ], [ -107.29057, 35.67501 ], [ -107.27319, 35.6751 ], [ -107.27315, 35.69693 ], [ -107.2022, 35.69693 ], [ -107.20203, 35.69665 ], [ -107.18848, 35.69693 ], [ -107.1895, 35.74257 ], [ -107.17476, 35.77643 ], [ -107.15755, 35.7765 ], [ -107.16605, 35.79848 ], [ -107.14766, 35.79864 ], [ -107.1486, 35.82634 ], [ -107.18488, 35.82676 ], [ -107.18455, 35.89632 ], [ -107.25029, 35.92153 ], [ -107.22863, 35.95577 ], [ -107.23168, 35.963 ], [ -107.23168, 35.963 ], [ -107.23772, 35.97732 ], [ -107.28407, 35.95847 ], [ -107.299, 36.01296 ], [ -107.30955, 36.00369 ], [ -107.32473, 36.01071 ], [ -107.32347, 36.08518 ], [ -107.41274, 36.0852 ], [ -107.41264, 36.10135 ], [ -107.42157, 36.10149 ], [ -107.45647, 36.16073 ], [ -107.48762, 36.16577 ], [ -107.4898, 36.21404 ], [ -107.47589, 36.21761 ], [ -107.56132, 36.21904 ], [ -107.56132, 36.23423 ], [ -107.58873, 36.23423 ], [ -107.58867, 36.24918 ], [ -107.62184, 36.24929 ], [ -107.61184, 36.28613 ], [ -107.64048, 36.28433 ], [ -107.67881, 36.29254 ], [ -107.6791, 36.31411 ], [ -107.72172, 36.33159 ], [ -107.7187, 36.41481 ], [ -107.68655, 36.41493 ], [ -107.69674, 36.43711 ], [ -107.72309, 36.43715 ], [ -107.72313, 36.47787 ], [ -107.72288, 36.51211 ], [ -107.72284, 36.51833 ], [ -107.72284, 36.51833 ], [ -107.72248, 36.56763 ], [ -107.7305, 36.56782 ], [ -107.73081, 36.64713 ], [ -107.73081, 36.64713 ], [ -107.73922, 36.65409 ], [ -107.74008, 36.63936 ], [ -107.74008, 36.63936 ], [ -107.7426, 36.59654 ], [ -107.7851, 36.58946 ], [ -107.76182, 36.55055 ], [ -107.75035, 36.53832 ], [ -107.73198, 36.5464 ], [ -107.73246, 36.42956 ], [ -107.85622, 36.43074 ], [ -107.85618, 36.43738 ], [ -107.90161, 36.43768 ], [ -107.95503, 36.48023 ], [ -107.95554, 36.49514 ], [ -107.97205, 36.48173 ], [ -107.98238, 36.48656 ], [ -107.98337, 36.56028 ], [ -108.004, 36.58194 ], [ -108.00339, 36.59731 ], [ -108.01839, 36.60351 ], [ -108.01847, 36.62155 ], [ -108.04015, 36.61774 ], [ -108.03623, 36.6398 ], [ -108.05501, 36.63706 ], [ -108.07198, 36.66228 ], [ -108.108, 36.65474 ], [ -108.10462, 36.69043 ], [ -108.10785, 36.68472 ], [ -108.16594, 36.67881 ], [ -108.20725, 36.69626 ], [ -108.23476, 36.66985 ], [ -108.25288, 36.67771 ], [ -108.25213, 36.73558 ], [ -108.28282, 36.73155 ], [ -108.30566, 36.72051 ], [ -108.32784, 36.7205 ], [ -108.34913, 36.73003 ], [ -108.38593, 36.72543 ], [ -108.41439, 36.75054 ], [ -108.4383, 36.74132 ], [ -108.45983, 36.74208 ], [ -108.54624, 36.77766 ], [ -108.54693, 36.78704 ], [ -108.46747, 36.83436 ], [ -108.46284, 36.85005 ], [ -108.5363, 36.85032 ], [ -108.53641, 36.99935 ], [ -109.04517, 36.99898 ], [ -109.04564, 37.35972 ], [ -109.07967, 37.35982 ], [ -109.0958, 37.35986 ], [ -109.0958, 37.35986 ], [ -109.13215, 37.35997 ], [ -109.13212, 37.37463 ], [ -109.18111, 37.37467 ], [ -109.19225, 37.43225 ], [ -109.24112, 37.43223 ], [ -109.24123, 37.44695 ], [ -109.27729, 37.44698 ], [ -109.27723, 37.46136 ], [ -109.32728, 37.46123 ], [ -109.36701, 37.4617 ], [ -109.3669, 37.44712 ], [ -109.40366, 37.447 ], [ -109.42191, 37.41083 ], [ -109.42193, 37.38902 ], [ -109.45203, 37.36826 ], [ -109.45297, 37.36002 ], [ -109.41512, 37.36006 ], [ -109.39392, 37.36009 ], [ -109.41055, 37.30362 ], [ -109.40968, 37.29278 ], [ -109.41395, 37.29209 ], [ -109.42287, 37.26181 ], [ -109.46914, 37.28317 ], [ -109.52039, 37.27489 ], [ -109.53999, 37.27663 ], [ -109.59081, 37.25999 ], [ -109.62107, 37.25489 ], [ -109.61891, 37.24036 ], [ -109.66439, 37.23539 ], [ -109.67244, 37.22357 ], [ -109.73614, 37.20258 ], [ -109.74779, 37.21517 ], [ -109.77645, 37.18398 ], [ -109.80621, 37.19017 ], [ -109.83356, 37.17964 ], [ -109.85191, 37.19453 ], [ -109.852, 37.19363 ], [ -109.9334, 37.17153 ], [ -109.98051, 37.20842 ], [ -110.04471, 37.23622 ], [ -110.05002, 37.24674 ], [ -110.06296, 37.24023 ], [ -110.09288, 37.25754 ], [ -110.11446, 37.29025 ], [ -110.15401, 37.30371 ], [ -110.14853, 37.31598 ], [ -110.20796, 37.31784 ], [ -110.23209, 37.29431 ], [ -110.26019, 37.29726 ], [ -110.2931, 37.28499 ], [ -110.31167, 37.30407 ], [ -110.34206, 37.29536 ], [ -110.35066, 37.28337 ], [ -110.40336, 37.29224 ], [ -110.41027, 37.28893 ], [ -110.41077, 37.28259 ], [ -110.47784, 37.25367 ], [ -110.50128, 37.25548 ], [ -110.52915, 37.21676 ], [ -110.55689, 37.21809 ], [ -110.57257, 37.19786 ], [ -110.65369, 37.24136 ], [ -110.65626, 37.25591 ], [ -110.6726, 37.25068 ], [ -110.70047, 37.26684 ], [ -110.70516, 37.24953 ], [ -110.65763, 37.23597 ], [ -110.65699, 37.20117 ], [ -110.75603, 37.16894 ], [ -110.78776, 37.16823 ], [ -110.82788, 37.15953 ], [ -110.83629, 37.17678 ], [ -110.84823, 37.16886 ], [ -110.87472, 37.16845 ], [ -110.91646, 37.17542 ], [ -110.93766, 37.14309 ], [ -110.93917, 37.12252 ], [ -110.97454, 37.11061 ], [ -111.01592, 37.11132 ], [ -111.06535, 37.09603 ], [ -111.15517, 37.10326 ], [ -111.16344, 37.09689 ], [ -111.2542, 37.027 ], [ -111.28214, 37.03473 ], [ -111.29263, 37.02283 ], [ -111.36197, 37.00254 ], [ -111.36367, 36.99944 ], [ -111.37132, 36.99981 ], [ -111.386, 36.99552 ], [ -111.38985, 37.00071 ], [ -111.40613, 37.0015 ], [ -111.38978, 36.97546 ], [ -111.40983, 36.95124 ], [ -111.44318, 36.96428 ], [ -111.42097, 36.92693 ], [ -111.42506, 36.87438 ], [ -111.56652, 36.87466 ], [ -111.6162, 36.84887 ], [ -111.61793, 36.83468 ], [ -111.6433, 36.80367 ], [ -111.64782, 36.78115 ], [ -111.66481, 36.75568 ], [ -111.69339, 36.73965 ], [ -111.70789, 36.72065 ], [ -111.71188, 36.69949 ], [ -111.73934, 36.68088 ], [ -111.74487, 36.65581 ], [ -111.76069, 36.64821 ], [ -111.75676, 36.60779 ], [ -111.80493, 36.5731 ], [ -111.8265, 36.53782 ], [ -111.84599, 36.521 ], [ -111.85845, 36.49907 ], [ -111.808, 36.48029 ], [ -111.81044, 36.44443 ], [ -111.87024, 36.431 ], [ -111.86836, 36.41445 ], [ -111.90278, 36.38268 ] ], [ [ -107.49523, 35.88534 ], [ -107.48001, 35.90047 ], [ -107.41548, 35.90072 ], [ -107.41611, 35.86989 ], [ -107.40839, 35.86778 ], [ -107.40839, 35.79013 ], [ -107.53067, 35.79076 ], [ -107.53079, 35.88546 ], [ -107.49523, 35.88534 ] ], [ [ -108.1112, 35.38123 ], [ -108.08082, 35.47927 ], [ -107.97933, 35.47859 ], [ -107.97027, 35.45307 ], [ -108.08161, 35.36137 ], [ -108.1112, 35.38123 ] ], [ [ -111.00104, 35.99084 ], [ -111.00704, 36.00689 ], [ -111.00078, 36.0349 ], [ -111.00068, 36.28032 ], [ -110.93055, 36.28219 ], [ -110.87569, 36.27782 ], [ -110.87431, 36.31002 ], [ -110.85529, 36.32626 ], [ -110.86135, 36.33351 ], [ -110.75598, 36.42078 ], [ -110.74266, 36.39344 ], [ -110.72197, 36.39349 ], [ -110.72174, 36.37574 ], [ -110.5773, 36.375 ], [ -110.55293, 36.39651 ], [ -110.52054, 36.40327 ], [ -110.50291, 36.38813 ], [ -110.45636, 36.4141 ], [ -110.41651, 36.40001 ], [ -110.34557, 36.41336 ], [ -110.33671, 36.4007 ], [ -110.37694, 36.33289 ], [ -110.3837, 36.29909 ], [ -110.41459, 36.28592 ], [ -110.42862, 36.25 ], [ -110.43132, 36.20553 ], [ -110.45679, 36.12397 ], [ -110.49866, 36.15689 ], [ -110.51885, 36.15649 ], [ -110.56924, 36.1426 ], [ -110.61662, 36.09958 ], [ -110.61674, 36.04145 ], [ -110.54536, 36.04148 ], [ -110.54541, 36.01387 ], [ -110.50062, 36.01575 ], [ -110.50069, 36.06789 ], [ -110.40304, 36.07055 ], [ -110.40284, 36.04308 ], [ -110.30903, 36.04328 ], [ -110.29917, 36.01386 ], [ -110.31758, 36.0 ], [ -110.25077, 35.99962 ], [ -110.12445, 35.95143 ], [ -110.12463, 35.92712 ], [ -110.11909, 35.91178 ], [ -110.05355, 35.91407 ], [ -110.05483, 35.84377 ], [ -110.00067, 35.84427 ], [ -110.00068, 35.627 ], [ -110.05742, 35.61866 ], [ -110.09245, 35.73531 ], [ -110.08435, 35.75004 ], [ -110.08306, 35.80921 ], [ -110.1462, 35.80964 ], [ -110.23621, 35.71973 ], [ -110.23083, 35.69728 ], [ -110.19947, 35.69243 ], [ -110.1456, 35.70871 ], [ -110.14722, 35.59076 ], [ -110.27791, 35.59031 ], [ -110.27766, 35.51872 ], [ -110.72307, 35.51988 ], [ -110.72306, 35.50001 ], [ -110.80303, 35.50005 ], [ -110.80356, 35.57841 ], [ -110.83917, 35.57817 ], [ -110.83911, 35.56288 ], [ -110.85608, 35.56285 ], [ -110.856, 35.54858 ], [ -111.00071, 35.54888 ], [ -111.00104, 35.99084 ] ], [ [ -111.24775, 35.96542 ], [ -111.24981, 36.00906 ], [ -111.2731, 36.03274 ], [ -111.29488, 36.10034 ], [ -111.23419, 36.10349 ], [ -111.22473, 36.12127 ], [ -111.15767, 36.1231 ], [ -111.15769, 36.1085 ], [ -111.08269, 36.12583 ], [ -111.08255, 36.05707 ], [ -111.11514, 36.02574 ], [ -111.13902, 36.02327 ], [ -111.13902, 35.96554 ], [ -111.24775, 35.96542 ] ] ], [ [ [ -107.7959, 35.63789 ], [ -107.78694, 35.64575 ], [ -107.79607, 35.64579 ], [ -107.7959, 35.63789 ] ] ], [ [ [ -107.78629, 36.00116 ], [ -107.83888, 36.00144 ], [ -107.83888, 35.98654 ], [ -107.82192, 35.98654 ], [ -107.82194, 35.97181 ], [ -107.80446, 35.97184 ], [ -107.80561, 35.98617 ], [ -107.78627, 35.98617 ], [ -107.78629, 36.00116 ] ] ], [ [ [ -107.8818, 36.00914 ], [ -107.89522, 36.01613 ], [ -107.89518, 36.00899 ], [ -107.8818, 36.00914 ] ] ], [ [ [ -107.94877, 35.76912 ], [ -107.91384, 35.76867 ], [ -107.91361, 35.78308 ], [ -107.9136, 35.7835 ], [ -107.9146, 35.7835 ], [ -107.94848, 35.79804 ], [ -107.94877, 35.76912 ] ] ], [ [ [ -107.60292, 34.52149 ], [ -107.60312, 34.46387 ], [ -107.62026, 34.46377 ], [ -107.62042, 34.43531 ], [ -107.59753, 34.43494 ], [ -107.53911, 34.33252 ], [ -107.53306, 34.33261 ], [ -107.53294, 34.30384 ], [ -107.49789, 34.30417 ], [ -107.4979, 34.30326 ], [ -107.43878, 34.30419 ], [ -107.43857, 34.31782 ], [ -107.41107, 34.31816 ], [ -107.41129, 34.36179 ], [ -107.3941, 34.36183 ], [ -107.39438, 34.37627 ], [ -107.37552, 34.40439 ], [ -107.39416, 34.41928 ], [ -107.39395, 34.44665 ], [ -107.41112, 34.45178 ], [ -107.41101, 34.49226 ], [ -107.44176, 34.49139 ], [ -107.49846, 34.49232 ], [ -107.49836, 34.50705 ], [ -107.5155, 34.50716 ], [ -107.51565, 34.52166 ], [ -107.5654, 34.52166 ], [ -107.56659, 34.52378 ], [ -107.55888, 34.53624 ], [ -107.56795, 34.53623 ], [ -107.56796, 34.55061 ], [ -107.58542, 34.55078 ], [ -107.58562, 34.52152 ], [ -107.60292, 34.52149 ] ] ], [ [ [ -108.55501, 34.8724 ], [ -108.55492, 34.85714 ], [ -108.57272, 34.85706 ], [ -108.57175, 34.78452 ], [ -108.55576, 34.78501 ], [ -108.46762, 34.78482 ], [ -108.46763, 34.78404 ], [ -108.42735, 34.78421 ], [ -108.42508, 34.78002 ], [ -108.44133, 34.75518 ], [ -108.39675, 34.75531 ], [ -108.39708, 34.74084 ], [ -108.36173, 34.73989 ], [ -108.36222, 34.6968 ], [ -108.32789, 34.69706 ], [ -108.32789, 34.69687 ], [ -108.27327, 34.69721 ], [ -108.2735, 34.71208 ], [ -108.25624, 34.7118 ], [ -108.25715, 34.79937 ], [ -108.25533, 34.79938 ], [ -108.25623, 34.87392 ], [ -108.25595, 34.93446 ], [ -108.25646, 34.93446 ], [ -108.25639, 34.9593 ], [ -108.29716, 34.96049 ], [ -108.30153, 34.97465 ], [ -108.30914, 34.96213 ], [ -108.34521, 34.972 ], [ -108.34603, 35.04242 ], [ -108.34638, 35.07169 ], [ -108.34642, 35.07523 ], [ -108.36367, 35.07521 ], [ -108.36372, 35.09054 ], [ -108.39879, 35.09071 ], [ -108.39946, 35.11912 ], [ -108.40006, 35.11912 ], [ -108.45215, 35.11882 ], [ -108.452, 35.13325 ], [ -108.46586, 35.13324 ], [ -108.47113, 35.14773 ], [ -108.52253, 35.14796 ], [ -108.5222, 35.16237 ], [ -108.53978, 35.16246 ], [ -108.53952, 35.10768 ], [ -108.54163, 35.03323 ], [ -108.52284, 35.0334 ], [ -108.52378, 34.99054 ], [ -108.4824, 34.98482 ], [ -108.47779, 34.94288 ], [ -108.55149, 34.91546 ], [ -108.5436, 34.87231 ], [ -108.55501, 34.8724 ] ] ], [ [ [ -113.2812, 35.54445 ], [ -113.23019, 35.52998 ], [ -113.1831, 35.52999 ], [ -113.18312, 35.50703 ], [ -113.143, 35.48168 ], [ -113.14239, 35.45873 ], [ -113.09372, 35.43937 ], [ -112.98056, 35.37504 ], [ -112.96583, 35.34693 ], [ -112.94416, 35.33751 ], [ -112.89472, 35.32955 ], [ -112.77367, 35.30192 ], [ -112.7616, 35.29199 ], [ -112.76185, 35.50086 ], [ -112.65228, 35.50001 ], [ -112.65234, 35.65302 ], [ -112.60912, 35.68851 ], [ -112.61536, 35.70332 ], [ -112.6527, 35.70306 ], [ -112.65345, 35.84649 ], [ -112.51208, 35.84647 ], [ -112.51217, 35.9046 ], [ -112.53016, 35.93362 ], [ -112.52095, 35.95522 ], [ -112.53022, 35.98075 ], [ -112.52551, 36.02061 ], [ -112.53062, 36.03471 ], [ -112.54731, 36.0348 ], [ -112.54727, 36.04971 ], [ -112.60105, 36.04962 ], [ -112.60108, 36.10739 ], [ -112.7619, 36.10793 ], [ -112.76191, 36.16587 ], [ -112.78862, 36.16548 ], [ -112.85154, 36.16539 ], [ -112.85138, 36.15103 ], [ -112.87646, 36.15818 ], [ -112.87733, 35.82001 ], [ -113.2812, 35.54445 ] ] ] ] } },
{ "type": "Feature", "properties": { "fid": 2, "ZoneCode": "001003", "AbrvFull": "KANC", "NameFull": "Kansas City", "ZoneNum": 3, "AbrvPart": "KANC", "NamePart": null, "ZoneType": "Special use", "StateAbrv": null, "StateName": null, "ProjAbrv": "LC1", "ProjType": "Lambert Conformal Conic, one parallel", "LatOrigin": "39°09'N", "LonOriginE": "265°15'E", "LonOriginW": "94°45'W", "Lat0_deg": 39.15, "Lon0_E_deg": 265.25, "Lon0_W_deg": -94.75, "ProjScale": 1.000031, "SkewAz_deg": -9999, "FalseN_m": 342900.0, "FalseE_m": 152400.0, "FalseN_ift": 1125000.0, "FalseE_ift": 500000.0, "DesignBy": "NGS", "Ref_frame": "NATRF2022" }, "geometry": { "type": "Polygon", "coordinates": [ [ [ -95.10141, 39.53326 ], [ -95.05055, 39.49751 ], [ -95.04467, 39.47126 ], [ -95.03341, 39.46088 ], [ -94.99017, 39.44619 ], [ -94.97154, 39.41881 ], [ -95.22697, 39.41903 ], [ -95.46005, 39.42092 ], [ -95.58929, 39.41909 ], [ -95.58947, 39.21608 ], [ -96.03557, 39.21652 ], [ -96.0359, 39.12978 ], [ -96.017, 39.12033 ], [ -96.00379, 39.132 ], [ -95.99129, 39.12723 ], [ -96.00899, 39.11582 ], [ -95.97261, 39.11157 ], [ -95.94675, 39.09869 ], [ -95.94659, 38.86997 ], [ -95.7975, 38.86891 ], [ -95.68717, 38.87005 ], [ -95.50072, 38.86982 ], [ -95.50074, 38.73881 ], [ -94.60908, 38.7381 ], [ -94.60803, 38.84721 ], [ -94.51012, 38.84246 ], [ -94.28759, 38.83508 ], [ -94.11872, 38.83331 ], [ -94.11363, 38.91696 ], [ -94.11019, 38.91761 ], [ -93.83632, 38.90871 ], [ -93.83472, 38.93791 ], [ -93.4978, 38.9283 ], [ -93.47723, 39.2928 ], [ -93.49202, 39.28294 ], [ -93.49622, 39.26489 ], [ -93.48788, 39.22888 ], [ -93.51606, 39.21529 ], [ -93.55954, 39.2188 ], [ -93.58495, 39.24043 ], [ -93.65053, 39.24821 ], [ -93.68159, 39.23124 ], [ -93.70013, 39.20968 ], [ -93.75846, 39.20702 ], [ -93.7591, 39.52427 ], [ -93.80856, 39.52568 ], [ -94.00328, 39.52457 ], [ -94.20842, 39.5272 ], [ -94.21064, 39.45468 ], [ -94.32421, 39.45563 ], [ -94.60082, 39.45616 ], [ -94.60121, 39.53017 ], [ -95.01086, 39.53322 ], [ -95.10141, 39.53326 ] ] ] } },
{ "type": "Feature", "properties": { "fid": 3, "ZoneCode": "002101", "AbrvFull": "GLA", "NameFull": "Gulf Louisiana Shelf", "ZoneNum": 1, "AbrvPart": "GLA", "NamePart": "Louisiana Shelf", "ZoneType": "Special use", "StateAbrv": null, "StateName": null, "ProjAbrv": "LC1", "ProjType": "Lambert Conformal Conic, one parallel", "LatOrigin": "30°00'N", "LonOriginE": "268°40'E", "LonOriginW": "91°20'W", "Lat0_deg": 30.0, "Lon0_E_deg": 268.66666666700002, "Lon0_W_deg": -91.333333333300004, "ProjScale": 0.9999165, "SkewAz_deg": -9999, "FalseN_m": 147761.325, "FalseE_m": 609610.287, "FalseN_ift": 484781.25, "FalseE_ift": 2000033.75, "DesignBy": "NGS", "Ref_frame": "NATRF2022" }, "geometry": { "type": "MultiPolygon", "coordinates": [ [ [ [ -93.81219, 29.59666 ], [ -93.81185, 29.59543 ], [ -93.76923, 29.44305 ], [ -93.77983, 29.44285 ], [ -93.64939, 28.87695 ], [ -93.52038, 28.31097 ], [ -93.41093, 27.82583 ], [ -93.26072, 27.82817 ], [ -93.26149, 27.86873 ], [ -93.17021, 27.87006 ], [ -93.17094, 27.91062 ], [ -92.98829, 27.9131 ], [ -92.9881, 27.90135 ], [ -92.89678, 27.90249 ], [ -92.8974, 27.94305 ], [ -92.61913, 27.94612 ], [ -92.61913, 27.95123 ], [ -92.42504, 27.95301 ], [ -92.42461, 27.91245 ], [ -92.33327, 27.91319 ], [ -92.33367, 27.95375 ], [ -92.19662, 27.95474 ], [ -92.19627, 27.91417 ], [ -92.1607, 27.91441 ], [ -92.1607, 27.92089 ], [ -91.85317, 27.92249 ], [ -91.79831, 27.91921 ], [ -91.79838, 27.93322 ], [ -91.70539, 27.93352 ], [ -91.70553, 27.97338 ], [ -91.65902, 27.9735 ], [ -91.65915, 28.01336 ], [ -91.61262, 28.01347 ], [ -91.61273, 28.05333 ], [ -91.56618, 28.05342 ], [ -91.56608, 28.01356 ], [ -91.47302, 28.01369 ], [ -91.47296, 27.97384 ], [ -91.37994, 27.9739 ], [ -91.37998, 28.05362 ], [ -91.33343, 28.05363 ], [ -91.33342, 28.01968 ], [ -91.23677, 28.01964 ], [ -91.23681, 27.98126 ], [ -91.04358, 27.98097 ], [ -91.04348, 28.01935 ], [ -90.8985, 28.01895 ], [ -90.89834, 28.05733 ], [ -90.51394, 28.05546 ], [ -90.51358, 28.10039 ], [ -90.43331, 28.09985 ], [ -90.43295, 28.14042 ], [ -90.38718, 28.1401 ], [ -90.38681, 28.18067 ], [ -90.24945, 28.17959 ], [ -90.24988, 28.13902 ], [ -90.20411, 28.13863 ], [ -90.20366, 28.1792 ], [ -90.1382, 28.17861 ], [ -90.13798, 28.19767 ], [ -90.09639, 28.19727 ], [ -90.0959, 28.23785 ], [ -90.00428, 28.23694 ], [ -90.00375, 28.27751 ], [ -89.95792, 28.27703 ], [ -89.95737, 28.3176 ], [ -89.93265, 28.31734 ], [ -89.91152, 28.31711 ], [ -89.91095, 28.35768 ], [ -89.93376, 28.35793 ], [ -89.95682, 28.35818 ], [ -89.95571, 28.43932 ], [ -90.00162, 28.4398 ], [ -89.99948, 28.6021 ], [ -90.09144, 28.60301 ], [ -90.09088, 28.64359 ], [ -90.04494, 28.64314 ], [ -90.04443, 28.68372 ], [ -89.94278, 28.68267 ], [ -89.86037, 28.68177 ], [ -89.86062, 28.66482 ], [ -89.72186, 28.66318 ], [ -89.72316, 28.58203 ], [ -89.58526, 28.58024 ], [ -89.58456, 28.62082 ], [ -89.44661, 28.61888 ], [ -89.44705, 28.59504 ], [ -89.36853, 28.59387 ], [ -89.36775, 28.63444 ], [ -89.32176, 28.63374 ], [ -89.32095, 28.67431 ], [ -89.27495, 28.67359 ], [ -89.27329, 28.75474 ], [ -89.22725, 28.754 ], [ -89.22556, 28.83515 ], [ -89.04125, 28.83203 ], [ -89.03941, 28.91317 ], [ -88.9933, 28.91235 ], [ -88.99236, 28.95293 ], [ -88.94623, 28.95209 ], [ -88.94527, 28.99266 ], [ -88.89912, 28.99181 ], [ -88.89814, 29.03238 ], [ -88.8058, 29.03062 ], [ -88.80478, 29.07119 ], [ -88.71242, 29.06937 ], [ -88.71136, 29.10994 ], [ -88.61896, 29.10805 ], [ -88.61787, 29.14862 ], [ -88.57165, 29.14765 ], [ -88.57053, 29.18822 ], [ -88.47806, 29.18623 ], [ -88.47691, 29.2268 ], [ -88.21849, 29.2209 ], [ -88.21688, 29.27274 ], [ -88.09132, 29.26968 ], [ -88.09001, 29.31023 ], [ -87.81246, 29.30305 ], [ -87.81104, 29.34359 ], [ -87.76477, 29.34234 ], [ -87.76332, 29.38288 ], [ -87.85591, 29.38537 ], [ -87.8545, 29.42591 ], [ -87.90081, 29.42714 ], [ -87.89942, 29.46768 ], [ -87.99209, 29.47008 ], [ -87.99074, 29.51062 ], [ -88.03709, 29.5118 ], [ -88.03576, 29.55234 ], [ -88.1285, 29.55464 ], [ -88.1272, 29.59519 ], [ -88.1736, 29.59631 ], [ -88.17232, 29.63686 ], [ -88.21873, 29.63797 ], [ -88.21747, 29.67852 ], [ -88.31003, 29.68068 ], [ -88.3088, 29.72125 ], [ -88.40176, 29.72336 ], [ -88.40057, 29.76393 ], [ -88.44707, 29.76496 ], [ -88.4459, 29.80553 ], [ -88.58546, 29.80852 ], [ -88.58435, 29.8491 ], [ -88.63089, 29.85006 ], [ -88.62979, 29.89063 ], [ -88.67635, 29.89158 ], [ -88.67527, 29.93215 ], [ -88.72185, 29.93309 ], [ -88.72079, 29.97366 ], [ -88.76521, 29.97453 ], [ -88.75839, 29.91827 ], [ -88.76725, 29.84077 ], [ -88.80182, 29.7502 ], [ -88.82343, 29.71499 ], [ -88.86994, 29.6571 ], [ -88.91266, 29.61178 ], [ -88.9602, 29.5771 ], [ -89.03887, 29.49223 ], [ -89.07229, 29.47084 ], [ -89.11945, 29.45807 ], [ -89.14207, 29.42947 ], [ -89.13761, 29.38143 ], [ -89.12162, 29.3665 ], [ -89.11216, 29.33967 ], [ -89.09453, 29.32893 ], [ -89.06943, 29.2943 ], [ -89.02261, 29.27446 ], [ -89.00004, 29.27148 ], [ -88.94205, 29.25374 ], [ -88.91831, 29.23628 ], [ -88.90915, 29.20016 ], [ -88.91765, 29.17944 ], [ -88.91324, 29.15457 ], [ -88.92781, 29.11728 ], [ -88.96744, 29.09507 ], [ -88.9969, 29.0853 ], [ -89.001, 29.05701 ], [ -89.01269, 29.02768 ], [ -89.04564, 29.00694 ], [ -89.08883, 28.96115 ], [ -89.09605, 28.94249 ], [ -89.13328, 28.91973 ], [ -89.16907, 28.92257 ], [ -89.19654, 28.93996 ], [ -89.20958, 28.9702 ], [ -89.2349, 28.98715 ], [ -89.2796, 28.97778 ], [ -89.30515, 28.95609 ], [ -89.32067, 28.9344 ], [ -89.38473, 28.8715 ], [ -89.4257, 28.85513 ], [ -89.45653, 28.86061 ], [ -89.48764, 28.88737 ], [ -89.49184, 28.91941 ], [ -89.46941, 28.95618 ], [ -89.46574, 28.97444 ], [ -89.46342, 29.08282 ], [ -89.46867, 29.10746 ], [ -89.50232, 29.15838 ], [ -89.52047, 29.17219 ], [ -89.55365, 29.18598 ], [ -89.61043, 29.19864 ], [ -90.03232, 29.13504 ], [ -90.05557, 29.12196 ], [ -90.09259, 29.09199 ], [ -90.15125, 29.05635 ], [ -90.2007, 29.03618 ], [ -90.23906, 29.0331 ], [ -90.34432, 29.00318 ], [ -90.36841, 29.00343 ], [ -90.40938, 28.99534 ], [ -90.47985, 29.00861 ], [ -90.55255, 29.03681 ], [ -90.72076, 28.99263 ], [ -90.74686, 28.9886 ], [ -90.82265, 28.98591 ], [ -90.86456, 28.99159 ], [ -90.90708, 28.99113 ], [ -90.97029, 29.00503 ], [ -91.00876, 29.0269 ], [ -91.02076, 29.04607 ], [ -91.02303, 29.0674 ], [ -91.0009, 29.10048 ], [ -90.96037, 29.11106 ], [ -90.97492, 29.12151 ], [ -91.00605, 29.11999 ], [ -91.07233, 29.13153 ], [ -91.11839, 29.14277 ], [ -91.14936, 29.16508 ], [ -91.20784, 29.17116 ], [ -91.29268, 29.19618 ], [ -91.3187, 29.20836 ], [ -91.37691, 29.26259 ], [ -91.39165, 29.28187 ], [ -91.42113, 29.30283 ], [ -91.52974, 29.34446 ], [ -91.56832, 29.34807 ], [ -91.59426, 29.36031 ], [ -91.61323, 29.36063 ], [ -91.64404, 29.37556 ], [ -91.66253, 29.37459 ], [ -91.69999, 29.36009 ], [ -91.72341, 29.36342 ], [ -91.77749, 29.39608 ], [ -91.79318, 29.38254 ], [ -91.84093, 29.36019 ], [ -91.87503, 29.36199 ], [ -91.89765, 29.37522 ], [ -91.91301, 29.40569 ], [ -91.91321, 29.42021 ], [ -91.96483, 29.43939 ], [ -91.98387, 29.46071 ], [ -92.00731, 29.46338 ], [ -92.02985, 29.47596 ], [ -92.04562, 29.50581 ], [ -92.07805, 29.53149 ], [ -92.11414, 29.53514 ], [ -92.14667, 29.53204 ], [ -92.18332, 29.51833 ], [ -92.22346, 29.49471 ], [ -92.26398, 29.48415 ], [ -92.29367, 29.4815 ], [ -92.35366, 29.48872 ], [ -92.40502, 29.50029 ], [ -92.55982, 29.51818 ], [ -92.63254, 29.52972 ], [ -92.66579, 29.53788 ], [ -92.75071, 29.56488 ], [ -92.80676, 29.58639 ], [ -92.977, 29.65958 ], [ -93.02911, 29.67786 ], [ -93.12515, 29.70621 ], [ -93.22317, 29.7264 ], [ -93.28735, 29.72433 ], [ -93.30363, 29.7061 ], [ -93.34944, 29.69541 ], [ -93.38725, 29.71377 ], [ -93.43276, 29.71853 ], [ -93.48775, 29.71781 ], [ -93.64479, 29.70027 ], [ -93.72267, 29.68787 ], [ -93.77015, 29.67083 ], [ -93.77036, 29.62392 ], [ -93.78593, 29.60594 ], [ -93.81219, 29.59666 ] ], [ [ -93.81185, 29.59543 ], [ -93.81145, 29.59546 ], [ -93.81172, 29.59541 ], [ -93.81185, 29.59543 ] ] ], [ [ [ -88.76721, 29.98181 ], [ -88.76635, 30.01515 ], [ -88.77881, 30.01539 ], [ -88.76721, 29.98181 ] ] ] ] } },
{ "type": "Feature", "properties": { "fid": 4, "ZoneCode": "002102", "AbrvFull": "GTXN", "NameFull": "Gulf Texas Shelf North", "ZoneNum": 2, "AbrvPart": "GTXN", "NamePart": "Texas Shelf North", "ZoneType": "Special use", "StateAbrv": null, "StateName": null, "ProjAbrv": "LC1", "ProjType": "Lambert Conformal Conic, one parallel", "LatOrigin": "29°19'57\"N", "LonOriginE": "261°00'E", "LonOriginW": "99°00'W", "Lat0_deg": 29.3325, "Lon0_E_deg": 261.0, "Lon0_W_deg": -99.0, "ProjScale": 0.9998499, "SkewAz_deg": -9999, "FalseN_m": 166114.095, "FalseE_m": 609633.909, "FalseN_ift": 544993.75, "FalseE_ift": 2000111.25, "DesignBy": "NGS", "Ref_frame": "NATRF2022" }, "geometry": { "type": "MultiPolygon", "coordinates": [ [ [ [ -93.41093, 27.82583 ], [ -93.52038, 28.31097 ], [ -93.64939, 28.87695 ], [ -93.77983, 29.44285 ], [ -93.76923, 29.44305 ], [ -93.81185, 29.59543 ], [ -93.81219, 29.59666 ], [ -93.84859, 29.60026 ], [ -93.87501, 29.62143 ], [ -93.90604, 29.625 ], [ -94.03356, 29.625 ], [ -94.12518, 29.59556 ], [ -94.37035, 29.50023 ], [ -94.37587, 29.49978 ], [ -94.49945, 29.45234 ], [ -94.62519, 29.39766 ], [ -94.65031, 29.38282 ], [ -94.63605, 29.37064 ], [ -94.6239, 29.34314 ], [ -94.64242, 29.30014 ], [ -94.66622, 29.28105 ], [ -94.69231, 29.27705 ], [ -94.71331, 29.28252 ], [ -94.77269, 29.23172 ], [ -94.84015, 29.19835 ], [ -94.91212, 29.15932 ], [ -95.0002, 29.10445 ], [ -95.0864, 29.06824 ], [ -95.09434, 29.03224 ], [ -95.10545, 29.01605 ], [ -95.13947, 28.9917 ], [ -95.18051, 28.94924 ], [ -95.22723, 28.91038 ], [ -95.30812, 28.85883 ], [ -95.32211, 28.83444 ], [ -95.35347, 28.81786 ], [ -95.4017, 28.80592 ], [ -95.42007, 28.80563 ], [ -95.49389, 28.76534 ], [ -95.53202, 28.75026 ], [ -95.75024, 28.63842 ], [ -95.87524, 28.58279 ], [ -96.07833, 28.5 ], [ -96.18224, 28.45204 ], [ -96.25819, 28.40787 ], [ -96.27177, 28.38293 ], [ -96.29417, 28.36831 ], [ -96.32076, 28.36287 ], [ -96.34129, 28.3407 ], [ -96.35269, 28.31292 ], [ -96.37525, 28.29076 ], [ -96.531, 28.22116 ], [ -96.61878, 28.16952 ], [ -96.74625, 28.07962 ], [ -96.8442, 28.0003 ], [ -96.87526, 27.96992 ], [ -96.95949, 27.8753 ], [ -96.97228, 27.83841 ], [ -96.88484, 27.83841 ], [ -96.44368, 27.83057 ], [ -95.85616, 27.81783 ], [ -95.36596, 27.80519 ], [ -95.26854, 27.80246 ], [ -95.26698, 27.846 ], [ -95.12004, 27.84174 ], [ -95.11841, 27.88528 ], [ -94.53054, 27.86661 ], [ -94.52867, 27.91014 ], [ -94.43067, 27.90677 ], [ -94.43259, 27.86325 ], [ -93.89394, 27.84343 ], [ -93.89608, 27.79991 ], [ -93.84714, 27.798 ], [ -93.84499, 27.84152 ], [ -93.74708, 27.83764 ], [ -93.74928, 27.79413 ], [ -93.65142, 27.79018 ], [ -93.64918, 27.8337 ], [ -93.60023, 27.83169 ], [ -93.59797, 27.87521 ], [ -93.45107, 27.86909 ], [ -93.4534, 27.82558 ], [ -93.41093, 27.82583 ] ] ], [ [ [ -93.81185, 29.59543 ], [ -93.81172, 29.59541 ], [ -93.81145, 29.59546 ], [ -93.81185, 29.59543 ] ] ] ] } },
{ "type": "Feature", "properties": { "fid": 5, "ZoneCode": "002103", "AbrvFull": "GTXS", "NameFull": "Gulf Texas Shelf South", "ZoneNum": 3, "AbrvPart": "GTXS", "NamePart": "Texas Shelf South", "ZoneType": "Special use", "StateAbrv": null, "StateName": null, "ProjAbrv": "LC1", "ProjType": "Lambert Conformal Conic, one parallel", "LatOrigin": "27°00'N", "LonOriginE": "261°30'E", "LonOriginW": "98°30'W", "Lat0_deg": 27.0, "Lon0_E_deg": 261.5, "Lon0_W_deg": -98.5, "ProjScale": 0.9998844, "SkewAz_deg": -9999, "FalseN_m": 147679.41, "FalseE_m": 609630.48, "FalseN_ift": 484512.5, "FalseE_ift": 2000100.0, "DesignBy": "NGS", "Ref_frame": "NATRF2022" }, "geometry": { "type": "Polygon", "coordinates": [ [ [ -95.91366, 27.6069 ], [ -95.90865, 27.65038 ], [ -95.81081, 27.64856 ], [ -95.80977, 27.69212 ], [ -95.76083, 27.69118 ], [ -95.75977, 27.73474 ], [ -95.515, 27.7298 ], [ -95.51384, 27.77335 ], [ -95.36694, 27.77018 ], [ -95.36596, 27.80519 ], [ -95.85616, 27.81783 ], [ -96.44368, 27.83057 ], [ -96.88484, 27.83841 ], [ -96.97228, 27.83841 ], [ -96.98428, 27.80378 ], [ -97.02185, 27.78336 ], [ -97.05022, 27.75031 ], [ -97.12526, 27.6406 ], [ -97.19982, 27.50032 ], [ -97.25026, 27.39231 ], [ -97.29657, 27.25032 ], [ -97.30936, 27.19611 ], [ -97.31982, 27.11002 ], [ -97.32322, 27.01026 ], [ -97.31595, 26.92929 ], [ -97.30042, 26.83461 ], [ -97.28272, 26.76342 ], [ -97.2517, 26.66187 ], [ -97.21406, 26.57677 ], [ -97.21255, 26.56165 ], [ -97.18457, 26.47585 ], [ -97.1565, 26.37535 ], [ -97.12612, 26.25035 ], [ -97.11015, 26.14058 ], [ -97.1083, 26.10451 ], [ -97.08999, 26.07534 ], [ -97.09786, 26.03862 ], [ -97.09489, 26.01016 ], [ -96.81186, 26.00794 ], [ -96.80829, 26.00897 ], [ -96.33178, 26.00996 ], [ -96.33029, 26.08845 ], [ -96.37854, 26.08919 ], [ -96.37611, 26.21991 ], [ -96.3278, 26.21917 ], [ -96.32364, 26.43703 ], [ -96.37204, 26.43778 ], [ -96.36959, 26.5685 ], [ -96.41805, 26.56923 ], [ -96.41645, 26.65637 ], [ -96.46494, 26.65708 ], [ -96.46259, 26.78781 ], [ -96.51115, 26.7885 ], [ -96.50885, 26.91922 ], [ -96.46024, 26.91853 ], [ -96.4571, 27.09282 ], [ -96.40842, 27.0921 ], [ -96.4068, 27.17924 ], [ -96.35808, 27.17851 ], [ -96.35643, 27.26565 ], [ -96.30767, 27.2649 ], [ -96.30683, 27.30847 ], [ -96.25805, 27.30771 ], [ -96.25719, 27.35127 ], [ -96.20839, 27.35049 ], [ -96.20662, 27.43763 ], [ -96.15779, 27.43682 ], [ -96.15689, 27.48039 ], [ -96.10804, 27.47957 ], [ -96.10711, 27.52314 ], [ -96.05825, 27.5223 ], [ -96.0573, 27.56587 ], [ -95.95954, 27.56415 ], [ -95.95855, 27.60771 ], [ -95.91366, 27.6069 ] ] ] } },
{ "type": "Feature", "properties": { "fid": 6, "ZoneCode": "002104", "AbrvFull": "GW", "NameFull": "Gulf West", "ZoneNum": 4, "AbrvPart": "GW", "NamePart": "West", "ZoneType": "Special use", "StateAbrv": null, "StateName": null, "ProjAbrv": "TM", "ProjType": "Transverse Mercator", "LatOrigin": "0°00'N", "LonOriginE": "261°00'E", "LonOriginW": "99°00'W", "Lat0_deg": 0.0, "Lon0_E_deg": 261.0, "Lon0_W_deg": -99.0, "ProjScale": 0.999584, "SkewAz_deg": -9999, "FalseN_m": -161.163, "FalseE_m": 500032.02, "FalseN_ift": -528.75, "FalseE_ift": 1640525.0, "DesignBy": "NGS", "Ref_frame": "NATRF2022" }, "geometry": { "type": "MultiPolygon", "coordinates": [ [ [ [ -96.81186, 26.00794 ], [ -97.09489, 26.01016 ], [ -97.0899, 25.9609 ], [ -96.92451, 25.97551 ], [ -96.81186, 26.00794 ] ] ], [ [ [ -95.87305, 26.00943 ], [ -95.88765, 26.59935 ], [ -95.91366, 27.6069 ], [ -95.95855, 27.60771 ], [ -95.95954, 27.56415 ], [ -96.0573, 27.56587 ], [ -96.05825, 27.5223 ], [ -96.10711, 27.52314 ], [ -96.10804, 27.47957 ], [ -96.15689, 27.48039 ], [ -96.15779, 27.43682 ], [ -96.20662, 27.43763 ], [ -96.20839, 27.35049 ], [ -96.25719, 27.35127 ], [ -96.25805, 27.30771 ], [ -96.30683, 27.30847 ], [ -96.30767, 27.2649 ], [ -96.35643, 27.26565 ], [ -96.35808, 27.17851 ], [ -96.4068, 27.17924 ], [ -96.40842, 27.0921 ], [ -96.4571, 27.09282 ], [ -96.46024, 26.91853 ], [ -96.50885, 26.91922 ], [ -96.51115, 26.7885 ], [ -96.46259, 26.78781 ], [ -96.46494, 26.65708 ], [ -96.41645, 26.65637 ], [ -96.41805, 26.56923 ], [ -96.36959, 26.5685 ], [ -96.37204, 26.43778 ], [ -96.32364, 26.43703 ], [ -96.3278, 26.21917 ], [ -96.37611, 26.21991 ], [ -96.37854, 26.08919 ], [ -96.33029, 26.08845 ], [ -96.33178, 26.00996 ], [ -95.87305, 26.00943 ] ] ] ] } },
{ "type": "Feature", "properties": { "fid": 7, "ZoneCode": "002105", "AbrvFull": "GWC", "NameFull": "Gulf West Central", "ZoneNum": 5, "AbrvPart": "GWC", "NamePart": "West Central", "ZoneType": "Special use", "StateAbrv": null, "StateName": null, "ProjAbrv": "TM", "ProjType": "Transverse Mercator", "LatOrigin": "0°00'N", "LonOriginE": "267°00'E", "LonOriginW": "93°00'W", "Lat0_deg": 0.0, "Lon0_E_deg": 267.0, "Lon0_W_deg": -93.0, "ProjScale": 0.9995867, "SkewAz_deg": -9999, "FalseN_m": -167.259, "FalseE_m": 500012.589, "FalseN_ift": -548.75, "FalseE_ift": 1640461.25, "DesignBy": "NGS", "Ref_frame": "NATRF2022" }, "geometry": { "type": "MultiPolygon", "coordinates": [ [ [ [ -89.86679, 25.7602 ], [ -89.88623, 26.55099 ], [ -89.91205, 27.55328 ], [ -89.93265, 28.31734 ], [ -89.95737, 28.3176 ], [ -89.95792, 28.27703 ], [ -90.00375, 28.27751 ], [ -90.00428, 28.23694 ], [ -90.0959, 28.23785 ], [ -90.09639, 28.19727 ], [ -90.13798, 28.19767 ], [ -90.1382, 28.17861 ], [ -90.20366, 28.1792 ], [ -90.20411, 28.13863 ], [ -90.24988, 28.13902 ], [ -90.24945, 28.17959 ], [ -90.38681, 28.18067 ], [ -90.38718, 28.1401 ], [ -90.43295, 28.14042 ], [ -90.43331, 28.09985 ], [ -90.51358, 28.10039 ], [ -90.51394, 28.05546 ], [ -90.89834, 28.05733 ], [ -90.8985, 28.01895 ], [ -91.04348, 28.01935 ], [ -91.04358, 27.98097 ], [ -91.23681, 27.98126 ], [ -91.23677, 28.01964 ], [ -91.33342, 28.01968 ], [ -91.33343, 28.05363 ], [ -91.37998, 28.05362 ], [ -91.37994, 27.9739 ], [ -91.47296, 27.97384 ], [ -91.47302, 28.01369 ], [ -91.56608, 28.01356 ], [ -91.56618, 28.05342 ], [ -91.61273, 28.05333 ], [ -91.61262, 28.01347 ], [ -91.65915, 28.01336 ], [ -91.65902, 27.9735 ], [ -91.70553, 27.97338 ], [ -91.70539, 27.93352 ], [ -91.79838, 27.93322 ], [ -91.79831, 27.91921 ], [ -91.85317, 27.92249 ], [ -92.1607, 27.92089 ], [ -92.1607, 27.91441 ], [ -92.19627, 27.91417 ], [ -92.19662, 27.95474 ], [ -92.33367, 27.95375 ], [ -92.33327, 27.91319 ], [ -92.42461, 27.91245 ], [ -92.42504, 27.95301 ], [ -92.61913, 27.95123 ], [ -92.61913, 27.94612 ], [ -92.8974, 27.94305 ], [ -92.89678, 27.90249 ], [ -92.9881, 27.90135 ], [ -92.98829, 27.9131 ], [ -93.17094, 27.91062 ], [ -93.17021, 27.87006 ], [ -93.26149, 27.86873 ], [ -93.26072, 27.82817 ], [ -93.41093, 27.82583 ], [ -93.4534, 27.82558 ], [ -93.45107, 27.86909 ], [ -93.59797, 27.87521 ], [ -93.60023, 27.83169 ], [ -93.64918, 27.8337 ], [ -93.65142, 27.79018 ], [ -93.74928, 27.79413 ], [ -93.74708, 27.83764 ], [ -93.84499, 27.84152 ], [ -93.84714, 27.798 ], [ -93.89608, 27.79991 ], [ -93.89394, 27.84343 ], [ -94.43259, 27.86325 ], [ -94.43067, 27.90677 ], [ -94.52867, 27.91014 ], [ -94.53054, 27.86661 ], [ -95.11841, 27.88528 ], [ -95.12004, 27.84174 ], [ -95.26698, 27.846 ], [ -95.26854, 27.80246 ], [ -95.36596, 27.80519 ], [ -95.36694, 27.77018 ], [ -95.51384, 27.77335 ], [ -95.515, 27.7298 ], [ -95.75977, 27.73474 ], [ -95.76083, 27.69118 ], [ -95.80977, 27.69212 ], [ -95.81081, 27.64856 ], [ -95.90865, 27.65038 ], [ -95.91366, 27.6069 ], [ -95.88765, 26.59935 ], [ -95.87305, 26.00943 ], [ -95.65741, 26.00868 ], [ -95.23192, 26.00906 ], [ -94.84343, 26.00833 ], [ -94.28845, 26.00546 ], [ -93.93699, 26.00254 ], [ -93.44514, 25.99706 ], [ -93.25275, 25.90761 ], [ -92.99486, 25.77608 ], [ -92.93222, 25.67425 ], [ -92.52789, 25.65619 ], [ -92.13314, 25.63706 ], [ -91.65817, 25.61283 ], [ -91.342, 25.66197 ], [ -91.09025, 25.70394 ], [ -90.49471, 25.78142 ], [ -90.12568, 25.76928 ], [ -89.86679, 25.7602 ] ] ], [ [ [ -89.94278, 28.68267 ], [ -90.04443, 28.68372 ], [ -90.04494, 28.64314 ], [ -90.09088, 28.64359 ], [ -90.09144, 28.60301 ], [ -89.99948, 28.6021 ], [ -90.00162, 28.4398 ], [ -89.95571, 28.43932 ], [ -89.95682, 28.35818 ], [ -89.93376, 28.35793 ], [ -89.94278, 28.68267 ] ] ] ] } },
{ "type": "Feature", "properties": { "fid": 8, "ZoneCode": "002106", "AbrvFull": "GEC", "NameFull": "Gulf East Central", "ZoneNum": 6, "AbrvPart": "GEC", "NamePart": "East Central", "ZoneType": "Special use", "StateAbrv": null, "StateName": null, "ProjAbrv": "TM", "ProjType": "Transverse Mercator", "LatOrigin": "0°00'N", "LonOriginE": "273°00'E", "LonOriginW": "87°00'W", "Lat0_deg": 0.0, "Lon0_E_deg": 273.0, "Lon0_W_deg": -87.0, "ProjScale": 0.9995904, "SkewAz_deg": -9999, "FalseN_m": -178.308, "FalseE_m": 499995.063, "FalseN_ift": -585.0, "FalseE_ift": 1640403.75, "DesignBy": "NGS", "Ref_frame": "NATRF2022" }, "geometry": { "type": "Polygon", "coordinates": [ [ [ -84.07882, 29.93701 ], [ -84.12581, 29.92459 ], [ -84.1608, 29.92127 ], [ -84.16891, 29.8755 ], [ -84.18199, 29.84436 ], [ -84.20231, 29.81315 ], [ -84.22293, 29.79222 ], [ -84.25287, 29.77158 ], [ -84.31488, 29.74946 ], [ -84.36342, 29.74351 ], [ -84.41995, 29.74696 ], [ -84.46016, 29.69844 ], [ -84.48056, 29.68389 ], [ -84.54847, 29.65324 ], [ -84.58868, 29.64074 ], [ -84.64378, 29.59274 ], [ -84.68935, 29.56264 ], [ -84.72689, 29.54493 ], [ -84.7875, 29.5259 ], [ -84.86755, 29.48362 ], [ -84.89636, 29.47121 ], [ -84.98501, 29.44555 ], [ -85.03631, 29.4365 ], [ -85.07043, 29.43698 ], [ -85.11267, 29.44641 ], [ -85.14363, 29.46059 ], [ -85.17712, 29.48516 ], [ -85.20406, 29.49393 ], [ -85.25967, 29.52481 ], [ -85.28501, 29.51506 ], [ -85.33543, 29.5055 ], [ -85.37285, 29.50701 ], [ -85.43134, 29.52507 ], [ -85.47088, 29.55141 ], [ -85.50455, 29.58781 ], [ -85.53199, 29.62823 ], [ -85.55732, 29.68435 ], [ -85.57024, 29.72102 ], [ -85.58648, 29.79091 ], [ -85.58962, 29.83756 ], [ -85.63173, 29.86458 ], [ -85.70979, 29.93584 ], [ -85.74152, 29.94781 ], [ -85.80356, 29.97816 ], [ -85.8502, 30.0092 ], [ -85.87286, 30.03079 ], [ -85.93114, 30.06696 ], [ -86.0055, 30.10606 ], [ -86.07407, 30.13519 ], [ -86.1498, 30.16291 ], [ -86.30638, 30.2094 ], [ -86.38501, 30.22522 ], [ -86.4456, 30.23231 ], [ -86.51951, 30.23134 ], [ -86.5913, 30.24282 ], [ -86.64058, 30.24631 ], [ -86.71348, 30.24363 ], [ -86.8556, 30.22792 ], [ -87.01234, 30.20106 ], [ -87.12004, 30.18059 ], [ -87.18002, 30.17244 ], [ -87.25829, 30.16542 ], [ -87.30281, 30.1683 ], [ -87.38012, 30.15098 ], [ -87.51837, 30.12553 ], [ -87.51835, 30.22951 ], [ -87.64782, 30.19921 ], [ -87.718, 30.19176 ], [ -87.80715, 30.17738 ], [ -87.92576, 30.17956 ], [ -88.00362, 30.17342 ], [ -88.02804, 30.15038 ], [ -88.0461, 30.14469 ], [ -88.07487, 30.14715 ], [ -88.10342, 30.16638 ], [ -88.13161, 30.17362 ], [ -88.16202, 30.20009 ], [ -88.27794, 30.18007 ], [ -88.3103, 30.17782 ], [ -88.34772, 30.19009 ], [ -88.38517, 30.15814 ], [ -88.43351, 30.14722 ], [ -88.46128, 30.14669 ], [ -88.50979, 30.15794 ], [ -88.54585, 30.17665 ], [ -88.56787, 30.17045 ], [ -88.60388, 30.17061 ], [ -88.66725, 30.17833 ], [ -88.71739, 30.19088 ], [ -88.7539, 30.18821 ], [ -88.80064, 30.20239 ], [ -88.82139, 30.21737 ], [ -88.85039, 30.19228 ], [ -88.90033, 30.16998 ], [ -88.88903, 30.13985 ], [ -88.85491, 30.13553 ], [ -88.83435, 30.09071 ], [ -88.80297, 30.05783 ], [ -88.77881, 30.01539 ], [ -88.76635, 30.01515 ], [ -88.76721, 29.98181 ], [ -88.76521, 29.97453 ], [ -88.72079, 29.97366 ], [ -88.72185, 29.93309 ], [ -88.67527, 29.93215 ], [ -88.67635, 29.89158 ], [ -88.62979, 29.89063 ], [ -88.63089, 29.85006 ], [ -88.58435, 29.8491 ], [ -88.58546, 29.80852 ], [ -88.4459, 29.80553 ], [ -88.44707, 29.76496 ], [ -88.40057, 29.76393 ], [ -88.40176, 29.72336 ], [ -88.3088, 29.72125 ], [ -88.31003, 29.68068 ], [ -88.21747, 29.67852 ], [ -88.21873, 29.63797 ], [ -88.17232, 29.63686 ], [ -88.1736, 29.59631 ], [ -88.1272, 29.59519 ], [ -88.1285, 29.55464 ], [ -88.03576, 29.55234 ], [ -88.03709, 29.5118 ], [ -87.99074, 29.51062 ], [ -87.99209, 29.47008 ], [ -87.89942, 29.46768 ], [ -87.90081, 29.42714 ], [ -87.8545, 29.42591 ], [ -87.85591, 29.38537 ], [ -87.76332, 29.38288 ], [ -87.76477, 29.34234 ], [ -87.81104, 29.34359 ], [ -87.81246, 29.30305 ], [ -88.09001, 29.31023 ], [ -88.09132, 29.26968 ], [ -88.21688, 29.27274 ], [ -88.21849, 29.2209 ], [ -88.47691, 29.2268 ], [ -88.47806, 29.18623 ], [ -88.57053, 29.18822 ], [ -88.57165, 29.14765 ], [ -88.61787, 29.14862 ], [ -88.61896, 29.10805 ], [ -88.71136, 29.10994 ], [ -88.71242, 29.06937 ], [ -88.80478, 29.07119 ], [ -88.8058, 29.03062 ], [ -88.89814, 29.03238 ], [ -88.89912, 28.99181 ], [ -88.94527, 28.99266 ], [ -88.94623, 28.95209 ], [ -88.99236, 28.95293 ], [ -88.9933, 28.91235 ], [ -89.03941, 28.91317 ], [ -89.04125, 28.83203 ], [ -89.22556, 28.83515 ], [ -89.22725, 28.754 ], [ -89.27329, 28.75474 ], [ -89.27495, 28.67359 ], [ -89.32095, 28.67431 ], [ -89.32176, 28.63374 ], [ -89.36775, 28.63444 ], [ -89.36853, 28.59387 ], [ -89.44705, 28.59504 ], [ -89.44661, 28.61888 ], [ -89.58456, 28.62082 ], [ -89.58526, 28.58024 ], [ -89.72316, 28.58203 ], [ -89.72186, 28.66318 ], [ -89.86062, 28.66482 ], [ -89.86037, 28.68177 ], [ -89.94278, 28.68267 ], [ -89.93376, 28.35793 ], [ -89.91095, 28.35768 ], [ -89.91152, 28.31711 ], [ -89.93265, 28.31734 ], [ -89.91205, 27.55328 ], [ -89.88623, 26.55099 ], [ -89.86679, 25.7602 ], [ -89.48009, 25.74579 ], [ -89.01911, 25.72725 ], [ -88.36114, 25.69861 ], [ -88.27792, 25.69191 ], [ -87.94095, 25.66793 ], [ -87.45975, 25.63233 ], [ -87.04489, 25.60034 ], [ -87.00961, 25.50034 ], [ -86.55266, 25.20699 ], [ -86.33368, 25.08541 ], [ -85.99986, 24.89898 ], [ -85.71985, 24.73788 ], [ -85.53179, 24.64899 ], [ -85.10539, 24.44345 ], [ -84.76872, 24.27791 ], [ -84.64427, 24.22207 ], [ -84.49094, 24.16013 ], [ -83.99982, 23.97709 ], [ -83.92017, 23.95789 ], [ -83.94192, 24.89698 ], [ -83.96531, 25.85725 ], [ -83.98984, 26.81503 ], [ -84.00848, 27.51187 ], [ -84.03645, 28.51253 ], [ -84.06336, 29.42923 ], [ -84.07882, 29.93701 ] ] ] } },
{ "type": "Feature", "properties": { "fid": 9, "ZoneCode": "002107", "AbrvFull": "GE", "NameFull": "Gulf East", "ZoneNum": 7, "AbrvPart": "GE", "NamePart": "East", "ZoneType": "Special use", "StateAbrv": null, "StateName": null, "ProjAbrv": "TM", "ProjType": "Transverse Mercator", "LatOrigin": "0°00'N", "LonOriginE": "279°00'E", "LonOriginW": "81°00'W", "Lat0_deg": 0.0, "Lon0_E_deg": 279.0, "Lon0_W_deg": -81.0, "ProjScale": 0.9995987, "SkewAz_deg": -9999, "FalseN_m": -206.121, "FalseE_m": 499980.204, "FalseN_ift": -676.25, "FalseE_ift": 1640355.0, "DesignBy": "NGS", "Ref_frame": "NATRF2022" }, "geometry": { "type": "Polygon", "coordinates": [ [ [ -84.07882, 29.93701 ], [ -84.06336, 29.42923 ], [ -84.03645, 28.51253 ], [ -84.00848, 27.51187 ], [ -83.98984, 26.81503 ], [ -83.96531, 25.85725 ], [ -83.94192, 24.89698 ], [ -83.92017, 23.95789 ], [ -83.80315, 23.9296 ], [ -83.69315, 23.90099 ], [ -83.55037, 23.87405 ], [ -83.43037, 23.85599 ], [ -83.24981, 23.831 ], [ -82.99981, 23.82322 ], [ -82.99984, 24.47697 ], [ -83.05248, 24.50519 ], [ -83.08256, 24.53687 ], [ -83.10353, 24.57996 ], [ -83.10891, 24.61109 ], [ -83.10352, 24.65799 ], [ -83.08845, 24.69205 ], [ -83.05238, 24.73273 ], [ -83.00477, 24.76451 ], [ -82.94546, 24.78496 ], [ -82.86889, 24.79809 ], [ -82.78993, 24.79991 ], [ -82.7561, 24.79385 ], [ -82.72189, 24.7802 ], [ -82.67998, 24.74851 ], [ -82.65508, 24.71332 ], [ -82.63991, 24.65491 ], [ -82.64149, 24.62871 ], [ -82.65666, 24.58376 ], [ -82.32649, 24.58376 ], [ -82.30809, 24.63704 ], [ -82.28734, 24.67006 ], [ -82.26277, 24.6989 ], [ -82.23771, 24.72005 ], [ -82.20073, 24.73817 ], [ -82.13034, 24.74802 ], [ -82.07325, 24.74137 ], [ -82.02695, 24.72572 ], [ -81.97769, 24.74965 ], [ -81.9468, 24.75755 ], [ -81.89429, 24.76365 ], [ -81.81421, 24.80639 ], [ -81.77824, 24.81538 ], [ -81.76188, 24.82875 ], [ -81.69158, 24.86293 ], [ -81.64807, 24.88957 ], [ -81.62159, 24.89722 ], [ -81.58131, 24.92376 ], [ -81.50763, 24.95977 ], [ -81.48849, 24.96635 ], [ -81.41348, 24.97813 ], [ -81.35038, 24.97048 ], [ -81.26575, 24.98642 ], [ -81.21196, 24.98033 ], [ -81.17035, 24.96214 ], [ -81.18858, 24.9948 ], [ -81.21427, 25.01918 ], [ -81.24358, 25.0355 ], [ -81.27806, 25.0687 ], [ -81.29293, 25.09322 ], [ -81.3048, 25.13242 ], [ -81.32854, 25.17641 ], [ -81.34155, 25.21881 ], [ -81.34243, 25.24942 ], [ -81.31491, 25.35155 ], [ -81.3252, 25.39062 ], [ -81.36051, 25.43182 ], [ -81.38477, 25.49701 ], [ -81.42541, 25.5516 ], [ -81.46788, 25.57396 ], [ -81.5066, 25.61939 ], [ -81.51902, 25.65694 ], [ -81.57623, 25.68604 ], [ -81.63007, 25.67268 ], [ -81.67673, 25.67239 ], [ -81.72389, 25.6806 ], [ -81.75138, 25.69161 ], [ -81.78767, 25.71578 ], [ -81.81737, 25.74999 ], [ -81.84202, 25.79451 ], [ -81.8707, 25.82948 ], [ -81.90773, 25.9004 ], [ -81.91843, 25.95273 ], [ -81.95756, 26.03478 ], [ -81.96802, 26.06959 ], [ -81.97343, 26.12675 ], [ -81.98011, 26.15235 ], [ -81.98529, 26.21318 ], [ -82.00546, 26.28443 ], [ -82.03337, 26.27625 ], [ -82.07617, 26.27179 ], [ -82.11233, 26.27388 ], [ -82.16932, 26.28846 ], [ -82.2185, 26.31085 ], [ -82.28055, 26.35413 ], [ -82.30375, 26.37524 ], [ -82.33457, 26.41987 ], [ -82.34706, 26.44947 ], [ -82.35964, 26.50273 ], [ -82.37746, 26.53219 ], [ -82.3903, 26.57525 ], [ -82.41514, 26.61327 ], [ -82.42798, 26.64508 ], [ -82.43317, 26.68683 ], [ -82.43157, 26.73615 ], [ -82.44505, 26.76463 ], [ -82.49878, 26.83573 ], [ -82.54882, 26.91529 ], [ -82.60032, 27.0014 ], [ -82.62843, 27.06375 ], [ -82.63531, 27.08773 ], [ -82.67054, 27.15444 ], [ -82.7109, 27.19485 ], [ -82.73465, 27.24682 ], [ -82.78629, 27.31066 ], [ -82.81016, 27.33072 ], [ -82.83625, 27.36159 ], [ -82.86162, 27.42373 ], [ -82.88982, 27.45702 ], [ -82.92474, 27.5321 ], [ -82.93348, 27.56635 ], [ -82.93284, 27.61653 ], [ -82.91739, 27.66282 ], [ -82.91522, 27.68413 ], [ -82.9655, 27.73391 ], [ -82.99389, 27.77767 ], [ -83.01044, 27.81564 ], [ -83.01795, 27.84836 ], [ -83.01998, 27.89341 ], [ -83.01408, 27.93344 ], [ -82.99845, 27.99026 ], [ -82.99924, 28.02687 ], [ -83.00682, 28.05404 ], [ -83.01251, 28.13374 ], [ -83.02141, 28.19224 ], [ -83.01942, 28.23637 ], [ -83.00916, 28.26807 ], [ -82.98381, 28.30609 ], [ -82.95378, 28.3317 ], [ -82.89736, 28.35701 ], [ -82.87761, 28.41268 ], [ -82.87094, 28.44526 ], [ -82.85543, 28.47721 ], [ -82.85823, 28.50756 ], [ -82.85319, 28.542 ], [ -82.83914, 28.57458 ], [ -82.86791, 28.61503 ], [ -82.87756, 28.64182 ], [ -82.89042, 28.7 ], [ -82.9205, 28.75715 ], [ -82.92718, 28.81358 ], [ -82.9158, 28.8565 ], [ -82.92887, 28.87621 ], [ -82.94427, 28.91584 ], [ -82.94557, 28.96375 ], [ -82.97845, 28.95181 ], [ -83.02167, 28.94536 ], [ -83.08218, 28.94619 ], [ -83.11744, 28.95195 ], [ -83.16027, 28.96888 ], [ -83.1921, 28.98984 ], [ -83.21863, 29.01692 ], [ -83.25702, 29.08489 ], [ -83.2647, 29.12749 ], [ -83.26208, 29.15572 ], [ -83.29873, 29.17803 ], [ -83.33311, 29.21594 ], [ -83.34679, 29.24349 ], [ -83.35503, 29.28828 ], [ -83.40251, 29.31692 ], [ -83.43566, 29.3497 ], [ -83.50493, 29.38423 ], [ -83.53343, 29.40846 ], [ -83.5509, 29.43115 ], [ -83.56545, 29.46205 ], [ -83.58207, 29.56332 ], [ -83.6144, 29.58842 ], [ -83.64354, 29.59969 ], [ -83.68733, 29.62609 ], [ -83.71007, 29.64919 ], [ -83.7489, 29.71461 ], [ -83.75747, 29.75321 ], [ -83.7809, 29.79004 ], [ -83.83029, 29.81972 ], [ -83.87524, 29.82536 ], [ -83.90866, 29.8369 ], [ -83.93784, 29.85346 ], [ -83.97264, 29.88642 ], [ -84.03829, 29.91818 ], [ -84.06492, 29.94008 ], [ -84.07882, 29.93701 ] ] ] } }
]
}
