{
"type": "FeatureCollection",
"name": "Special use - Gulf",
"features": [
{ "type": "Feature", "properties": { "fid": 1, "ZoneCode": "001001", "AbrvFull": "GULF", "NameFull": "Gulf", "ZoneNum": 1, "AbrvPart": "GULF", "NamePart": null, "ZoneType": "Special use", "StateAbrv": null, "StateName": null, "ProjAbrv": "LC1", "ProjType": "Lambert Conformal Conic, one parallel", "LatOrigin": "28°00'N", "LonOriginE": "270°00'E", "LonOriginW": "90°00'W", "Lat0_deg": 28.0, "Lon0_E_deg": 270.0, "Lon0_W_deg": -90.0, "ProjScale": 0.9996, "SkewAz_deg": -9999, "FalseN_m": 533400.0, "FalseE_m": 1600200.0, "FalseN_ift": 1750000.0, "FalseE_ift": 5250000.0, "DesignBy": "NGS", "Ref_frame": "NATRF2022" }, "geometry": { "type": "Polygon", "coordinates": [ [ [ -86.4456, 30.23231 ], [ -86.51951, 30.23134 ], [ -86.5913, 30.24282 ], [ -86.64058, 30.24631 ], [ -86.71348, 30.24363 ], [ -86.8556, 30.22792 ], [ -87.01234, 30.20106 ], [ -87.12004, 30.18059 ], [ -87.18002, 30.17244 ], [ -87.25829, 30.16542 ], [ -87.30281, 30.1683 ], [ -87.38012, 30.15098 ], [ -87.51837, 30.12553 ], [ -87.51835, 30.22951 ], [ -87.64782, 30.19921 ], [ -87.718, 30.19176 ], [ -87.80715, 30.17738 ], [ -87.92576, 30.17956 ], [ -88.00362, 30.17342 ], [ -88.02804, 30.15038 ], [ -88.0461, 30.14469 ], [ -88.07487, 30.14715 ], [ -88.10342, 30.16638 ], [ -88.13161, 30.17362 ], [ -88.16202, 30.20009 ], [ -88.27794, 30.18007 ], [ -88.3103, 30.17782 ], [ -88.34772, 30.19009 ], [ -88.38517, 30.15814 ], [ -88.43351, 30.14722 ], [ -88.46128, 30.14669 ], [ -88.50979, 30.15794 ], [ -88.54585, 30.17665 ], [ -88.56787, 30.17045 ], [ -88.60388, 30.17061 ], [ -88.66725, 30.17833 ], [ -88.71739, 30.19088 ], [ -88.7539, 30.18821 ], [ -88.80064, 30.20239 ], [ -88.82139, 30.21737 ], [ -88.85039, 30.19228 ], [ -88.90033, 30.16998 ], [ -88.88903, 30.13985 ], [ -88.85491, 30.13553 ], [ -88.83435, 30.09071 ], [ -88.80297, 30.05783 ], [ -88.78367, 30.02669 ], [ -88.76449, 29.97194 ], [ -88.75839, 29.91827 ], [ -88.76725, 29.84077 ], [ -88.80182, 29.7502 ], [ -88.82343, 29.71499 ], [ -88.86994, 29.6571 ], [ -88.91266, 29.61178 ], [ -88.9602, 29.5771 ], [ -89.03887, 29.49223 ], [ -89.07229, 29.47084 ], [ -89.11945, 29.45807 ], [ -89.14207, 29.42947 ], [ -89.13761, 29.38143 ], [ -89.12162, 29.3665 ], [ -89.11216, 29.33967 ], [ -89.09453, 29.32893 ], [ -89.06943, 29.2943 ], [ -89.02261, 29.27446 ], [ -89.00004, 29.27148 ], [ -88.94205, 29.25374 ], [ -88.91831, 29.23628 ], [ -88.90915, 29.20016 ], [ -88.91765, 29.17944 ], [ -88.91324, 29.15457 ], [ -88.92781, 29.11728 ], [ -88.96744, 29.09507 ], [ -88.9969, 29.0853 ], [ -89.001, 29.05701 ], [ -89.01269, 29.02768 ], [ -89.04564, 29.00694 ], [ -89.08883, 28.96115 ], [ -89.09605, 28.94249 ], [ -89.13328, 28.91973 ], [ -89.16907, 28.92257 ], [ -89.19654, 28.93996 ], [ -89.20958, 28.9702 ], [ -89.2349, 28.98715 ], [ -89.2796, 28.97778 ], [ -89.30515, 28.95609 ], [ -89.32067, 28.9344 ], [ -89.38473, 28.8715 ], [ -89.4257, 28.85513 ], [ -89.45653, 28.86061 ], [ -89.48764, 28.88737 ], [ -89.49184, 28.91941 ], [ -89.46941, 28.95618 ], [ -89.46574, 28.97444 ], [ -89.46342, 29.08282 ], [ -89.46867, 29.10746 ], [ -89.50232, 29.15838 ], [ -89.52047, 29.17219 ], [ -89.55365, 29.18598 ], [ -89.61043, 29.19864 ], [ -90.03232, 29.13504 ], [ -90.05557, 29.12196 ], [ -90.09259, 29.09199 ], [ -90.15125, 29.05635 ], [ -90.2007, 29.03618 ], [ -90.23906, 29.0331 ], [ -90.34432, 29.00318 ], [ -90.36841, 29.00343 ], [ -90.40938, 28.99534 ], [ -90.47985, 29.00861 ], [ -90.55255, 29.03681 ], [ -90.72076, 28.99263 ], [ -90.74686, 28.9886 ], [ -90.82265, 28.98591 ], [ -90.86456, 28.99159 ], [ -90.90708, 28.99113 ], [ -90.97029, 29.00503 ], [ -91.00876, 29.0269 ], [ -91.02076, 29.04607 ], [ -91.02303, 29.0674 ], [ -91.0009, 29.10048 ], [ -90.96037, 29.11106 ], [ -90.97492, 29.12151 ], [ -91.00605, 29.11999 ], [ -91.07233, 29.13153 ], [ -91.11839, 29.14277 ], [ -91.14936, 29.16508 ], [ -91.20784, 29.17116 ], [ -91.29268, 29.19618 ], [ -91.3187, 29.20836 ], [ -91.37691, 29.26259 ], [ -91.39165, 29.28187 ], [ -91.42113, 29.30283 ], [ -91.52974, 29.34446 ], [ -91.56832, 29.34807 ], [ -91.59426, 29.36031 ], [ -91.61323, 29.36063 ], [ -91.64404, 29.37556 ], [ -91.66253, 29.37459 ], [ -91.69999, 29.36009 ], [ -91.72341, 29.36342 ], [ -91.77749, 29.39608 ], [ -91.79318, 29.38254 ], [ -91.84093, 29.36019 ], [ -91.87503, 29.36199 ], [ -91.89765, 29.37522 ], [ -91.91301, 29.40569 ], [ -91.91321, 29.42021 ], [ -91.96483, 29.43939 ], [ -91.98387, 29.46071 ], [ -92.00731, 29.46338 ], [ -92.02985, 29.47596 ], [ -92.04562, 29.50581 ], [ -92.07805, 29.53149 ], [ -92.11414, 29.53514 ], [ -92.14667, 29.53204 ], [ -92.18332, 29.51833 ], [ -92.22346, 29.49471 ], [ -92.26398, 29.48415 ], [ -92.29367, 29.4815 ], [ -92.35366, 29.48872 ], [ -92.40502, 29.50029 ], [ -92.55982, 29.51818 ], [ -92.63254, 29.52972 ], [ -92.66579, 29.53788 ], [ -92.75071, 29.56488 ], [ -92.80676, 29.58639 ], [ -92.977, 29.65958 ], [ -93.02911, 29.67786 ], [ -93.12515, 29.70621 ], [ -93.22317, 29.7264 ], [ -93.28735, 29.72433 ], [ -93.30363, 29.7061 ], [ -93.34944, 29.69541 ], [ -93.38725, 29.71377 ], [ -93.43276, 29.71853 ], [ -93.48775, 29.71781 ], [ -93.64479, 29.70027 ], [ -93.72267, 29.68787 ], [ -93.77015, 29.67083 ], [ -93.76652, 29.63431 ], [ -93.77932, 29.61169 ], [ -93.80661, 29.59686 ], [ -93.84859, 29.60026 ], [ -93.87501, 29.62143 ], [ -93.90604, 29.625 ], [ -94.03356, 29.625 ], [ -94.12518, 29.59556 ], [ -94.37035, 29.50023 ], [ -94.37587, 29.49978 ], [ -94.49945, 29.45234 ], [ -94.62519, 29.39766 ], [ -94.65031, 29.38282 ], [ -94.63605, 29.37064 ], [ -94.6239, 29.34314 ], [ -94.64242, 29.30014 ], [ -94.66622, 29.28105 ], [ -94.69231, 29.27705 ], [ -94.71331, 29.28252 ], [ -94.77269, 29.23172 ], [ -94.84015, 29.19835 ], [ -94.91212, 29.15932 ], [ -95.0002, 29.10445 ], [ -95.0864, 29.06824 ], [ -95.09434, 29.03224 ], [ -95.10545, 29.01605 ], [ -95.13947, 28.9917 ], [ -95.18051, 28.94924 ], [ -95.22723, 28.91038 ], [ -95.30812, 28.85883 ], [ -95.32211, 28.83444 ], [ -95.35347, 28.81786 ], [ -95.4017, 28.80592 ], [ -95.42007, 28.80563 ], [ -95.49389, 28.76534 ], [ -95.53202, 28.75026 ], [ -95.75024, 28.63842 ], [ -95.87524, 28.58279 ], [ -96.07833, 28.5 ], [ -96.18224, 28.45204 ], [ -96.25819, 28.40787 ], [ -96.27177, 28.38293 ], [ -96.29417, 28.36831 ], [ -96.32076, 28.36287 ], [ -96.34129, 28.3407 ], [ -96.35269, 28.31292 ], [ -96.37525, 28.29076 ], [ -96.531, 28.22116 ], [ -96.61878, 28.16952 ], [ -96.74625, 28.07962 ], [ -96.8442, 28.0003 ], [ -96.87526, 27.96992 ], [ -96.95949, 27.8753 ], [ -96.98428, 27.80378 ], [ -97.02185, 27.78336 ], [ -97.05022, 27.75031 ], [ -97.12526, 27.6406 ], [ -97.19982, 27.50032 ], [ -97.25026, 27.39231 ], [ -97.29657, 27.25032 ], [ -97.30936, 27.19611 ], [ -97.31982, 27.11002 ], [ -97.32322, 27.01026 ], [ -97.31595, 26.92929 ], [ -97.30042, 26.83461 ], [ -97.28272, 26.76342 ], [ -97.2517, 26.66187 ], [ -97.21406, 26.57677 ], [ -97.21255, 26.56165 ], [ -97.18457, 26.47585 ], [ -97.1565, 26.37535 ], [ -97.12612, 26.25035 ], [ -97.11015, 26.14058 ], [ -97.1083, 26.10451 ], [ -97.08999, 26.07534 ], [ -97.09786, 26.03862 ], [ -97.0899, 25.9609 ], [ -96.92451, 25.97551 ], [ -96.80829, 26.00897 ], [ -96.3828, 26.00993 ], [ -96.0683, 26.00983 ], [ -95.65741, 26.00868 ], [ -95.23192, 26.00906 ], [ -94.84343, 26.00833 ], [ -94.28845, 26.00546 ], [ -93.93699, 26.00254 ], [ -93.44514, 25.99706 ], [ -93.25275, 25.90761 ], [ -92.99486, 25.77608 ], [ -92.93222, 25.67425 ], [ -92.52789, 25.65619 ], [ -92.13314, 25.63706 ], [ -91.65817, 25.61283 ], [ -91.342, 25.66197 ], [ -91.09025, 25.70394 ], [ -90.49471, 25.78142 ], [ -90.12568, 25.76928 ], [ -89.60919, 25.75071 ], [ -89.01911, 25.72725 ], [ -88.36114, 25.69861 ], [ -88.27792, 25.69191 ], [ -87.94095, 25.66793 ], [ -87.45975, 25.63233 ], [ -87.04489, 25.60034 ], [ -87.00961, 25.50034 ], [ -86.55266, 25.20699 ], [ -86.33368, 25.08541 ], [ -85.99986, 24.89898 ], [ -85.71985, 24.73788 ], [ -85.53179, 24.64899 ], [ -85.10539, 24.44345 ], [ -84.76872, 24.27791 ], [ -84.64427, 24.22207 ], [ -84.49094, 24.16013 ], [ -83.99982, 23.97709 ], [ -83.80315, 23.9296 ], [ -83.69315, 23.90099 ], [ -83.55037, 23.87405 ], [ -83.43037, 23.85599 ], [ -83.24981, 23.831 ], [ -82.99981, 23.82322 ], [ -82.99984, 24.47697 ], [ -83.05248, 24.50519 ], [ -83.08256, 24.53687 ], [ -83.10353, 24.57996 ], [ -83.10891, 24.61109 ], [ -83.10352, 24.65799 ], [ -83.08845, 24.69205 ], [ -83.05238, 24.73273 ], [ -83.00477, 24.76451 ], [ -82.94546, 24.78496 ], [ -82.86889, 24.79809 ], [ -82.78993, 24.79991 ], [ -82.7561, 24.79385 ], [ -82.72189, 24.7802 ], [ -82.67998, 24.74851 ], [ -82.65508, 24.71332 ], [ -82.63991, 24.65491 ], [ -82.64149, 24.62871 ], [ -82.65666, 24.58376 ], [ -82.32649, 24.58376 ], [ -82.30809, 24.63704 ], [ -82.28734, 24.67006 ], [ -82.26277, 24.6989 ], [ -82.23771, 24.72005 ], [ -82.20073, 24.73817 ], [ -82.13034, 24.74802 ], [ -82.07325, 24.74137 ], [ -82.02695, 24.72572 ], [ -81.97769, 24.74965 ], [ -81.9468, 24.75755 ], [ -81.89429, 24.76365 ], [ -81.81421, 24.80639 ], [ -81.77824, 24.81538 ], [ -81.76188, 24.82875 ], [ -81.69158, 24.86293 ], [ -81.64807, 24.88957 ], [ -81.62159, 24.89722 ], [ -81.58131, 24.92376 ], [ -81.50763, 24.95977 ], [ -81.48849, 24.96635 ], [ -81.41348, 24.97813 ], [ -81.35038, 24.97048 ], [ -81.26575, 24.98642 ], [ -81.21196, 24.98033 ], [ -81.17035, 24.96214 ], [ -81.18858, 24.9948 ], [ -81.21427, 25.01918 ], [ -81.24358, 25.0355 ], [ -81.27806, 25.0687 ], [ -81.29293, 25.09322 ], [ -81.3048, 25.13242 ], [ -81.32854, 25.17641 ], [ -81.34155, 25.21881 ], [ -81.34243, 25.24942 ], [ -81.31491, 25.35155 ], [ -81.3252, 25.39062 ], [ -81.36051, 25.43182 ], [ -81.38477, 25.49701 ], [ -81.42541, 25.5516 ], [ -81.46788, 25.57396 ], [ -81.5066, 25.61939 ], [ -81.51902, 25.65694 ], [ -81.57623, 25.68604 ], [ -81.63007, 25.67268 ], [ -81.67673, 25.67239 ], [ -81.72389, 25.6806 ], [ -81.75138, 25.69161 ], [ -81.78767, 25.71578 ], [ -81.81737, 25.74999 ], [ -81.84202, 25.79451 ], [ -81.8707, 25.82948 ], [ -81.90773, 25.9004 ], [ -81.91843, 25.95273 ], [ -81.95756, 26.03478 ], [ -81.96802, 26.06959 ], [ -81.97343, 26.12675 ], [ -81.98011, 26.15235 ], [ -81.98529, 26.21318 ], [ -82.00546, 26.28443 ], [ -82.03337, 26.27625 ], [ -82.07617, 26.27179 ], [ -82.11233, 26.27388 ], [ -82.16932, 26.28846 ], [ -82.2185, 26.31085 ], [ -82.28055, 26.35413 ], [ -82.30375, 26.37524 ], [ -82.33457, 26.41987 ], [ -82.34706, 26.44947 ], [ -82.35964, 26.50273 ], [ -82.37746, 26.53219 ], [ -82.3903, 26.57525 ], [ -82.41514, 26.61327 ], [ -82.42798, 26.64508 ], [ -82.43317, 26.68683 ], [ -82.43157, 26.73615 ], [ -82.44505, 26.76463 ], [ -82.49878, 26.83573 ], [ -82.54882, 26.91529 ], [ -82.60032, 27.0014 ], [ -82.62843, 27.06375 ], [ -82.63531, 27.08773 ], [ -82.67054, 27.15444 ], [ -82.7109, 27.19485 ], [ -82.73465, 27.24682 ], [ -82.78629, 27.31066 ], [ -82.81016, 27.33072 ], [ -82.83625, 27.36159 ], [ -82.86162, 27.42373 ], [ -82.88982, 27.45702 ], [ -82.92474, 27.5321 ], [ -82.93348, 27.56635 ], [ -82.93284, 27.61653 ], [ -82.91739, 27.66282 ], [ -82.91522, 27.68413 ], [ -82.9655, 27.73391 ], [ -82.99389, 27.77767 ], [ -83.01044, 27.81564 ], [ -83.01795, 27.84836 ], [ -83.01998, 27.89341 ], [ -83.01408, 27.93344 ], [ -82.99845, 27.99026 ], [ -82.99924, 28.02687 ], [ -83.00682, 28.05404 ], [ -83.01251, 28.13374 ], [ -83.02141, 28.19224 ], [ -83.01942, 28.23637 ], [ -83.00916, 28.26807 ], [ -82.98381, 28.30609 ], [ -82.95378, 28.3317 ], [ -82.89736, 28.35701 ], [ -82.87761, 28.41268 ], [ -82.87094, 28.44526 ], [ -82.85543, 28.47721 ], [ -82.85823, 28.50756 ], [ -82.85319, 28.542 ], [ -82.83914, 28.57458 ], [ -82.86791, 28.61503 ], [ -82.87756, 28.64182 ], [ -82.89042, 28.7 ], [ -82.9205, 28.75715 ], [ -82.92718, 28.81358 ], [ -82.9158, 28.8565 ], [ -82.92887, 28.87621 ], [ -82.94427, 28.91584 ], [ -82.94557, 28.96375 ], [ -82.97845, 28.95181 ], [ -83.02167, 28.94536 ], [ -83.08218, 28.94619 ], [ -83.11744, 28.95195 ], [ -83.16027, 28.96888 ], [ -83.1921, 28.98984 ], [ -83.21863, 29.01692 ], [ -83.25702, 29.08489 ], [ -83.2647, 29.12749 ], [ -83.26208, 29.15572 ], [ -83.29873, 29.17803 ], [ -83.33311, 29.21594 ], [ -83.34679, 29.24349 ], [ -83.35503, 29.28828 ], [ -83.40251, 29.31692 ], [ -83.43566, 29.3497 ], [ -83.50493, 29.38423 ], [ -83.53343, 29.40846 ], [ -83.5509, 29.43115 ], [ -83.56545, 29.46205 ], [ -83.58207, 29.56332 ], [ -83.6144, 29.58842 ], [ -83.64354, 29.59969 ], [ -83.68733, 29.62609 ], [ -83.71007, 29.64919 ], [ -83.7489, 29.71461 ], [ -83.75747, 29.75321 ], [ -83.7809, 29.79004 ], [ -83.83029, 29.81972 ], [ -83.87524, 29.82536 ], [ -83.90866, 29.8369 ], [ -83.93784, 29.85346 ], [ -83.97264, 29.88642 ], [ -84.03829, 29.91818 ], [ -84.06492, 29.94008 ], [ -84.12581, 29.92459 ], [ -84.1608, 29.92127 ], [ -84.16891, 29.8755 ], [ -84.18199, 29.84436 ], [ -84.20231, 29.81315 ], [ -84.22293, 29.79222 ], [ -84.25287, 29.77158 ], [ -84.31488, 29.74946 ], [ -84.36342, 29.74351 ], [ -84.41995, 29.74696 ], [ -84.46016, 29.69844 ], [ -84.48056, 29.68389 ], [ -84.54847, 29.65324 ], [ -84.58868, 29.64074 ], [ -84.64378, 29.59274 ], [ -84.68935, 29.56264 ], [ -84.72689, 29.54493 ], [ -84.7875, 29.5259 ], [ -84.86755, 29.48362 ], [ -84.89636, 29.47121 ], [ -84.98501, 29.44555 ], [ -85.03631, 29.4365 ], [ -85.07043, 29.43698 ], [ -85.11267, 29.44641 ], [ -85.14363, 29.46059 ], [ -85.17712, 29.48516 ], [ -85.20406, 29.49393 ], [ -85.25967, 29.52481 ], [ -85.28501, 29.51506 ], [ -85.33543, 29.5055 ], [ -85.37285, 29.50701 ], [ -85.43134, 29.52507 ], [ -85.47088, 29.55141 ], [ -85.50455, 29.58781 ], [ -85.53199, 29.62823 ], [ -85.55732, 29.68435 ], [ -85.57024, 29.72102 ], [ -85.58648, 29.79091 ], [ -85.58962, 29.83756 ], [ -85.63173, 29.86458 ], [ -85.70979, 29.93584 ], [ -85.74152, 29.94781 ], [ -85.80356, 29.97816 ], [ -85.8502, 30.0092 ], [ -85.87286, 30.03079 ], [ -85.93114, 30.06696 ], [ -86.0055, 30.10606 ], [ -86.07407, 30.13519 ], [ -86.1498, 30.16291 ], [ -86.30638, 30.2094 ], [ -86.38501, 30.22522 ], [ -86.4456, 30.23231 ] ] ] } }
]
}
